{"type":"FeatureCollection","features":[{"type":"Feature","name":"ShapeMeta","geometry":{"type":"LineString","coordinates":[[-1.532989,52.28405],[-1.533032,52.28405]]},"properties":{"name":"High Street","maxspeed":"30 mph","highway":"primary","profile":"bus","distance":"2.959472","time":"0.2942297"}},{"type":"Feature","name":"ShapeMeta","geometry":{"type":"LineString","coordinates":[[-1.533032,52.28405],[-1.53342,52.28403]]},"properties":{"name":"High Street","maxspeed":"30 mph","highway":"primary","profile":"bus","distance":"29.35947","time":"2.918908"}},{"type":"Feature","name":"ShapeMeta","geometry":{"type":"LineString","coordinates":[[-1.53342,52.28403],[-1.533879,52.28403],[-1.534134,52.28402]]},"properties":{"name":"High Street","maxspeed":"30 mph","highway":"primary","profile":"bus","distance":"77.85947","time":"7.740761"}},{"type":"Feature","name":"ShapeMeta","geometry":{"type":"LineString","coordinates":[[-1.534134,52.28402],[-1.534146,52.28407]]},"properties":{"name":"Lower Avenue","maxspeed":"30 mph","oneway":"yes","highway":"secondary","profile":"bus","distance":"83.75947","time":"8.327336"}},{"type":"Feature","name":"ShapeMeta","geometry":{"type":"LineString","coordinates":[[-1.534146,52.28407],[-1.53416,52.28412],[-1.534364,52.28475],[-1.534375,52.28478]]},"properties":{"name":"Lower Avenue","maxspeed":"30 mph","oneway":"yes","highway":"secondary","profile":"bus","distance":"164.1595","time":"16.32067"}},{"type":"Feature","name":"ShapeMeta","geometry":{"type":"LineString","coordinates":[[-1.534375,52.28478],[-1.534433,52.28495],[-1.534531,52.28517],[-1.534739,52.28553],[-1.534756,52.28556]]},"properties":{"name":"Lower Avenue","maxspeed":"30 mph","oneway":"yes","highway":"secondary","profile":"bus","distance":"254.5595","time":"25.3082"}},{"type":"Feature","name":"ShapeMeta","geometry":{"type":"LineString","coordinates":[[-1.534756,52.28556],[-1.534696,52.28557]]},"properties":{"name":"Spencer Street","maxspeed":"30 mph","highway":"secondary","profile":"bus","distance":"258.7382","time":"25.72365"}},{"type":"Feature","name":"ShapeMeta","geometry":{"type":"LineString","coordinates":[[-1.534696,52.28557],[-1.534626,52.28558]]},"properties":{"name":"Spencer Street","maxspeed":"30 mph","highway":"secondary","profile":"bus","distance":"263.5595","time":"26.20298"}},{"type":"Feature","name":"ShapeMeta","geometry":{"type":"LineString","coordinates":[[-1.534626,52.28558],[-1.534433,52.28561],[-1.533584,52.28572],[-1.533541,52.28573]]},"properties":{"name":"Spencer Street","maxspeed":"30 mph","highway":"secondary","profile":"bus","distance":"339.2595","time":"33.72905"}},{"type":"Feature","name":"ShapeMeta","geometry":{"type":"LineString","coordinates":[[-1.533541,52.28573],[-1.533266,52.28578],[-1.533122,52.2858]]},"properties":{"name":"Spencer Street","maxspeed":"30 mph","highway":"secondary","profile":"bus","distance":"368.8595","time":"36.67187"}},{"type":"Feature","name":"ShapeMeta","geometry":{"type":"LineString","coordinates":[[-1.533122,52.2858],[-1.533124,52.28589]]},"properties":{"name":"Victoria Terrace","maxspeed":"20 mph","highway":"secondary","profile":"bus","distance":"378.1595","time":"38.05877"}},{"type":"Feature","name":"ShapeMeta","geometry":{"type":"LineString","coordinates":[[-1.533124,52.28589],[-1.533178,52.286],[-1.533204,52.28608]]},"properties":{"name":"Victoria Terrace","maxspeed":"20 mph","oneway":"yes","highway":"secondary","profile":"bus","distance":"399.6595","time":"41.26505"}},{"type":"Feature","name":"ShapeMeta","geometry":{"type":"LineString","coordinates":[[-1.533204,52.28608],[-1.533208,52.28609],[-1.533254,52.28622]]},"properties":{"name":"Victoria Terrace","maxspeed":"20 mph","oneway":"yes","highway":"secondary","profile":"bus","distance":"416.4595","time":"43.77043"}},{"type":"Feature","name":"ShapeMeta","geometry":{"type":"LineString","coordinates":[[-1.533254,52.28622],[-1.533258,52.28624],[-1.533269,52.28627]]},"properties":{"name":"Victoria Terrace","maxspeed":"20 mph","oneway":"yes","highway":"secondary","profile":"bus","distance":"421.6239","time":"44.54059"}},{"type":"Feature","name":"ShapeMeta","geometry":{"type":"LineString","coordinates":[[-1.533269,52.28627],[-1.53334,52.28646],[-1.533348,52.28652]]},"properties":{"name":"Victoria Terrace","maxspeed":"20 mph","oneway":"yes","highway":"secondary","profile":"bus","distance":"450.1595","time":"48.79609"}},{"type":"Feature","name":"ShapeMeta","geometry":{"type":"LineString","coordinates":[[-1.533348,52.28652],[-1.533368,52.28656]]},"properties":{"name":"Victoria Terrace","maxspeed":"20 mph","highway":"secondary","profile":"bus","distance":"454.5595","time":"49.45226"}},{"type":"Feature","name":"ShapeMeta","geometry":{"type":"LineString","coordinates":[[-1.533368,52.28656],[-1.533432,52.28664]]},"properties":{"name":"The Parade","bridge":"yes","maxspeed":"20 mph","highway":"secondary","profile":"bus","distance":"464.4595","time":"50.92864"}},{"type":"Feature","name":"ShapeMeta","geometry":{"type":"LineString","coordinates":[[-1.533432,52.28664],[-1.533479,52.2867],[-1.533572,52.28679]]},"properties":{"name":"The Parade","bridge":"yes","maxspeed":"20 mph","highway":"secondary","profile":"bus","distance":"483.4595","time":"53.7621"}},{"type":"Feature","name":"ShapeMeta","geometry":{"type":"LineString","coordinates":[[-1.533572,52.28679],[-1.533605,52.28682],[-1.533679,52.28689]]},"properties":{"name":"Parade","maxspeed":"20 mph","highway":"secondary","profile":"bus","distance":"496.6595","time":"55.73061"}},{"type":"Feature","name":"ShapeMeta","geometry":{"type":"LineString","coordinates":[[-1.533679,52.28689],[-1.533881,52.28707]]},"properties":{"name":"Parade","maxspeed":"20 mph","highway":"secondary","profile":"bus","distance":"520.7595","time":"59.32463"}},{"type":"Feature","name":"ShapeMeta","geometry":{"type":"LineString","coordinates":[[-1.533881,52.28707],[-1.534184,52.28733]]},"properties":{"name":"Parade","maxspeed":"20 mph","highway":"secondary","profile":"bus","distance":"556.8595","time":"64.7082"}},{"type":"Feature","name":"ShapeMeta","geometry":{"type":"LineString","coordinates":[[-1.534184,52.28733],[-1.534327,52.28746]]},"properties":{"name":"The Parade","maxspeed":"20 mph","highway":"secondary","profile":"bus","distance":"573.8595","time":"67.2434"}},{"type":"Feature","name":"ShapeMeta","geometry":{"type":"LineString","coordinates":[[-1.534327,52.28746],[-1.534387,52.28754]]},"properties":{"name":"The Parade","maxspeed":"20 mph","highway":"secondary","profile":"bus","distance":"583.2595","time":"68.64522"}},{"type":"Feature","name":"ShapeMeta","geometry":{"type":"LineString","coordinates":[[-1.534387,52.28754],[-1.53449,52.28762]]},"properties":{"name":"Parade","maxspeed":"20 mph","highway":"secondary","profile":"bus","distance":"594.5595","time":"70.33038"}},{"type":"Feature","name":"ShapeMeta","geometry":{"type":"LineString","coordinates":[[-1.53449,52.28762],[-1.534694,52.28782]]},"properties":{"name":"Parade","maxspeed":"20 mph","highway":"secondary","profile":"bus","distance":"620.5595","time":"74.20775"}},{"type":"Feature","name":"ShapeMeta","geometry":{"type":"LineString","coordinates":[[-1.534694,52.28782],[-1.534786,52.28789]]},"properties":{"name":"Parade","maxspeed":"20 mph","highway":"secondary","profile":"bus","distance":"631.0595","time":"75.77361"}},{"type":"Feature","name":"ShapeMeta","geometry":{"type":"LineString","coordinates":[[-1.534786,52.28789],[-1.53485,52.28799],[-1.535061,52.28828]]},"properties":{"name":"Parade","maxspeed":"20 mph","highway":"secondary","profile":"bus","distance":"678.1703","time":"82.79922"}},{"type":"Feature","name":"ShapeMeta","geometry":{"type":"LineString","coordinates":[[-1.535061,52.28828],[-1.535112,52.28835],[-1.535184,52.28848],[-1.535208,52.28855]]},"properties":{"name":"Parade","maxspeed":"20 mph","highway":"secondary","profile":"bus","distance":"709.5595","time":"87.48027"}},{"type":"Feature","name":"ShapeMeta","geometry":{"type":"LineString","coordinates":[[-1.535208,52.28855],[-1.535268,52.28886]]},"properties":{"name":"Parade","maxspeed":"20 mph","highway":"secondary","profile":"bus","distance":"744.0595","time":"92.62524"}},{"type":"Feature","name":"ShapeMeta","geometry":{"type":"LineString","coordinates":[[-1.535268,52.28886],[-1.535286,52.28896],[-1.535469,52.28994],[-1.535492,52.29008]]},"properties":{"name":"Parade","maxspeed":"20 mph","highway":"secondary","profile":"bus","distance":"880.6002","time":"112.9875"}},{"type":"Feature","name":"ShapeMeta","geometry":{"type":"LineString","coordinates":[[-1.535492,52.29008],[-1.535539,52.29036]]},"properties":{"name":"Parade","maxspeed":"20 mph","highway":"secondary","profile":"bus","distance":"912.5596","time":"117.7536"}},{"type":"Feature","name":"ShapeMeta","geometry":{"type":"LineString","coordinates":[[-1.535539,52.29036],[-1.535638,52.29097],[-1.5358,52.29189],[-1.535813,52.29197]]},"properties":{"name":"Parade","maxspeed":"20 mph","highway":"secondary","profile":"bus","distance":"1092.06","time":"144.5223"}},{"type":"Feature","name":"ShapeMeta","geometry":{"type":"LineString","coordinates":[[-1.535813,52.29197],[-1.535832,52.29206],[-1.535928,52.29263]]},"properties":{"name":"Parade","maxspeed":"20 mph","highway":"secondary","profile":"bus","distance":"1165.442","time":"155.4658"}},{"type":"Feature","name":"ShapeMeta","geometry":{"type":"LineString","coordinates":[[-1.535928,52.29263],[-1.535939,52.29269]]},"properties":{"name":"Parade","maxspeed":"20 mph","highway":"secondary","profile":"bus","distance":"1172.26","time":"156.4825"}},{"type":"Feature","name":"ShapeMeta","geometry":{"type":"LineString","coordinates":[[-1.535939,52.29269],[-1.535962,52.29283],[-1.536076,52.2935],[-1.5361,52.29363]]},"properties":{"name":"Parade","maxspeed":"20 mph","highway":"secondary","profile":"bus","distance":"1277.96","time":"172.2455"}},{"type":"Feature","name":"ShapeMeta","geometry":{"type":"LineString","coordinates":[[-1.5361,52.29363],[-1.535868,52.29364],[-1.535352,52.29368],[-1.5352,52.2937]]},"properties":{"name":"Clarendon Avenue","maxspeed":"30 mph","highway":"secondary","profile":"bus","distance":"1339.76","time":"178.3896"}},{"type":"Feature","name":"ShapeMeta","geometry":{"type":"LineString","coordinates":[[-1.5352,52.2937],[-1.535217,52.29379],[-1.535288,52.29426],[-1.535303,52.29439]]},"properties":{"name":"Kenilworth Road","maxspeed":"30 mph","highway":"secondary","profile":"bus","distance":"1416.411","time":"186.0103"}},{"type":"Feature","name":"ShapeMeta","geometry":{"type":"LineString","coordinates":[[-1.535303,52.29439],[-1.535314,52.29449]]},"properties":{"name":"Kenilworth Road","maxspeed":"30 mph","highway":"secondary","profile":"bus","distance":"1427.459","time":"187.1087"}},{"type":"Feature","name":"ShapeMeta","geometry":{"type":"LineString","coordinates":[[-1.535314,52.29449],[-1.535332,52.29462],[-1.53536,52.29489]]},"properties":{"name":"Kenilworth Road","maxspeed":"30 mph","highway":"secondary","profile":"bus","distance":"1472.059","time":"191.5428"}},{"type":"Feature","name":"ShapeMeta","geometry":{"type":"LineString","coordinates":[[-1.53536,52.29489],[-1.535429,52.29553]]},"properties":{"name":"Kenilworth Road","maxspeed":"30 mph","highway":"secondary","profile":"bus","distance":"1543.459","time":"198.6414"}},{"type":"Feature","name":"ShapeMeta","geometry":{"type":"LineString","coordinates":[[-1.535429,52.29553],[-1.535512,52.29619]]},"properties":{"name":"Kenilworth Road","maxspeed":"30 mph","highway":"secondary","profile":"bus","distance":"1617.459","time":"205.9984"}},{"type":"Feature","name":"ShapeMeta","geometry":{"type":"LineString","coordinates":[[-1.535512,52.29619],[-1.535533,52.29636],[-1.535576,52.29675]]},"properties":{"name":"Kenilworth Road","maxspeed":"30 mph","highway":"secondary","profile":"bus","distance":"1679.51","time":"212.1675"}},{"type":"Feature","name":"ShapeMeta","geometry":{"type":"LineString","coordinates":[[-1.535576,52.29675],[-1.535583,52.29682]]},"properties":{"name":"Kenilworth Road","maxspeed":"30 mph","highway":"secondary","profile":"bus","distance":"1687.159","time":"212.928"}},{"type":"Feature","name":"ShapeMeta","geometry":{"type":"LineString","coordinates":[[-1.535583,52.29682],[-1.535653,52.29742]]},"properties":{"name":"Kenilworth Road","maxspeed":"30 mph","highway":"secondary","profile":"bus","distance":"1753.859","time":"219.5592"}},{"type":"Feature","name":"ShapeMeta","geometry":{"type":"LineString","coordinates":[[-1.535653,52.29742],[-1.535696,52.29776],[-1.53571,52.29783],[-1.535746,52.29802]]},"properties":{"name":"Kenilworth Road","maxspeed":"30 mph","highway":"secondary","profile":"bus","distance":"1820.759","time":"226.2104"}},{"type":"Feature","name":"ShapeMeta","geometry":{"type":"LineString","coordinates":[[-1.535746,52.29802],[-1.535782,52.29816],[-1.535874,52.29861],[-1.535936,52.29884]]},"properties":{"name":"Kenilworth Road","maxspeed":"30 mph","highway":"trunk","profile":"bus","distance":"1913.698","time":"235.4504"}},{"type":"Feature","name":"ShapeMeta","geometry":{"type":"LineString","coordinates":[[-1.535936,52.29884],[-1.536145,52.29963],[-1.536211,52.29988]]},"properties":{"name":"Kenilworth Road","maxspeed":"30 mph","highway":"trunk","profile":"bus","distance":"2030.959","time":"247.1084"}},{"type":"Feature","name":"ShapeMeta","geometry":{"type":"LineString","coordinates":[[-1.536211,52.29988],[-1.536278,52.30008]]},"properties":{"name":"Kenilworth Road","maxspeed":"30 mph","highway":"trunk","profile":"bus","distance":"2052.559","time":"249.2559"}},{"type":"Feature","name":"ShapeMeta","geometry":{"type":"LineString","coordinates":[[-1.536278,52.30008],[-1.536443,52.30066]]},"properties":{"name":"Kenilworth Road","maxspeed":"30 mph","highway":"trunk","profile":"bus","distance":"2118.759","time":"255.8375"}},{"type":"Feature","name":"ShapeMeta","geometry":{"type":"LineString","coordinates":[[-1.536443,52.30066],[-1.536596,52.30116]]},"properties":{"name":"Kenilworth Road","maxspeed":"30 mph","highway":"trunk","profile":"bus","distance":"2174.442","time":"261.3735"}},{"type":"Feature","name":"ShapeMeta","geometry":{"type":"LineString","coordinates":[[-1.536596,52.30116],[-1.536623,52.30124],[-1.536851,52.30208]]},"properties":{"name":"Kenilworth Road","maxspeed":"30 mph","highway":"trunk","profile":"bus","distance":"2278.959","time":"271.7645"}},{"type":"Feature","name":"ShapeMeta","geometry":{"type":"LineString","coordinates":[[-1.536851,52.30208],[-1.536934,52.30231],[-1.537172,52.30315]]},"properties":{"name":"Kenilworth Road","maxspeed":"30 mph","highway":"trunk","profile":"bus","distance":"2399.293","time":"283.7281"}},{"type":"Feature","name":"ShapeMeta","geometry":{"type":"LineString","coordinates":[[-1.537172,52.30315],[-1.537228,52.30334]]},"properties":{"name":"Kenilworth Road","maxspeed":"30 mph","highway":"trunk","profile":"bus","distance":"2421.259","time":"285.9119"}},{"type":"Feature","name":"ShapeMeta","geometry":{"type":"LineString","coordinates":[[-1.537228,52.30334],[-1.537383,52.30385]]},"properties":{"name":"Kenilworth Road","maxspeed":"30 mph","highway":"trunk","profile":"bus","distance":"2479.058","time":"291.6584"}},{"type":"Feature","name":"ShapeMeta","geometry":{"type":"LineString","coordinates":[[-1.537383,52.30385],[-1.53749,52.30428]]},"properties":{"name":"Kenilworth Road","maxspeed":"30 mph","highway":"trunk","profile":"bus","distance":"2527.059","time":"296.4305"}},{"type":"Feature","name":"ShapeMeta","geometry":{"type":"LineString","coordinates":[[-1.53749,52.30428],[-1.537648,52.30482]]},"properties":{"name":"Kenilworth Road","highway":"trunk","maxspeed":"40 mph","profile":"bus","distance":"2588.658","time":"301.0237"}},{"type":"Feature","name":"ShapeMeta","geometry":{"type":"LineString","coordinates":[[-1.537648,52.30482],[-1.537741,52.30525],[-1.538615,52.30857]]},"properties":{"name":"Kenilworth Road","highway":"trunk","maxspeed":"40 mph","profile":"bus","distance":"3010.766","time":"332.498"}},{"type":"Feature","name":"ShapeMeta","geometry":{"type":"LineString","coordinates":[[-1.538615,52.30857],[-1.539242,52.31096],[-1.539384,52.31161],[-1.539388,52.31163]]},"properties":{"name":"Kenilworth Road","highway":"trunk","maxspeed":"40 mph","profile":"bus","distance":"3354.995","time":"358.1653"}},{"type":"Feature","name":"ShapeMeta","geometry":{"type":"LineString","coordinates":[[-1.539388,52.31163],[-1.539432,52.31195]]},"properties":{"name":"Kenilworth Road","highway":"trunk","maxspeed":"40 mph","profile":"bus","distance":"3390.758","time":"360.832"}},{"type":"Feature","name":"ShapeMeta","geometry":{"type":"LineString","coordinates":[[-1.539432,52.31195],[-1.53949,52.31203],[-1.539551,52.31211],[-1.539668,52.31221]]},"properties":{"name":"Kenilworth Road","oneway":"yes","highway":"trunk","maxspeed":"40 mph","profile":"bus","distance":"3423.458","time":"363.2703"}},{"type":"Feature","name":"ShapeMeta","geometry":{"type":"LineString","coordinates":[[-1.539668,52.31221],[-1.539714,52.31222],[-1.539753,52.31223]]},"properties":{"highway":"trunk","junction":"roundabout","maxspeed":"40 mph","profile":"bus","distance":"3429.558","time":"363.7251"}},{"type":"Feature","name":"ShapeMeta","geometry":{"type":"LineString","coordinates":[[-1.539753,52.31223],[-1.539795,52.31224],[-1.539871,52.31231],[-1.539895,52.31236],[-1.539894,52.3124]]},"properties":{"highway":"trunk","junction":"roundabout","maxspeed":"40 mph","profile":"bus","distance":"3451.858","time":"365.3879"}},{"type":"Feature","name":"ShapeMeta","geometry":{"type":"LineString","coordinates":[[-1.539894,52.3124],[-1.539886,52.31242],[-1.539877,52.31245],[-1.539858,52.31247]]},"properties":{"highway":"trunk","junction":"roundabout","maxspeed":"40 mph","profile":"bus","distance":"3460.658","time":"366.0441"}},{"type":"Feature","name":"ShapeMeta","geometry":{"type":"LineString","coordinates":[[-1.539858,52.31247],[-1.539845,52.31257],[-1.539819,52.3127],[-1.539784,52.31284]]},"properties":{"name":"Kenilworth Road","oneway":"yes","highway":"trunk","maxspeed":"40 mph","profile":"bus","distance":"3501.658","time":"369.1012"}},{"type":"Feature","name":"ShapeMeta","geometry":{"type":"LineString","coordinates":[[-1.539784,52.31284],[-1.539912,52.31337]]},"properties":{"name":"Kenilworth Road","highway":"trunk","maxspeed":"40 mph","profile":"bus","distance":"3561.658","time":"373.5751"}},{"type":"Feature","name":"ShapeMeta","geometry":{"type":"LineString","coordinates":[[-1.539912,52.31337],[-1.539992,52.31371],[-1.540245,52.31458],[-1.540597,52.31556],[-1.540932,52.31623],[-1.541133,52.31656],[-1.541271,52.31675],[-1.54151,52.31707]]},"properties":{"name":"Kenilworth Road","highway":"trunk","maxspeed":"40 mph","profile":"bus","distance":"3988.558","time":"405.4068"}},{"type":"Feature","name":"ShapeMeta","geometry":{"type":"LineString","coordinates":[[-1.54151,52.31707],[-1.541693,52.3173],[-1.541925,52.31757],[-1.541984,52.31763]]},"properties":{"name":"Kenilworth Road","highway":"trunk","maxspeed":"40 mph","profile":"bus","distance":"4058.358","time":"410.6114"}},{"type":"Feature","name":"ShapeMeta","geometry":{"type":"LineString","coordinates":[[-1.541984,52.31763],[-1.542209,52.31785]]},"properties":{"name":"Kenilworth Road","highway":"trunk","maxspeed":"40 mph","profile":"bus","distance":"4087.658","time":"412.7961"}},{"type":"Feature","name":"ShapeMeta","geometry":{"type":"LineString","coordinates":[[-1.542209,52.31785],[-1.54229,52.31793],[-1.542397,52.31802]]},"properties":{"name":"Kenilworth Road","highway":"trunk","maxspeed":"40 mph","profile":"bus","distance":"4110.558","time":"414.5037"}},{"type":"Feature","name":"ShapeMeta","geometry":{"type":"LineString","coordinates":[[-1.542397,52.31802],[-1.542665,52.31826],[-1.542948,52.3185],[-1.54355,52.31894],[-1.544029,52.31928],[-1.544681,52.31969],[-1.544756,52.31973]]},"properties":{"name":"Kenilworth Road","highway":"trunk","maxspeed":"40 mph","profile":"bus","distance":"4359.522","time":"433.0676"}},{"type":"Feature","name":"ShapeMeta","geometry":{"type":"LineString","coordinates":[[-1.544756,52.31973],[-1.544981,52.31987]]},"properties":{"name":"Kenilworth Road","highway":"trunk","maxspeed":"40 mph","profile":"bus","distance":"4381.158","time":"434.6809"}},{"type":"Feature","name":"ShapeMeta","geometry":{"type":"LineString","coordinates":[[-1.544981,52.31987],[-1.545702,52.3203],[-1.54623,52.32059],[-1.548025,52.3214],[-1.548825,52.32185],[-1.551011,52.32299],[-1.551754,52.32334],[-1.552393,52.32367],[-1.552697,52.32386],[-1.552884,52.324]]},"properties":{"name":"Kenilworth Road","highway":"trunk","maxspeed":"40 mph","profile":"bus","distance":"5088.858","time":"487.4504"}},{"type":"Feature","name":"ShapeMeta","geometry":{"type":"LineString","coordinates":[[-1.552884,52.324],[-1.553005,52.32414],[-1.553148,52.32436],[-1.553187,52.32444]]},"properties":{"name":"Kenilworth Road","highway":"trunk","maxspeed":"40 mph","profile":"bus","distance":"5141.958","time":"491.4098"}},{"type":"Feature","name":"ShapeMeta","geometry":{"type":"LineString","coordinates":[[-1.553187,52.32444],[-1.553276,52.32455],[-1.553327,52.3246],[-1.553417,52.32467],[-1.553534,52.32472]]},"properties":{"oneway":"yes","highway":"trunk","maxspeed":"40 mph","profile":"bus","distance":"5181.758","time":"494.3774"}},{"type":"Feature","name":"ShapeMeta","geometry":{"type":"LineString","coordinates":[[-1.553534,52.32472],[-1.553604,52.32472]]},"properties":{"highway":"trunk","junction":"roundabout","maxspeed":"40 mph","profile":"bus","distance":"5186.458","time":"494.7279"}},{"type":"Feature","name":"ShapeMeta","geometry":{"type":"LineString","coordinates":[[-1.553604,52.32472],[-1.553688,52.32475],[-1.553762,52.32477]]},"properties":{"highway":"trunk","junction":"roundabout","maxspeed":"40 mph","profile":"bus","distance":"5198.258","time":"495.6078"}},{"type":"Feature","name":"ShapeMeta","geometry":{"type":"LineString","coordinates":[[-1.553762,52.32477],[-1.553794,52.3248],[-1.553809,52.32481]]},"properties":{"highway":"trunk","junction":"roundabout","maxspeed":"40 mph","profile":"bus","distance":"5204.258","time":"496.0551"}},{"type":"Feature","name":"ShapeMeta","geometry":{"type":"LineString","coordinates":[[-1.553809,52.32481],[-1.553983,52.32491],[-1.554285,52.32507],[-1.554569,52.32523]]},"properties":{"oneway":"yes","highway":"trunk","maxspeed":"40 mph","profile":"bus","distance":"5273.258","time":"501.2001"}},{"type":"Feature","name":"ShapeMeta","geometry":{"type":"LineString","coordinates":[[-1.554569,52.32523],[-1.554779,52.3253],[-1.554896,52.32534]]},"properties":{"highway":"trunk","maxspeed":"40 mph","profile":"bus","distance":"5298.739","time":"503.1"}},{"type":"Feature","name":"ShapeMeta","geometry":{"type":"LineString","coordinates":[[-1.554896,52.32534],[-1.555287,52.32547],[-1.556519,52.32586],[-1.556697,52.32592]]},"properties":{"highway":"trunk","maxspeed":"40 mph","profile":"bus","distance":"5437.258","time":"513.4287"}},{"type":"Feature","name":"ShapeMeta","geometry":{"type":"LineString","coordinates":[[-1.556697,52.32592],[-1.556939,52.32603],[-1.557167,52.32613]]},"properties":{"bridge":"yes","highway":"trunk","maxspeed":"40 mph","profile":"bus","distance":"5476.858","time":"516.3815"}},{"type":"Feature","name":"ShapeMeta","geometry":{"type":"LineString","coordinates":[[-1.557167,52.32613],[-1.557374,52.32625],[-1.557935,52.32666],[-1.558007,52.32672]]},"properties":{"highway":"trunk","maxspeed":"40 mph","profile":"bus","distance":"5563.458","time":"522.8387"}},{"type":"Feature","name":"ShapeMeta","geometry":{"type":"LineString","coordinates":[[-1.558007,52.32672],[-1.558129,52.32678],[-1.558172,52.32681]]},"properties":{"oneway":"yes","highway":"trunk","maxspeed":"40 mph","profile":"bus","distance":"5578.659","time":"523.9722"}},{"type":"Feature","name":"ShapeMeta","geometry":{"type":"LineString","coordinates":[[-1.558172,52.32681],[-1.558382,52.32698]]},"properties":{"oneway":"yes","highway":"trunk","maxspeed":"40 mph","profile":"bus","distance":"5602.059","time":"525.717"}},{"type":"Feature","name":"ShapeMeta","geometry":{"type":"LineString","coordinates":[[-1.558382,52.32698],[-1.558712,52.32725],[-1.558734,52.3273]]},"properties":{"oneway":"yes","highway":"trunk","maxspeed":"40 mph","profile":"bus","distance":"5645.258","time":"528.9382"}},{"type":"Feature","name":"ShapeMeta","geometry":{"type":"LineString","coordinates":[[-1.558734,52.3273],[-1.558759,52.32731],[-1.559557,52.32797],[-1.559761,52.32815],[-1.559944,52.32833],[-1.560238,52.32869],[-1.560312,52.3288]]},"properties":{"highway":"trunk","maxspeed":"40 mph","profile":"bus","distance":"5844.925","time":"543.8262"}},{"type":"Feature","name":"ShapeMeta","geometry":{"type":"LineString","coordinates":[[-1.560312,52.3288],[-1.560362,52.32888],[-1.560499,52.32913],[-1.560592,52.32938],[-1.560652,52.32957]]},"properties":{"highway":"trunk","maxspeed":"40 mph","profile":"bus","distance":"5933.458","time":"550.4277"}},{"type":"Feature","name":"ShapeMeta","geometry":{"type":"LineString","coordinates":[[-1.560652,52.32957],[-1.560821,52.32986],[-1.560892,52.32994],[-1.560965,52.32999],[-1.561068,52.33004],[-1.561296,52.33011],[-1.561458,52.33013]]},"properties":{"oneway":"yes","highway":"trunk","maxspeed":"40 mph","profile":"bus","distance":"6022.758","time":"557.0863"}},{"type":"Feature","name":"ShapeMeta","geometry":{"type":"LineString","coordinates":[[-1.561458,52.33013],[-1.561578,52.33011],[-1.561636,52.3301]]},"properties":{"name":"Thickthorn Roundabout","highway":"trunk","junction":"roundabout","maxspeed":"40 mph","profile":"bus","distance":"6035.158","time":"558.0109"}},{"type":"Feature","name":"ShapeMeta","geometry":{"type":"LineString","coordinates":[[-1.561636,52.3301],[-1.561742,52.3301],[-1.561996,52.33012],[-1.562273,52.33019],[-1.562385,52.33024]]},"properties":{"name":"Thickthorn Roundabout","highway":"trunk","junction":"roundabout","maxspeed":"40 mph","profile":"bus","distance":"6089.658","time":"562.0746"}},{"type":"Feature","name":"ShapeMeta","geometry":{"type":"LineString","coordinates":[[-1.562385,52.33024],[-1.563273,52.33079]]},"properties":{"name":"Thickthorn Roundabout","bridge":"yes","highway":"trunk","junction":"roundabout","maxspeed":"40 mph","profile":"bus","distance":"6175.458","time":"568.4723"}},{"type":"Feature","name":"ShapeMeta","geometry":{"type":"LineString","coordinates":[[-1.563273,52.33079],[-1.563359,52.33084],[-1.563499,52.33096],[-1.563544,52.33101]]},"properties":{"name":"Thickthorn Roundabout","highway":"trunk","junction":"roundabout","maxspeed":"40 mph","profile":"bus","distance":"6206.658","time":"570.7987"}},{"type":"Feature","name":"ShapeMeta","geometry":{"type":"LineString","coordinates":[[-1.563544,52.33101],[-1.563581,52.33107],[-1.563601,52.33112],[-1.563629,52.33118]]},"properties":{"name":"Thickthorn Roundabout","highway":"trunk","junction":"roundabout","maxspeed":"40 mph","profile":"bus","distance":"6225.758","time":"572.2229"}},{"type":"Feature","name":"ShapeMeta","geometry":{"type":"LineString","coordinates":[[-1.563629,52.33118],[-1.563737,52.33148],[-1.563806,52.33165],[-1.563827,52.33169]]},"properties":{"name":"Leamington Road","oneway":"yes","highway":"primary","maxspeed":"40 mph","profile":"bus","distance":"6284.158","time":"576.5775"}},{"type":"Feature","name":"ShapeMeta","geometry":{"type":"LineString","coordinates":[[-1.563827,52.33169],[-1.563867,52.33173],[-1.563969,52.33181],[-1.564187,52.33193],[-1.5644,52.33205]]},"properties":{"name":"Leamington Road","oneway":"yes","highway":"primary","maxspeed":"40 mph","profile":"bus","distance":"6340.258","time":"580.7606"}},{"type":"Feature","name":"ShapeMeta","geometry":{"type":"LineString","coordinates":[[-1.5644,52.33205],[-1.564559,52.3321],[-1.564855,52.33222],[-1.56504,52.3323]]},"properties":{"name":"Leamington Road","highway":"primary","maxspeed":"40 mph","profile":"bus","distance":"6392.258","time":"584.6379"}},{"type":"Feature","name":"ShapeMeta","geometry":{"type":"LineString","coordinates":[[-1.56504,52.3323],[-1.565247,52.33241],[-1.565295,52.33244]]},"properties":{"name":"Leamington Road","highway":"primary","maxspeed":"40 mph","profile":"bus","distance":"6415.126","time":"586.3431"}},{"type":"Feature","name":"ShapeMeta","geometry":{"type":"LineString","coordinates":[[-1.565295,52.33244],[-1.566125,52.33292],[-1.56634,52.33302]]},"properties":{"name":"Leamington Road","highway":"primary","maxspeed":"40 mph","profile":"bus","distance":"6511.358","time":"593.5186"}},{"type":"Feature","name":"ShapeMeta","geometry":{"type":"LineString","coordinates":[[-1.56634,52.33302],[-1.56653,52.3331],[-1.567326,52.33337],[-1.567464,52.33344]]},"properties":{"name":"Leamington Road","highway":"primary","maxspeed":"40 mph","profile":"bus","distance":"6600.658","time":"600.1772"}},{"type":"Feature","name":"ShapeMeta","geometry":{"type":"LineString","coordinates":[[-1.567464,52.33344],[-1.567481,52.33344],[-1.568074,52.33374],[-1.56955,52.33467],[-1.569724,52.33479]]},"properties":{"name":"Leamington Road","highway":"primary","maxspeed":"40 mph","profile":"bus","distance":"6816.358","time":"616.2609"}},{"type":"Feature","name":"ShapeMeta","geometry":{"type":"LineString","coordinates":[[-1.569724,52.33479],[-1.570018,52.335]]},"properties":{"name":"Leamington Road","highway":"primary","maxspeed":"40 mph","profile":"bus","distance":"6846.658","time":"618.5201"}},{"type":"Feature","name":"ShapeMeta","geometry":{"type":"LineString","coordinates":[[-1.570018,52.335],[-1.570208,52.33514]]},"properties":{"name":"Leamington Road","maxspeed":"30 mph","highway":"primary","profile":"bus","distance":"6866.958","time":"620.5384"}},{"type":"Feature","name":"ShapeMeta","geometry":{"type":"LineString","coordinates":[[-1.570208,52.33514],[-1.570525,52.33533],[-1.570827,52.33549],[-1.570941,52.33553]]},"properties":{"maxspeed":"30 mph","oneway":"yes","highway":"primary","profile":"bus","distance":"6933.046","time":"627.1088"}},{"type":"Feature","name":"ShapeMeta","geometry":{"type":"LineString","coordinates":[[-1.570941,52.33553],[-1.571165,52.33559],[-1.571453,52.33563],[-1.571605,52.33564]]},"properties":{"maxspeed":"30 mph","oneway":"yes","highway":"primary","profile":"bus","distance":"6980.458","time":"631.8226"}},{"type":"Feature","name":"ShapeMeta","geometry":{"type":"LineString","coordinates":[[-1.571605,52.33564],[-1.571668,52.33563]]},"properties":{"maxspeed":"30 mph","oneway":"yes","highway":"primary","profile":"bus","distance":"6984.658","time":"632.2401"}},{"type":"Feature","name":"ShapeMeta","geometry":{"type":"LineString","coordinates":[[-1.571668,52.33563],[-1.57199,52.33563]]},"properties":{"bridge":"yes","maxspeed":"30 mph","oneway":"yes","highway":"primary","profile":"bus","distance":"7006.458","time":"634.4075"}},{"type":"Feature","name":"ShapeMeta","geometry":{"type":"LineString","coordinates":[[-1.57199,52.33563],[-1.572281,52.33563],[-1.572548,52.33562]]},"properties":{"maxspeed":"30 mph","oneway":"yes","highway":"primary","profile":"bus","distance":"7044.358","time":"638.1755"}},{"type":"Feature","name":"ShapeMeta","geometry":{"type":"LineString","coordinates":[[-1.572548,52.33562],[-1.572671,52.33564]]},"properties":{"maxspeed":"30 mph","oneway":"yes","highway":"primary","profile":"bus","distance":"7052.958","time":"639.0305"}},{"type":"Feature","name":"ShapeMeta","geometry":{"type":"LineString","coordinates":[[-1.572671,52.33564],[-1.572716,52.33565],[-1.572867,52.33569],[-1.572934,52.33574],[-1.572979,52.3358]]},"properties":{"maxspeed":"30 mph","oneway":"yes","highway":"primary","profile":"bus","distance":"7082.059","time":"641.9236"}},{"type":"Feature","name":"ShapeMeta","geometry":{"type":"LineString","coordinates":[[-1.572979,52.3358],[-1.572982,52.33581],[-1.572994,52.33594],[-1.572937,52.33625]]},"properties":{"maxspeed":"30 mph","oneway":"yes","highway":"primary","profile":"bus","distance":"7132.758","time":"646.9642"}},{"type":"Feature","name":"ShapeMeta","geometry":{"type":"LineString","coordinates":[[-1.572937,52.33625],[-1.57296,52.33646],[-1.572973,52.33651],[-1.573063,52.33671],[-1.573091,52.33682]]},"properties":{"maxspeed":"30 mph","oneway":"yes","highway":"primary","profile":"bus","distance":"7197.059","time":"653.3569"}},{"type":"Feature","name":"ShapeMeta","geometry":{"type":"LineString","coordinates":[[-1.573091,52.33682],[-1.573106,52.33684]]},"properties":{"name":"Warwick Road","maxspeed":"30 mph","highway":"primary","profile":"bus","distance":"7198.958","time":"653.5458"}},{"type":"Feature","name":"ShapeMeta","geometry":{"type":"LineString","coordinates":[[-1.573106,52.33684],[-1.573157,52.33689]]},"properties":{"name":"Warwick Road","maxspeed":"30 mph","highway":"primary","profile":"bus","distance":"7206.158","time":"654.2616"}},{"type":"Feature","name":"ShapeMeta","geometry":{"type":"LineString","coordinates":[[-1.573157,52.33689],[-1.573309,52.33706],[-1.573566,52.33731],[-1.573635,52.33738]]},"properties":{"name":"Warwick Road","maxspeed":"30 mph","highway":"primary","profile":"bus","distance":"7269.358","time":"660.5449"}},{"type":"Feature","name":"ShapeMeta","geometry":{"type":"LineString","coordinates":[[-1.573635,52.33738],[-1.573696,52.33744]]},"properties":{"name":"Warwick Road","maxspeed":"30 mph","highway":"primary","profile":"bus","distance":"7276.958","time":"661.3005"}},{"type":"Feature","name":"ShapeMeta","geometry":{"type":"LineString","coordinates":[[-1.573696,52.33744],[-1.573999,52.33772],[-1.574306,52.33801],[-1.574308,52.33801]]},"properties":{"name":"Warwick Road","maxspeed":"30 mph","highway":"primary","profile":"bus","distance":"7353.06","time":"668.8665"}},{"type":"Feature","name":"ShapeMeta","geometry":{"type":"LineString","coordinates":[[-1.574308,52.33801],[-1.574581,52.33827]]},"properties":{"name":"Warwick Road","maxspeed":"30 mph","highway":"primary","profile":"bus","distance":"7387.258","time":"672.2665"}},{"type":"Feature","name":"ShapeMeta","geometry":{"type":"LineString","coordinates":[[-1.574581,52.33827],[-1.574834,52.3385]]},"properties":{"name":"Warwick Road","maxspeed":"30 mph","highway":"primary","profile":"bus","distance":"7418.258","time":"675.3485"}},{"type":"Feature","name":"ShapeMeta","geometry":{"type":"LineString","coordinates":[[-1.574834,52.3385],[-1.575002,52.33867]]},"properties":{"name":"Warwick Road","maxspeed":"30 mph","highway":"primary","profile":"bus","distance":"7439.358","time":"677.4463"}},{"type":"Feature","name":"ShapeMeta","geometry":{"type":"LineString","coordinates":[[-1.575002,52.33867],[-1.57507,52.33873]]},"properties":{"name":"Warwick Road","maxspeed":"30 mph","highway":"primary","profile":"bus","distance":"7448.258","time":"678.3311"}},{"type":"Feature","name":"ShapeMeta","geometry":{"type":"LineString","coordinates":[[-1.57507,52.33873],[-1.575224,52.33888]]},"properties":{"name":"Warwick Road","maxspeed":"30 mph","highway":"primary","profile":"bus","distance":"7467.458","time":"680.2399"}},{"type":"Feature","name":"ShapeMeta","geometry":{"type":"LineString","coordinates":[[-1.575224,52.33888],[-1.575354,52.339]]},"properties":{"name":"Warwick Road","maxspeed":"30 mph","highway":"primary","profile":"bus","distance":"7483.559","time":"681.8406"}},{"type":"Feature","name":"ShapeMeta","geometry":{"type":"LineString","coordinates":[[-1.575354,52.339],[-1.575536,52.33917],[-1.57594,52.33955]]},"properties":{"name":"Warwick Road","maxspeed":"30 mph","highway":"primary","profile":"bus","distance":"7556.758","time":"689.1182"}},{"type":"Feature","name":"ShapeMeta","geometry":{"type":"LineString","coordinates":[[-1.57594,52.33955],[-1.576002,52.33962]]},"properties":{"name":"Warwick Road","maxspeed":"30 mph","highway":"primary","profile":"bus","distance":"7565.059","time":"689.9433"}},{"type":"Feature","name":"ShapeMeta","geometry":{"type":"LineString","coordinates":[[-1.576002,52.33962],[-1.57605,52.33966]]},"properties":{"name":"Warwick Road","maxspeed":"30 mph","highway":"primary","profile":"bus","distance":"7571.059","time":"690.5399"}},{"type":"Feature","name":"ShapeMeta","geometry":{"type":"LineString","coordinates":[[-1.57605,52.33966],[-1.576244,52.33986]]},"properties":{"name":"Warwick Road","maxspeed":"30 mph","highway":"primary","profile":"bus","distance":"7595.958","time":"693.0154"}},{"type":"Feature","name":"ShapeMeta","geometry":{"type":"LineString","coordinates":[[-1.576244,52.33986],[-1.576725,52.34031]]},"properties":{"name":"Warwick Road","maxspeed":"30 mph","highway":"secondary","profile":"bus","distance":"7656.059","time":"698.9905"}},{"type":"Feature","name":"ShapeMeta","geometry":{"type":"LineString","coordinates":[[-1.576725,52.34031],[-1.576985,52.34057]]},"properties":{"name":"Warwick Road","maxspeed":"30 mph","highway":"secondary","profile":"bus","distance":"7689.758","time":"702.3409"}},{"type":"Feature","name":"ShapeMeta","geometry":{"type":"LineString","coordinates":[[-1.576985,52.34057],[-1.577353,52.34094]]},"properties":{"name":"Warwick Road","maxspeed":"30 mph","highway":"secondary","profile":"bus","distance":"7737.858","time":"707.123"}},{"type":"Feature","name":"ShapeMeta","geometry":{"type":"LineString","coordinates":[[-1.577353,52.34094],[-1.577603,52.34117]]},"properties":{"name":"Warwick Road","maxspeed":"30 mph","highway":"secondary","profile":"bus","distance":"7768.836","time":"710.2029"}},{"type":"Feature","name":"ShapeMeta","geometry":{"type":"LineString","coordinates":[[-1.577603,52.34117],[-1.57766,52.34122]]},"properties":{"name":"Warwick Road","maxspeed":"30 mph","highway":"secondary","profile":"bus","distance":"7775.858","time":"710.901"}},{"type":"Feature","name":"ShapeMeta","geometry":{"type":"LineString","coordinates":[[-1.57766,52.34122],[-1.577752,52.34132]]},"properties":{"name":"Warwick Road","maxspeed":"30 mph","highway":"secondary","profile":"bus","distance":"7787.758","time":"712.0841"}},{"type":"Feature","name":"ShapeMeta","geometry":{"type":"LineString","coordinates":[[-1.577752,52.34132],[-1.577864,52.34143]]},"properties":{"name":"Warwick Road","maxspeed":"30 mph","highway":"secondary","profile":"bus","distance":"7802.858","time":"713.5853"}},{"type":"Feature","name":"ShapeMeta","geometry":{"type":"LineString","coordinates":[[-1.577864,52.34143],[-1.578035,52.34159],[-1.578155,52.34171]]},"properties":{"name":"Warwick Road","maxspeed":"30 mph","highway":"secondary","profile":"bus","distance":"7839.158","time":"717.1943"}},{"type":"Feature","name":"ShapeMeta","geometry":{"type":"LineString","coordinates":[[-1.578155,52.34171],[-1.578213,52.34176]]},"properties":{"name":"Warwick Road","maxspeed":"30 mph","highway":"secondary","profile":"bus","distance":"7846.258","time":"717.9001"}},{"type":"Feature","name":"ShapeMeta","geometry":{"type":"LineString","coordinates":[[-1.578213,52.34176],[-1.578317,52.34186],[-1.578514,52.34205]]},"properties":{"name":"Warwick Road","maxspeed":"30 mph","highway":"secondary","profile":"bus","distance":"7884.058","time":"721.6582"}},{"type":"Feature","name":"ShapeMeta","geometry":{"type":"LineString","coordinates":[[-1.578514,52.34205],[-1.578531,52.34206],[-1.578998,52.34249],[-1.579093,52.34258]]},"properties":{"name":"Warwick Road","maxspeed":"30 mph","highway":"secondary","profile":"bus","distance":"7955.258","time":"728.7369"}},{"type":"Feature","name":"ShapeMeta","geometry":{"type":"LineString","coordinates":[[-1.579093,52.34258],[-1.579254,52.34274],[-1.579576,52.34307],[-1.579695,52.34321]]},"properties":{"name":"The Square","maxspeed":"30 mph","highway":"secondary","profile":"bus","distance":"8035.958","time":"736.7601"}},{"type":"Feature","name":"ShapeMeta","geometry":{"type":"LineString","coordinates":[[-1.579695,52.34321],[-1.579899,52.34333],[-1.580107,52.34341],[-1.580228,52.34346]]},"properties":{"name":"The Square","oneway":"yes","highway":"secondary","profile":"bus","distance":"8081.758","time":"739.1155"}},{"type":"Feature","name":"ShapeMeta","geometry":{"type":"LineString","coordinates":[[-1.580228,52.34346],[-1.580282,52.34346],[-1.580322,52.34347]]},"properties":{"highway":"secondary","junction":"roundabout","profile":"bus","distance":"8088.258","time":"739.4498"}},{"type":"Feature","name":"ShapeMeta","geometry":{"type":"LineString","coordinates":[[-1.580322,52.34347],[-1.580347,52.34348]]},"properties":{"highway":"secondary","junction":"roundabout","profile":"bus","distance":"8090.158","time":"739.5475"}},{"type":"Feature","name":"ShapeMeta","geometry":{"type":"LineString","coordinates":[[-1.580347,52.34348],[-1.58067,52.34351],[-1.580826,52.34353],[-1.581044,52.34357]]},"properties":{"name":"Smalley Place","oneway":"yes","highway":"secondary","profile":"bus","distance":"8138.858","time":"742.0521"}},{"type":"Feature","name":"ShapeMeta","geometry":{"type":"LineString","coordinates":[[-1.581044,52.34357],[-1.581134,52.34358],[-1.581439,52.34361],[-1.581728,52.34367]]},"properties":{"name":"Smalley Place","maxspeed":"30 mph","highway":"secondary","profile":"bus","distance":"8186.658","time":"746.8043"}},{"type":"Feature","name":"ShapeMeta","geometry":{"type":"LineString","coordinates":[[-1.581728,52.34367],[-1.581621,52.34384],[-1.581545,52.3439]]},"properties":{"highway":"service","oneway":"yes","profile":"bus","distance":"8215.158","time":"750.2243"}},{"type":"Feature","name":"ShapeMeta","geometry":{"type":"LineString","coordinates":[[-1.581545,52.3439],[-1.581245,52.34377],[-1.580819,52.34372],[-1.580658,52.34373],[-1.580535,52.34377],[-1.58046,52.34383],[-1.580438,52.34389],[-1.580484,52.34397],[-1.580559,52.34402],[-1.580628,52.34411]]},"properties":{"highway":"service","oneway":"yes","profile":"bus","distance":"8332.729","time":"764.3329"}},{"type":"Feature","name":"ShapeMeta","geometry":{"type":"LineString","coordinates":[[-1.580628,52.34411],[-1.580669,52.34416],[-1.581016,52.34431]]},"properties":{"highway":"service","oneway":"yes","profile":"bus","distance":"8368.257","time":"768.5963"}},{"type":"Feature","name":"ShapeMeta","geometry":{"type":"LineString","coordinates":[[-1.581016,52.34431],[-1.580893,52.34441]]},"properties":{"highway":"service","oneway":"yes","profile":"bus","distance":"8381.757","time":"770.2162"}},{"type":"Feature","name":"ShapeMeta","geometry":{"type":"LineString","coordinates":[[-1.580893,52.34441],[-1.580811,52.34447]]},"properties":{"highway":"service","profile":"bus","distance":"8390.157","time":"771.2243"}},{"type":"Feature","name":"ShapeMeta","geometry":{"type":"LineString","coordinates":[[-1.580811,52.34447],[-1.580952,52.34456],[-1.581321,52.34479],[-1.581389,52.34484],[-1.581412,52.34491],[-1.581391,52.34494]]},"properties":{"name":"Abbey End","maxspeed":"30 mph","highway":"secondary","profile":"bus","distance":"8458.457","time":"778.0146"}},{"type":"Feature","name":"ShapeMeta","geometry":{"type":"LineString","coordinates":[[-1.581391,52.34494],[-1.581363,52.34496],[-1.579865,52.34554],[-1.579401,52.34573],[-1.57917,52.34583]]},"properties":{"name":"Abbey Hill","maxspeed":"30 mph","highway":"secondary","profile":"bus","distance":"8639.557","time":"796.0195"}},{"type":"Feature","name":"ShapeMeta","geometry":{"type":"LineString","coordinates":[[-1.57917,52.34583],[-1.578821,52.34602],[-1.578486,52.3462]]},"properties":{"name":"Abbey Hill","maxspeed":"30 mph","highway":"secondary","profile":"bus","distance":"8701.557","time":"802.1835"}},{"type":"Feature","name":"ShapeMeta","geometry":{"type":"LineString","coordinates":[[-1.578486,52.3462],[-1.578215,52.34637],[-1.577854,52.34663],[-1.577814,52.34669]]},"properties":{"name":"Abbey Hill","maxspeed":"30 mph","highway":"secondary","profile":"bus","distance":"8773.257","time":"809.3119"}},{"type":"Feature","name":"ShapeMeta","geometry":{"type":"LineString","coordinates":[[-1.577814,52.34669],[-1.577807,52.34679],[-1.577829,52.34687],[-1.577976,52.34708],[-1.578823,52.34778]]},"properties":{"name":"Rosemary Hill","highway":"primary","profile":"bus","distance":"8914.856","time":"814.9759"}},{"type":"Feature","name":"ShapeMeta","geometry":{"type":"LineString","coordinates":[[-1.578823,52.34778],[-1.579056,52.34799],[-1.579395,52.34831]]},"properties":{"name":"Rosemary Hill","highway":"primary","profile":"bus","distance":"8985.457","time":"817.7999"}},{"type":"Feature","name":"ShapeMeta","geometry":{"type":"LineString","coordinates":[[-1.579395,52.34831],[-1.579737,52.34864]]},"properties":{"bridge":"yes","name":"Bridge Street","highway":"primary","profile":"bus","distance":"9028.957","time":"819.5399"}},{"type":"Feature","name":"ShapeMeta","geometry":{"type":"LineString","coordinates":[[-1.579737,52.34864],[-1.579806,52.34871],[-1.579883,52.34879],[-1.579985,52.34889]]},"properties":{"name":"Bridge Street","highway":"primary","profile":"bus","distance":"9061.193","time":"820.8293"}},{"type":"Feature","name":"ShapeMeta","geometry":{"type":"LineString","coordinates":[[-1.579985,52.34889],[-1.580017,52.34892]]},"properties":{"name":"Bridge Street","highway":"primary","profile":"bus","distance":"9065.257","time":"820.9918"}},{"type":"Feature","name":"ShapeMeta","geometry":{"type":"LineString","coordinates":[[-1.580017,52.34892],[-1.580081,52.34898]]},"properties":{"name":"Bridge Street","highway":"primary","profile":"bus","distance":"9072.856","time":"821.2958"}},{"type":"Feature","name":"ShapeMeta","geometry":{"type":"LineString","coordinates":[[-1.580081,52.34898],[-1.580352,52.34926]]},"properties":{"name":"Bridge Street","highway":"primary","profile":"bus","distance":"9109.557","time":"822.7638"}},{"type":"Feature","name":"ShapeMeta","geometry":{"type":"LineString","coordinates":[[-1.580352,52.34926],[-1.580532,52.34943],[-1.581053,52.34999]]},"properties":{"name":"Bridge Street","highway":"primary","profile":"bus","distance":"9203.157","time":"826.5078"}},{"type":"Feature","name":"ShapeMeta","geometry":{"type":"LineString","coordinates":[[-1.581053,52.34999],[-1.580362,52.35021],[-1.580091,52.3503],[-1.579853,52.35042],[-1.579087,52.35092],[-1.578941,52.35099]]},"properties":{"name":"New Street","highway":"primary","profile":"bus","distance":"9386.48","time":"833.8408"}},{"type":"Feature","name":"ShapeMeta","geometry":{"type":"LineString","coordinates":[[-1.578941,52.35099],[-1.578423,52.35123],[-1.578316,52.35128]]},"properties":{"name":"New Street","highway":"primary","profile":"bus","distance":"9440.057","time":"835.9838"}},{"type":"Feature","name":"ShapeMeta","geometry":{"type":"LineString","coordinates":[[-1.578316,52.35128],[-1.578224,52.35136],[-1.578104,52.35149],[-1.578071,52.35156]]},"properties":{"name":"Coventry Road","highway":"primary","profile":"bus","distance":"9475.756","time":"837.4119"}},{"type":"Feature","name":"ShapeMeta","geometry":{"type":"LineString","coordinates":[[-1.578071,52.35156],[-1.578031,52.35173],[-1.577989,52.35205],[-1.577931,52.3522]]},"properties":{"name":"Coventry Road","highway":"primary","profile":"bus","distance":"9546.956","time":"840.2598"}},{"type":"Feature","name":"ShapeMeta","geometry":{"type":"LineString","coordinates":[[-1.577931,52.3522],[-1.577798,52.35237],[-1.577606,52.35252],[-1.577322,52.35271]]},"properties":{"name":"Coventry Road","highway":"primary","profile":"bus","distance":"9618.057","time":"843.1039"}},{"type":"Feature","name":"ShapeMeta","geometry":{"type":"LineString","coordinates":[[-1.577322,52.35271],[-1.577005,52.35293],[-1.576217,52.35348]]},"properties":{"name":"Coventry Road","highway":"primary","profile":"bus","distance":"9731.837","time":"847.6551"}},{"type":"Feature","name":"ShapeMeta","geometry":{"type":"LineString","coordinates":[[-1.576217,52.35348],[-1.576,52.35363],[-1.575823,52.35374]]},"properties":{"name":"Coventry Road","highway":"primary","profile":"bus","distance":"9770.956","time":"849.2198"}},{"type":"Feature","name":"ShapeMeta","geometry":{"type":"LineString","coordinates":[[-1.575823,52.35374],[-1.575539,52.35387]]},"properties":{"name":"Coventry Road","highway":"primary","profile":"bus","distance":"9795.556","time":"850.2039"}},{"type":"Feature","name":"ShapeMeta","geometry":{"type":"LineString","coordinates":[[-1.575539,52.35387],[-1.575336,52.35395]]},"properties":{"name":"Coventry Road","highway":"primary","profile":"bus","distance":"9811.956","time":"850.8599"}},{"type":"Feature","name":"ShapeMeta","geometry":{"type":"LineString","coordinates":[[-1.575336,52.35395],[-1.574916,52.3541]]},"properties":{"name":"Coventry Road","highway":"primary","profile":"bus","distance":"9844.856","time":"852.1758"}},{"type":"Feature","name":"ShapeMeta","geometry":{"type":"LineString","coordinates":[[-1.574916,52.3541],[-1.574415,52.35427],[-1.573777,52.3545]]},"properties":{"name":"Coventry Road","highway":"primary","profile":"bus","distance":"9933.856","time":"855.7358"}},{"type":"Feature","name":"ShapeMeta","geometry":{"type":"LineString","coordinates":[[-1.573777,52.3545],[-1.573424,52.35462],[-1.572246,52.35504],[-1.570869,52.35553]]},"properties":{"name":"Coventry Road","highway":"primary","profile":"bus","distance":"10161.86","time":"864.8558"}},{"type":"Feature","name":"ShapeMeta","geometry":{"type":"LineString","coordinates":[[-1.570869,52.35553],[-1.56921,52.3561],[-1.56894,52.35622],[-1.568788,52.35631]]},"properties":{"name":"Coventry Road","highway":"primary","profile":"bus","distance":"10328.26","time":"871.5118"}},{"type":"Feature","name":"ShapeMeta","geometry":{"type":"LineString","coordinates":[[-1.568788,52.35631],[-1.567923,52.35691],[-1.56763,52.35713]]},"properties":{"name":"Coventry Road","highway":"primary","profile":"bus","distance":"10448.66","time":"876.3279"}},{"type":"Feature","name":"ShapeMeta","geometry":{"type":"LineString","coordinates":[[-1.56763,52.35713],[-1.567215,52.35743]]},"properties":{"name":"Coventry Road","highway":"primary","profile":"bus","distance":"10492.76","time":"878.092"}},{"type":"Feature","name":"ShapeMeta","geometry":{"type":"LineString","coordinates":[[-1.567215,52.35743],[-1.567003,52.35759]]},"properties":{"name":"Coventry Road","highway":"primary","profile":"bus","distance":"10515.35","time":"878.9958"}},{"type":"Feature","name":"ShapeMeta","geometry":{"type":"LineString","coordinates":[[-1.567003,52.35759],[-1.565768,52.35851]]},"properties":{"name":"Coventry Road","highway":"primary","profile":"bus","distance":"10647.27","time":"884.2722"}},{"type":"Feature","name":"ShapeMeta","geometry":{"type":"LineString","coordinates":[[-1.565768,52.35851],[-1.565697,52.35856]]},"properties":{"name":"Coventry Road","highway":"primary","profile":"bus","distance":"10654.86","time":"884.5757"}},{"type":"Feature","name":"ShapeMeta","geometry":{"type":"LineString","coordinates":[[-1.565697,52.35856],[-1.565307,52.35884]]},"properties":{"name":"Coventry Road","highway":"primary","profile":"bus","distance":"10695.86","time":"886.2158"}},{"type":"Feature","name":"ShapeMeta","geometry":{"type":"LineString","coordinates":[[-1.565307,52.35884],[-1.565248,52.35888]]},"properties":{"name":"Coventry Road","highway":"primary","profile":"bus","distance":"10701.96","time":"886.4598"}},{"type":"Feature","name":"ShapeMeta","geometry":{"type":"LineString","coordinates":[[-1.565248,52.35888],[-1.56495,52.3591]]},"properties":{"name":"Coventry Road","highway":"primary","profile":"bus","distance":"10733.76","time":"887.7318"}},{"type":"Feature","name":"ShapeMeta","geometry":{"type":"LineString","coordinates":[[-1.56495,52.3591],[-1.564734,52.35926]]},"properties":{"name":"Coventry Road","highway":"primary","profile":"bus","distance":"10756.46","time":"888.6398"}},{"type":"Feature","name":"ShapeMeta","geometry":{"type":"LineString","coordinates":[[-1.564734,52.35926],[-1.564445,52.35948],[-1.564318,52.35959],[-1.564201,52.35973]]},"properties":{"name":"Coventry Road","highway":"primary","profile":"bus","distance":"10820.16","time":"891.1877"}},{"type":"Feature","name":"ShapeMeta","geometry":{"type":"LineString","coordinates":[[-1.564201,52.35973],[-1.564094,52.3599],[-1.563907,52.36021],[-1.563597,52.36054],[-1.563296,52.36076],[-1.563023,52.3609],[-1.56268,52.36104],[-1.562569,52.36107]]},"properties":{"name":"Coventry Road","highway":"primary","profile":"bus","distance":"11011.89","time":"898.8572"}},{"type":"Feature","name":"ShapeMeta","geometry":{"type":"LineString","coordinates":[[-1.562569,52.36107],[-1.562355,52.36114],[-1.562052,52.36122]]},"properties":{"name":"Coventry Road","highway":"primary","profile":"bus","distance":"11050.55","time":"900.4038"}},{"type":"Feature","name":"ShapeMeta","geometry":{"type":"LineString","coordinates":[[-1.562052,52.36122],[-1.561485,52.36137]]},"properties":{"name":"Coventry Road","highway":"primary","maxspeed":"50 mph","profile":"bus","distance":"11092.36","time":"902.8972"}},{"type":"Feature","name":"ShapeMeta","geometry":{"type":"LineString","coordinates":[[-1.561485,52.36137],[-1.561343,52.3614]]},"properties":{"bridge":"yes","name":"Coventry Road","highway":"primary","maxspeed":"50 mph","profile":"bus","distance":"11102.66","time":"903.5117"}},{"type":"Feature","name":"ShapeMeta","geometry":{"type":"LineString","coordinates":[[-1.561343,52.3614],[-1.560959,52.36153],[-1.560494,52.36172],[-1.560043,52.36198]]},"properties":{"name":"Coventry Road","highway":"primary","maxspeed":"50 mph","profile":"bus","distance":"11212.86","time":"910.0853"}},{"type":"Feature","name":"ShapeMeta","geometry":{"type":"LineString","coordinates":[[-1.560043,52.36198],[-1.559713,52.36218]]},"properties":{"name":"Kenilworth Road","highway":"primary","maxspeed":"50 mph","profile":"bus","distance":"11244.25","time":"911.9584"}},{"type":"Feature","name":"ShapeMeta","geometry":{"type":"LineString","coordinates":[[-1.559713,52.36218],[-1.559287,52.36244],[-1.557224,52.36365],[-1.556587,52.36403],[-1.55615,52.36431],[-1.555643,52.36478],[-1.553891,52.36662],[-1.552835,52.36777]]},"properties":{"name":"Kenilworth Road","highway":"primary","maxspeed":"50 mph","profile":"bus","distance":"12028.96","time":"958.7671"}},{"type":"Feature","name":"ShapeMeta","geometry":{"type":"LineString","coordinates":[[-1.552835,52.36777],[-1.552644,52.36798]]},"properties":{"name":"Kenilworth Road","highway":"primary","maxspeed":"50 mph","profile":"bus","distance":"12054.89","time":"960.314"}},{"type":"Feature","name":"ShapeMeta","geometry":{"type":"LineString","coordinates":[[-1.552644,52.36798],[-1.551853,52.36882],[-1.55014,52.37062],[-1.550025,52.37075]]},"properties":{"name":"Kenilworth Road","highway":"primary","maxspeed":"50 mph","profile":"bus","distance":"12410.86","time":"981.5482"}},{"type":"Feature","name":"ShapeMeta","geometry":{"type":"LineString","coordinates":[[-1.550025,52.37075],[-1.550075,52.37078],[-1.550103,52.37082],[-1.550101,52.37085],[-1.550071,52.37089]]},"properties":{"name":"Kenilworth Road","highway":"primary","junction":"roundabout","profile":"bus","distance":"12428.96","time":"982.2722"}},{"type":"Feature","name":"ShapeMeta","geometry":{"type":"LineString","coordinates":[[-1.550071,52.37089],[-1.550112,52.37091],[-1.550429,52.37109],[-1.550644,52.37126],[-1.550821,52.37148],[-1.551003,52.37179],[-1.55126,52.37227]]},"properties":{"name":"Gibbet Hill Road","highway":"tertiary","maxspeed":"40 mph","profile":"bus","distance":"12605.96","time":"995.4701"}},{"type":"Feature","name":"ShapeMeta","geometry":{"type":"LineString","coordinates":[[-1.55126,52.37227],[-1.551479,52.37267],[-1.551617,52.37288],[-1.551752,52.37305],[-1.55194,52.37323]]},"properties":{"name":"Gibbet Hill Road","highway":"tertiary","maxspeed":"40 mph","profile":"bus","distance":"12722.76","time":"1004.179"}},{"type":"Feature","name":"ShapeMeta","geometry":{"type":"LineString","coordinates":[[-1.55194,52.37323],[-1.552018,52.37329],[-1.552441,52.37355],[-1.552744,52.37371],[-1.553251,52.37394]]},"properties":{"name":"Gibbet Hill Road","highway":"tertiary","maxspeed":"40 mph","profile":"bus","distance":"12841.76","time":"1013.052"}},{"type":"Feature","name":"ShapeMeta","geometry":{"type":"LineString","coordinates":[[-1.553251,52.37394],[-1.553724,52.37411],[-1.554134,52.37424],[-1.55559,52.37461],[-1.555839,52.37469]]},"properties":{"name":"Gibbet Hill Road","highway":"tertiary","maxspeed":"40 mph","profile":"bus","distance":"13036.4","time":"1027.566"}},{"type":"Feature","name":"ShapeMeta","geometry":{"type":"LineString","coordinates":[[-1.555839,52.37469],[-1.555912,52.37471],[-1.556361,52.37487],[-1.556868,52.37503],[-1.55851,52.37539],[-1.558884,52.37549],[-1.558967,52.37552]]},"properties":{"name":"Gibbet Hill Road","highway":"tertiary","maxspeed":"40 mph","profile":"bus","distance":"13268.86","time":"1044.899"}},{"type":"Feature","name":"ShapeMeta","geometry":{"type":"LineString","coordinates":[[-1.558967,52.37552],[-1.559394,52.37569],[-1.559755,52.37583]]},"properties":{"name":"Gibbet Hill Road","highway":"tertiary","maxspeed":"40 mph","profile":"bus","distance":"13332.46","time":"1049.642"}},{"type":"Feature","name":"ShapeMeta","geometry":{"type":"LineString","coordinates":[[-1.559755,52.37583],[-1.559836,52.37587],[-1.559997,52.37593]]},"properties":{"name":"Gibbet Hill Road","highway":"tertiary","maxspeed":"40 mph","profile":"bus","distance":"13352.16","time":"1051.111"}},{"type":"Feature","name":"ShapeMeta","geometry":{"type":"LineString","coordinates":[[-1.559997,52.37593],[-1.560689,52.37619],[-1.561048,52.3763],[-1.561351,52.37639]]},"properties":{"name":"Gibbet Hill Road","highway":"tertiary","maxspeed":"40 mph","profile":"bus","distance":"13457.46","time":"1058.962"}},{"type":"Feature","name":"ShapeMeta","geometry":{"type":"LineString","coordinates":[[-1.561351,52.37639],[-1.561685,52.37642]]},"properties":{"name":"Gibbet Hill Road","oneway":"yes","highway":"tertiary","maxspeed":"40 mph","profile":"bus","distance":"13480.26","time":"1060.662"}},{"type":"Feature","name":"ShapeMeta","geometry":{"type":"LineString","coordinates":[[-1.561685,52.37642],[-1.561743,52.3764],[-1.561807,52.37639],[-1.561871,52.3764]]},"properties":{"maxspeed":"30 mph","highway":"tertiary","junction":"roundabout","profile":"bus","distance":"13493.36","time":"1061.965"}},{"type":"Feature","name":"ShapeMeta","geometry":{"type":"LineString","coordinates":[[-1.561871,52.3764],[-1.561967,52.37644]]},"properties":{"maxspeed":"30 mph","highway":"tertiary","junction":"roundabout","profile":"bus","distance":"13501.36","time":"1062.76"}},{"type":"Feature","name":"ShapeMeta","geometry":{"type":"LineString","coordinates":[[-1.561967,52.37644],[-1.56199,52.37646],[-1.562014,52.37651],[-1.562013,52.37654]]},"properties":{"maxspeed":"30 mph","highway":"tertiary","junction":"roundabout","profile":"bus","distance":"13512.66","time":"1063.884"}},{"type":"Feature","name":"ShapeMeta","geometry":{"type":"LineString","coordinates":[[-1.562013,52.37654],[-1.562098,52.37662],[-1.562178,52.37671]]},"properties":{"name":"Gibbet Hill Road","maxspeed":"30 mph","oneway":"yes","highway":"tertiary","profile":"bus","distance":"13535.16","time":"1066.12"}},{"type":"Feature","name":"ShapeMeta","geometry":{"type":"LineString","coordinates":[[-1.562178,52.37671],[-1.562302,52.37681],[-1.562477,52.37701],[-1.562539,52.37719],[-1.562557,52.37729],[-1.562568,52.37778],[-1.562594,52.3779]]},"properties":{"name":"Gibbet Hill Road","maxspeed":"30 mph","highway":"tertiary","profile":"bus","distance":"13674.06","time":"1079.93"}},{"type":"Feature","name":"ShapeMeta","geometry":{"type":"LineString","coordinates":[[-1.562594,52.3779],[-1.562636,52.37803]]},"properties":{"name":"Gibbet Hill Road","maxspeed":"20 mph","highway":"tertiary","profile":"bus","distance":"13688.76","time":"1082.122"}},{"type":"Feature","name":"ShapeMeta","geometry":{"type":"LineString","coordinates":[[-1.562636,52.37803],[-1.562654,52.37809]]},"properties":{"name":"Gibbet Hill Road","maxspeed":"20 mph","highway":"tertiary","profile":"bus","distance":"13695.16","time":"1083.076"}},{"type":"Feature","name":"ShapeMeta","geometry":{"type":"LineString","coordinates":[[-1.562654,52.37809],[-1.562844,52.37858],[-1.562852,52.37869],[-1.562838,52.37881]]},"properties":{"name":"Gibbet Hill Road","maxspeed":"20 mph","highway":"tertiary","profile":"bus","distance":"13776.86","time":"1095.26"}},{"type":"Feature","name":"ShapeMeta","geometry":{"type":"LineString","coordinates":[[-1.562838,52.37881],[-1.562841,52.37886],[-1.56289,52.37896],[-1.562939,52.37899]]},"properties":{"name":"Gibbet Hill Road","maxspeed":"20 mph","oneway":"yes","highway":"tertiary","profile":"bus","distance":"13798.96","time":"1098.556"}},{"type":"Feature","name":"ShapeMeta","geometry":{"type":"LineString","coordinates":[[-1.562939,52.37899],[-1.56298,52.37901],[-1.563041,52.37905],[-1.563066,52.3791],[-1.563065,52.37913]]},"properties":{"maxspeed":"20 mph","oneway":"yes","highway":"tertiary","junction":"roundabout","profile":"bus","distance":"13817.26","time":"1101.285"}},{"type":"Feature","name":"ShapeMeta","geometry":{"type":"LineString","coordinates":[[-1.563065,52.37913],[-1.563111,52.37918],[-1.563147,52.37924],[-1.563201,52.37936]]},"properties":{"name":"Gibbet Hill Road","maxspeed":"20 mph","oneway":"yes","highway":"tertiary","profile":"bus","distance":"13845.16","time":"1105.446"}},{"type":"Feature","name":"ShapeMeta","geometry":{"type":"LineString","coordinates":[[-1.563201,52.37936],[-1.563223,52.3794],[-1.563401,52.37981]]},"properties":{"name":"Gibbet Hill Road","maxspeed":"20 mph","highway":"tertiary","profile":"bus","distance":"13896.96","time":"1113.171"}},{"type":"Feature","name":"ShapeMeta","geometry":{"type":"LineString","coordinates":[[-1.563401,52.37981],[-1.563231,52.37984]]},"properties":{"highway":"service","oneway":"yes","profile":"bus","distance":"13908.86","time":"1114.599"}},{"type":"Feature","name":"ShapeMeta","geometry":{"type":"LineString","coordinates":[[-1.563231,52.37984],[-1.56319,52.37984],[-1.563083,52.37981],[-1.562961,52.37969]]},"properties":{"highway":"service","oneway":"yes","profile":"bus","distance":"13935.19","time":"1117.759"}},{"type":"Feature","name":"ShapeMeta","geometry":{"type":"LineString","coordinates":[[-1.562961,52.37969],[-1.562714,52.37945],[-1.562653,52.37941],[-1.562335,52.37932],[-1.562304,52.3793]]},"properties":{"highway":"service","oneway":"yes","profile":"bus","distance":"13999.66","time":"1125.495"}},{"type":"Feature","name":"ShapeMeta","geometry":{"type":"LineString","coordinates":[[-1.562304,52.3793],[-1.562278,52.37925],[-1.562274,52.37919]]},"properties":{"highway":"service","oneway":"yes","profile":"bus","distance":"14012.26","time":"1127.007"}},{"type":"Feature","name":"ShapeMeta","geometry":{"type":"LineString","coordinates":[[-1.562274,52.37919],[-1.562363,52.37918],[-1.56249,52.37918]]},"properties":{"name":"University Road","maxspeed":"20 mph","highway":"unclassified","profile":"bus","distance":"14026.86","time":"1129.184"}},{"type":"Feature","name":"ShapeMeta","geometry":{"type":"LineString","coordinates":[[-1.56249,52.37918],[-1.562556,52.37917],[-1.562598,52.37915],[-1.562652,52.3791],[-1.562671,52.37908]]},"properties":{"name":"University Road","maxspeed":"20 mph","oneway":"yes","highway":"unclassified","profile":"bus","distance":"14044.56","time":"1131.824"}},{"type":"Feature","name":"ShapeMeta","geometry":{"type":"LineString","coordinates":[[-1.562671,52.37908],[-1.562689,52.37906],[-1.562715,52.37903],[-1.562743,52.37901]]},"properties":{"maxspeed":"20 mph","oneway":"yes","highway":"tertiary","junction":"roundabout","profile":"bus","distance":"14053.36","time":"1133.136"}},{"type":"Feature","name":"ShapeMeta","geometry":{"type":"LineString","coordinates":[[-1.562743,52.37901],[-1.562775,52.379],[-1.562813,52.37899],[-1.562898,52.37899],[-1.562939,52.37899]]},"properties":{"maxspeed":"20 mph","oneway":"yes","highway":"tertiary","junction":"roundabout","profile":"bus","distance":"14067.46","time":"1135.239"}},{"type":"Feature","name":"ShapeMeta","geometry":{"type":"LineString","coordinates":[[-1.562939,52.37899],[-1.56298,52.37901],[-1.563041,52.37905],[-1.563066,52.3791],[-1.563065,52.37913]]},"properties":{"maxspeed":"20 mph","oneway":"yes","highway":"tertiary","junction":"roundabout","profile":"bus","distance":"14085.76","time":"1137.968"}},{"type":"Feature","name":"ShapeMeta","geometry":{"type":"LineString","coordinates":[[-1.563065,52.37913],[-1.563111,52.37918],[-1.563147,52.37924],[-1.563201,52.37936]]},"properties":{"name":"Gibbet Hill Road","maxspeed":"20 mph","oneway":"yes","highway":"tertiary","profile":"bus","distance":"14113.66","time":"1142.129"}},{"type":"Feature","name":"ShapeMeta","geometry":{"type":"LineString","coordinates":[[-1.563201,52.37936],[-1.563223,52.3794],[-1.563401,52.37981]]},"properties":{"name":"Gibbet Hill Road","maxspeed":"20 mph","highway":"tertiary","profile":"bus","distance":"14165.46","time":"1149.854"}},{"type":"Feature","name":"ShapeMeta","geometry":{"type":"LineString","coordinates":[[-1.563401,52.37981],[-1.563447,52.37993]]},"properties":{"name":"Gibbet Hill Road","maxspeed":"20 mph","highway":"tertiary","profile":"bus","distance":"14178.56","time":"1151.807"}},{"type":"Feature","name":"ShapeMeta","geometry":{"type":"LineString","coordinates":[[-1.563447,52.37993],[-1.563682,52.38039]]},"properties":{"name":"Gibbet Hill Road","maxspeed":"20 mph","highway":"tertiary","profile":"bus","distance":"14232.26","time":"1159.816"}},{"type":"Feature","name":"ShapeMeta","geometry":{"type":"LineString","coordinates":[[-1.563682,52.38039],[-1.563705,52.38044],[-1.564766,52.3823],[-1.564931,52.38254],[-1.56497,52.38258]]},"properties":{"name":"Gibbet Hill Road","maxspeed":"20 mph","highway":"tertiary","profile":"bus","distance":"14491.46","time":"1198.47"}},{"type":"Feature","name":"ShapeMeta","geometry":{"type":"LineString","coordinates":[[-1.56497,52.38258],[-1.565109,52.38268],[-1.56525,52.38274]]},"properties":{"name":"Gibbet Hill Road","maxspeed":"20 mph","oneway":"yes","highway":"tertiary","profile":"bus","distance":"14517.46","time":"1202.347"}},{"type":"Feature","name":"ShapeMeta","geometry":{"type":"LineString","coordinates":[[-1.56525,52.38274],[-1.565282,52.38274],[-1.565322,52.38274],[-1.565364,52.38275]]},"properties":{"maxspeed":"30 mph","oneway":"yes","highway":"tertiary","junction":"roundabout","profile":"bus","distance":"14525.36","time":"1203.133"}},{"type":"Feature","name":"ShapeMeta","geometry":{"type":"LineString","coordinates":[[-1.565364,52.38275],[-1.565401,52.38276],[-1.565489,52.3828],[-1.565506,52.38283]]},"properties":{"maxspeed":"30 mph","oneway":"yes","highway":"tertiary","junction":"roundabout","profile":"bus","distance":"14539.16","time":"1204.505"}},{"type":"Feature","name":"ShapeMeta","geometry":{"type":"LineString","coordinates":[[-1.565506,52.38283],[-1.565512,52.38285],[-1.565509,52.38288],[-1.565498,52.3829]]},"properties":{"maxspeed":"30 mph","oneway":"yes","highway":"tertiary","junction":"roundabout","profile":"bus","distance":"14547.36","time":"1205.32"}},{"type":"Feature","name":"ShapeMeta","geometry":{"type":"LineString","coordinates":[[-1.565498,52.3829],[-1.565536,52.38297],[-1.565558,52.38302],[-1.565651,52.38317]]},"properties":{"name":"Gibbet Hill Road","maxspeed":"30 mph","oneway":"yes","highway":"tertiary","profile":"bus","distance":"14579.56","time":"1208.521"}},{"type":"Feature","name":"ShapeMeta","geometry":{"type":"LineString","coordinates":[[-1.565651,52.38317],[-1.565712,52.38324]]},"properties":{"name":"Gibbet Hill Road","maxspeed":"30 mph","highway":"tertiary","profile":"bus","distance":"14587.86","time":"1209.346"}},{"type":"Feature","name":"ShapeMeta","geometry":{"type":"LineString","coordinates":[[-1.565712,52.38324],[-1.56582,52.38335],[-1.566011,52.38348],[-1.566242,52.38359]]},"properties":{"name":"Gibbet Hill Road","maxspeed":"30 mph","highway":"tertiary","profile":"bus","distance":"14641.76","time":"1214.705"}},{"type":"Feature","name":"ShapeMeta","geometry":{"type":"LineString","coordinates":[[-1.566242,52.38359],[-1.566604,52.38375],[-1.566946,52.38393],[-1.567024,52.38399],[-1.567108,52.38409]]},"properties":{"name":"Gibbet Hill Road","maxspeed":"30 mph","highway":"tertiary","profile":"bus","distance":"14723.46","time":"1222.827"}},{"type":"Feature","name":"ShapeMeta","geometry":{"type":"LineString","coordinates":[[-1.567108,52.38409],[-1.567241,52.38426],[-1.567435,52.3845]]},"properties":{"name":"Gibbet Hill Road","maxspeed":"30 mph","highway":"tertiary","profile":"bus","distance":"14773.96","time":"1227.848"}},{"type":"Feature","name":"ShapeMeta","geometry":{"type":"LineString","coordinates":[[-1.567435,52.3845],[-1.567463,52.38453],[-1.567511,52.38463]]},"properties":{"name":"Gibbet Hill Road","maxspeed":"30 mph","highway":"tertiary","profile":"bus","distance":"14789.26","time":"1229.369"}},{"type":"Feature","name":"ShapeMeta","geometry":{"type":"LineString","coordinates":[[-1.567511,52.38463],[-1.567608,52.38467],[-1.567692,52.38471],[-1.567774,52.38476]]},"properties":{"name":"Gibbet Hill Road","maxspeed":"30 mph","oneway":"yes","highway":"tertiary","profile":"bus","distance":"14812.26","time":"1231.655"}},{"type":"Feature","name":"ShapeMeta","geometry":{"type":"LineString","coordinates":[[-1.567774,52.38476],[-1.567839,52.38475],[-1.567916,52.38477],[-1.567944,52.38479]]},"properties":{"highway":"tertiary","junction":"roundabout","maxspeed":"40 mph","profile":"bus","distance":"14824.86","time":"1232.595"}},{"type":"Feature","name":"ShapeMeta","geometry":{"type":"LineString","coordinates":[[-1.567944,52.38479],[-1.567982,52.38482],[-1.567995,52.38489],[-1.567981,52.38491]]},"properties":{"highway":"tertiary","junction":"roundabout","maxspeed":"40 mph","profile":"bus","distance":"14839.56","time":"1233.691"}},{"type":"Feature","name":"ShapeMeta","geometry":{"type":"LineString","coordinates":[[-1.567981,52.38491],[-1.567967,52.38493],[-1.567846,52.38498],[-1.567809,52.38498]]},"properties":{"highway":"tertiary","junction":"roundabout","maxspeed":"40 mph","profile":"bus","distance":"14854.66","time":"1234.817"}},{"type":"Feature","name":"ShapeMeta","geometry":{"type":"LineString","coordinates":[[-1.567809,52.38498],[-1.567777,52.38498],[-1.567745,52.38498]]},"properties":{"highway":"tertiary","junction":"roundabout","maxspeed":"40 mph","profile":"bus","distance":"14858.96","time":"1235.138"}},{"type":"Feature","name":"ShapeMeta","geometry":{"type":"LineString","coordinates":[[-1.567745,52.38498],[-1.567549,52.38501],[-1.567401,52.38504],[-1.567271,52.38506]]},"properties":{"name":"Kirby Corner Road","maxspeed":"30 mph","oneway":"yes","highway":"tertiary","profile":"bus","distance":"14892.56","time":"1238.478"}},{"type":"Feature","name":"ShapeMeta","geometry":{"type":"LineString","coordinates":[[-1.567271,52.38506],[-1.56724,52.38508]]},"properties":{"name":"Kirby Corner Road","maxspeed":"30 mph","highway":"tertiary","profile":"bus","distance":"14895.16","time":"1238.737"}},{"type":"Feature","name":"ShapeMeta","geometry":{"type":"LineString","coordinates":[[-1.56724,52.38508],[-1.567063,52.38514]]},"properties":{"name":"Kirby Corner Road","bridge":"yes","maxspeed":"30 mph","highway":"tertiary","profile":"bus","distance":"14909.16","time":"1240.128"}},{"type":"Feature","name":"ShapeMeta","geometry":{"type":"LineString","coordinates":[[-1.567063,52.38514],[-1.566949,52.38519],[-1.56654,52.3854],[-1.566103,52.38565]]},"properties":{"name":"Kirby Corner Road","maxspeed":"30 mph","highway":"tertiary","profile":"bus","distance":"14995.66","time":"1248.728"}},{"type":"Feature","name":"ShapeMeta","geometry":{"type":"LineString","coordinates":[[-1.566103,52.38565],[-1.565461,52.38605],[-1.565183,52.38621]]},"properties":{"name":"Kirby Corner Road","maxspeed":"30 mph","highway":"tertiary","profile":"bus","distance":"15083.56","time":"1257.467"}},{"type":"Feature","name":"ShapeMeta","geometry":{"type":"LineString","coordinates":[[-1.565183,52.38621],[-1.564877,52.38638],[-1.564556,52.38655],[-1.564369,52.38665]]},"properties":{"name":"Kirby Corner Road","maxspeed":"30 mph","highway":"tertiary","profile":"bus","distance":"15157.16","time":"1264.784"}},{"type":"Feature","name":"ShapeMeta","geometry":{"type":"LineString","coordinates":[[-1.564369,52.38665],[-1.564209,52.38673],[-1.563926,52.38686]]},"properties":{"name":"Kirby Corner Road","maxspeed":"30 mph","highway":"tertiary","profile":"bus","distance":"15195.46","time":"1268.592"}},{"type":"Feature","name":"ShapeMeta","geometry":{"type":"LineString","coordinates":[[-1.563926,52.38686],[-1.563596,52.38702],[-1.562971,52.3873],[-1.561728,52.3878],[-1.561676,52.38781]]},"properties":{"name":"Kirby Corner Road","maxspeed":"30 mph","highway":"tertiary","profile":"bus","distance":"15381.25","time":"1287.064"}},{"type":"Feature","name":"ShapeMeta","geometry":{"type":"LineString","coordinates":[[-1.561676,52.38781],[-1.561368,52.38791]]},"properties":{"name":"Kirby Corner Road","maxspeed":"30 mph","highway":"tertiary","profile":"bus","distance":"15404.65","time":"1289.391"}},{"type":"Feature","name":"ShapeMeta","geometry":{"type":"LineString","coordinates":[[-1.561368,52.38791],[-1.56109,52.388],[-1.560733,52.3881],[-1.559804,52.38832],[-1.559184,52.38851]]},"properties":{"name":"Kirby Corner Road","maxspeed":"30 mph","highway":"tertiary","profile":"bus","distance":"15567.45","time":"1305.576"}},{"type":"Feature","name":"ShapeMeta","geometry":{"type":"LineString","coordinates":[[-1.559184,52.38851],[-1.558874,52.38862],[-1.558434,52.38882],[-1.557921,52.38917],[-1.557649,52.38933],[-1.55754,52.38939]]},"properties":{"name":"Kirby Corner Road","maxspeed":"30 mph","highway":"tertiary","profile":"bus","distance":"15716.65","time":"1320.41"}},{"type":"Feature","name":"ShapeMeta","geometry":{"type":"LineString","coordinates":[[-1.55754,52.38939],[-1.557455,52.38942],[-1.557146,52.38953],[-1.557001,52.38958]]},"properties":{"name":"Kirby Corner Road","maxspeed":"30 mph","highway":"tertiary","profile":"bus","distance":"15759.15","time":"1324.635"}},{"type":"Feature","name":"ShapeMeta","geometry":{"type":"LineString","coordinates":[[-1.557001,52.38958],[-1.556774,52.38967],[-1.556737,52.38968]]},"properties":{"name":"Kirby Corner Road","maxspeed":"30 mph","oneway":"yes","highway":"tertiary","profile":"bus","distance":"15780.09","time":"1326.716"}},{"type":"Feature","name":"ShapeMeta","geometry":{"type":"LineString","coordinates":[[-1.556737,52.38968],[-1.556516,52.38973],[-1.556426,52.38974],[-1.556263,52.38974],[-1.556025,52.38973],[-1.555931,52.38972]]},"properties":{"name":"Kirby Corner Road","maxspeed":"30 mph","oneway":"yes","highway":"tertiary","profile":"bus","distance":"15836.15","time":"1332.29"}},{"type":"Feature","name":"ShapeMeta","geometry":{"type":"LineString","coordinates":[[-1.555931,52.38972],[-1.555889,52.38974],[-1.555788,52.38976],[-1.555733,52.38975]]},"properties":{"maxspeed":"30 mph","highway":"tertiary","junction":"roundabout","profile":"bus","distance":"15850.35","time":"1333.702"}},{"type":"Feature","name":"ShapeMeta","geometry":{"type":"LineString","coordinates":[[-1.555733,52.38975],[-1.555651,52.38978],[-1.555337,52.38998],[-1.555226,52.39009],[-1.555151,52.39021],[-1.555145,52.39027]]},"properties":{"name":"Sir Henry Parkes Road","maxspeed":"30 mph","oneway":"yes","highway":"tertiary","profile":"bus","distance":"15922.55","time":"1340.88"}},{"type":"Feature","name":"ShapeMeta","geometry":{"type":"LineString","coordinates":[[-1.555145,52.39027],[-1.555229,52.39033]]},"properties":{"maxspeed":"30 mph","highway":"tertiary","junction":"roundabout","profile":"bus","distance":"15931.75","time":"1341.794"}},{"type":"Feature","name":"ShapeMeta","geometry":{"type":"LineString","coordinates":[[-1.555229,52.39033],[-1.555282,52.3904],[-1.555284,52.39047],[-1.555241,52.39054]]},"properties":{"maxspeed":"30 mph","highway":"tertiary","junction":"roundabout","profile":"bus","distance":"15956.65","time":"1344.27"}},{"type":"Feature","name":"ShapeMeta","geometry":{"type":"LineString","coordinates":[[-1.555241,52.39054],[-1.55518,52.39058],[-1.555111,52.39061],[-1.55504,52.39062]]},"properties":{"maxspeed":"30 mph","highway":"tertiary","junction":"roundabout","profile":"bus","distance":"15973.15","time":"1345.91"}},{"type":"Feature","name":"ShapeMeta","geometry":{"type":"LineString","coordinates":[[-1.55504,52.39062],[-1.554911,52.3907],[-1.55487,52.39072],[-1.55464,52.39082]]},"properties":{"name":"Sir Henry Parkes Road","maxspeed":"30 mph","oneway":"yes","highway":"tertiary","profile":"bus","distance":"16008.15","time":"1349.39"}},{"type":"Feature","name":"ShapeMeta","geometry":{"type":"LineString","coordinates":[[-1.55464,52.39082],[-1.554378,52.39094],[-1.553341,52.39138],[-1.553158,52.39147],[-1.552976,52.39157]]},"properties":{"name":"Sir Henry Parkes Road","maxspeed":"30 mph","highway":"tertiary","profile":"bus","distance":"16148.15","time":"1363.309"}},{"type":"Feature","name":"ShapeMeta","geometry":{"type":"LineString","coordinates":[[-1.552976,52.39157],[-1.552818,52.39166],[-1.552814,52.39167]]},"properties":{"name":"Sir Henry Parkes Road","maxspeed":"30 mph","highway":"tertiary","profile":"bus","distance":"16163.66","time":"1364.85"}},{"type":"Feature","name":"ShapeMeta","geometry":{"type":"LineString","coordinates":[[-1.552814,52.39167],[-1.552553,52.39185],[-1.552447,52.39193],[-1.552187,52.39217],[-1.552051,52.3923]]},"properties":{"name":"Sir Henry Parkes Road","maxspeed":"30 mph","highway":"tertiary","profile":"bus","distance":"16251.36","time":"1373.569"}},{"type":"Feature","name":"ShapeMeta","geometry":{"type":"LineString","coordinates":[[-1.552051,52.3923],[-1.551957,52.39257],[-1.551951,52.39269],[-1.551972,52.39279],[-1.552028,52.39294],[-1.552184,52.39315],[-1.552335,52.39333]]},"properties":{"oneway":"yes","maxspeed":"40 mph","highway":"tertiary_link","profile":"bus","distance":"16371.36","time":"1382.516"}},{"type":"Feature","name":"ShapeMeta","geometry":{"type":"LineString","coordinates":[[-1.552335,52.39333],[-1.552447,52.3934],[-1.553413,52.39402],[-1.553941,52.39441],[-1.554494,52.39485],[-1.555119,52.39541]]},"properties":{"name":"Fletchamstead Highway","oneway":"yes","highway":"trunk","maxspeed":"40 mph","profile":"bus","distance":"16670.86","time":"1404.849"}},{"type":"Feature","name":"ShapeMeta","geometry":{"type":"LineString","coordinates":[[-1.555119,52.39541],[-1.555578,52.39587],[-1.556404,52.39682],[-1.556604,52.39711],[-1.55694,52.39771]]},"properties":{"name":"Fletchamstead Highway","oneway":"yes","highway":"trunk","maxspeed":"40 mph","profile":"bus","distance":"16955.76","time":"1426.092"}},{"type":"Feature","name":"ShapeMeta","geometry":{"type":"LineString","coordinates":[[-1.55694,52.39771],[-1.557131,52.39803]]},"properties":{"name":"Fletchamstead Highway","bridge":"yes","oneway":"yes","highway":"trunk","maxspeed":"40 mph","profile":"bus","distance":"16994.06","time":"1428.948"}},{"type":"Feature","name":"ShapeMeta","geometry":{"type":"LineString","coordinates":[[-1.557131,52.39803],[-1.557352,52.39837]]},"properties":{"name":"Fletchamstead Highway","oneway":"yes","highway":"trunk","maxspeed":"40 mph","profile":"bus","distance":"17034.66","time":"1431.975"}},{"type":"Feature","name":"ShapeMeta","geometry":{"type":"LineString","coordinates":[[-1.557352,52.39837],[-1.557486,52.39857]]},"properties":{"name":"Fletchamstead Highway","oneway":"yes","highway":"trunk","maxspeed":"40 mph","profile":"bus","distance":"17058.06","time":"1433.72"}},{"type":"Feature","name":"ShapeMeta","geometry":{"type":"LineString","coordinates":[[-1.557486,52.39857],[-1.557759,52.39885]]},"properties":{"name":"Fletchamstead Highway","maxspeed":"30 mph","oneway":"yes","highway":"trunk_link","profile":"bus","distance":"17094.86","time":"1437.379"}},{"type":"Feature","name":"ShapeMeta","geometry":{"type":"LineString","coordinates":[[-1.557759,52.39885],[-1.557934,52.39911]]},"properties":{"name":"Fletchamstead Highway","maxspeed":"30 mph","oneway":"yes","highway":"trunk_link","profile":"bus","distance":"17125.96","time":"1440.471"}},{"type":"Feature","name":"ShapeMeta","geometry":{"type":"LineString","coordinates":[[-1.557934,52.39911],[-1.558083,52.39935]]},"properties":{"name":"Fletchamstead Highway","maxspeed":"30 mph","oneway":"yes","highway":"trunk_link","profile":"bus","distance":"17154.46","time":"1443.304"}},{"type":"Feature","name":"ShapeMeta","geometry":{"type":"LineString","coordinates":[[-1.558083,52.39935],[-1.558144,52.39946],[-1.558242,52.39964]]},"properties":{"name":"Fletchamstead Highway","maxspeed":"30 mph","oneway":"yes","highway":"trunk_link","profile":"bus","distance":"17188.46","time":"1446.684"}},{"type":"Feature","name":"ShapeMeta","geometry":{"type":"LineString","coordinates":[[-1.558242,52.39964],[-1.558326,52.39963],[-1.558359,52.39962]]},"properties":{"highway":"service","profile":"bus","distance":"17196.72","time":"1447.676"}},{"type":"Feature","name":"ShapeMeta","geometry":{"type":"LineString","coordinates":[[-1.558359,52.39962],[-1.558326,52.39963],[-1.558242,52.39964]]},"properties":{"highway":"service","profile":"bus","distance":"17204.99","time":"1448.668"}},{"type":"Feature","name":"ShapeMeta","geometry":{"type":"LineString","coordinates":[[-1.558242,52.39964],[-1.558295,52.39973],[-1.558528,52.40005],[-1.558644,52.40016],[-1.558715,52.40025]]},"properties":{"name":"Fletchamstead Highway","maxspeed":"30 mph","oneway":"yes","highway":"trunk_link","profile":"bus","distance":"17279.79","time":"1456.104"}},{"type":"Feature","name":"ShapeMeta","geometry":{"type":"LineString","coordinates":[[-1.558715,52.40025],[-1.558725,52.40034],[-1.558728,52.40043],[-1.558703,52.40049],[-1.558621,52.40083]]},"properties":{"name":"Fletchamstead Highway","maxspeed":"30 mph","oneway":"yes","highway":"trunk_link","profile":"bus","distance":"17344.89","time":"1462.577"}},{"type":"Feature","name":"ShapeMeta","geometry":{"type":"LineString","coordinates":[[-1.558621,52.40083],[-1.558681,52.40107]]},"properties":{"name":"Fletchamstead Highway","oneway":"yes","highway":"trunk","maxspeed":"40 mph","profile":"bus","distance":"17371.49","time":"1464.56"}},{"type":"Feature","name":"ShapeMeta","geometry":{"type":"LineString","coordinates":[[-1.558681,52.40107],[-1.558743,52.40136]]},"properties":{"name":"Fletchamstead Highway","oneway":"yes","highway":"trunk","maxspeed":"40 mph","profile":"bus","distance":"17403.99","time":"1466.983"}},{"type":"Feature","name":"ShapeMeta","geometry":{"type":"LineString","coordinates":[[-1.558743,52.40136],[-1.558808,52.40165],[-1.558847,52.40199]]},"properties":{"name":"Fletchamstead Highway","oneway":"yes","highway":"trunk","maxspeed":"40 mph","profile":"bus","distance":"17474.29","time":"1472.225"}},{"type":"Feature","name":"ShapeMeta","geometry":{"type":"LineString","coordinates":[[-1.558847,52.40199],[-1.558887,52.40232],[-1.558906,52.40265]]},"properties":{"name":"Fletchamstead Highway","oneway":"yes","highway":"trunk","maxspeed":"40 mph","profile":"bus","distance":"17548.19","time":"1477.736"}},{"type":"Feature","name":"ShapeMeta","geometry":{"type":"LineString","coordinates":[[-1.558906,52.40265],[-1.558847,52.40274],[-1.558811,52.40286],[-1.558895,52.40357],[-1.558801,52.40369],[-1.55873,52.40372]]},"properties":{"name":"Fletchamstead Highway","oneway":"yes","maxspeed":"40 mph","highway":"trunk_link","profile":"bus","distance":"17672.59","time":"1487.011"}},{"type":"Feature","name":"ShapeMeta","geometry":{"type":"LineString","coordinates":[[-1.55873,52.40372],[-1.558588,52.40375],[-1.55841,52.40375]]},"properties":{"name":"Tile Hill Lane","oneway":"yes","maxspeed":"40 mph","highway":"secondary_link","profile":"bus","distance":"17694.69","time":"1488.659"}},{"type":"Feature","name":"ShapeMeta","geometry":{"type":"LineString","coordinates":[[-1.55841,52.40375],[-1.557666,52.40376],[-1.556957,52.4038]]},"properties":{"name":"Tile Hill Lane","maxspeed":"30 mph","oneway":"yes","highway":"secondary_link","profile":"bus","distance":"17793.49","time":"1498.482"}},{"type":"Feature","name":"ShapeMeta","geometry":{"type":"LineString","coordinates":[[-1.556957,52.4038],[-1.556866,52.40379],[-1.556708,52.40374],[-1.55661,52.40368],[-1.556492,52.40355],[-1.556448,52.40348]]},"properties":{"name":"Vanguard Avenue","maxspeed":"30 mph","oneway":"yes","highway":"secondary","profile":"bus","distance":"17846.89","time":"1503.791"}},{"type":"Feature","name":"ShapeMeta","geometry":{"type":"LineString","coordinates":[[-1.556448,52.40348],[-1.556446,52.40343]]},"properties":{"name":"Vanguard Avenue","maxspeed":"30 mph","oneway":"yes","highway":"secondary","profile":"bus","distance":"17852.39","time":"1504.338"}},{"type":"Feature","name":"ShapeMeta","geometry":{"type":"LineString","coordinates":[[-1.556446,52.40343],[-1.556439,52.40328]]},"properties":{"name":"Vanguard Avenue","maxspeed":"30 mph","oneway":"yes","highway":"secondary","profile":"bus","distance":"17868.49","time":"1505.938"}},{"type":"Feature","name":"ShapeMeta","geometry":{"type":"LineString","coordinates":[[-1.556439,52.40328],[-1.556429,52.40306]]},"properties":{"name":"Vanguard Avenue","maxspeed":"30 mph","oneway":"yes","highway":"secondary","profile":"bus","distance":"17892.59","time":"1508.334"}},{"type":"Feature","name":"ShapeMeta","geometry":{"type":"LineString","coordinates":[[-1.556429,52.40306],[-1.556296,52.40282],[-1.556248,52.40279]]},"properties":{"name":"Herald Avenue","maxspeed":"30 mph","oneway":"yes","highway":"secondary","profile":"bus","distance":"17925.89","time":"1511.645"}},{"type":"Feature","name":"ShapeMeta","geometry":{"type":"LineString","coordinates":[[-1.556248,52.40279],[-1.556138,52.40273],[-1.55597,52.4027],[-1.555518,52.40272]]},"properties":{"name":"Herald Avenue","maxspeed":"30 mph","oneway":"yes","highway":"secondary","profile":"bus","distance":"17978.43","time":"1516.869"}},{"type":"Feature","name":"ShapeMeta","geometry":{"type":"LineString","coordinates":[[-1.555518,52.40272],[-1.554573,52.40276],[-1.554486,52.40278],[-1.554371,52.40282]]},"properties":{"name":"Herald Avenue","maxspeed":"30 mph","oneway":"yes","highway":"secondary","profile":"bus","distance":"18057.78","time":"1524.758"}},{"type":"Feature","name":"ShapeMeta","geometry":{"type":"LineString","coordinates":[[-1.554371,52.40282],[-1.554311,52.40286],[-1.554217,52.40289],[-1.554135,52.4029]]},"properties":{"name":"Herald Avenue","maxspeed":"30 mph","oneway":"yes","highway":"secondary","junction":"roundabout","profile":"bus","distance":"18076.98","time":"1526.667"}},{"type":"Feature","name":"ShapeMeta","geometry":{"type":"LineString","coordinates":[[-1.554135,52.4029],[-1.55406,52.40291],[-1.553983,52.40289],[-1.553905,52.40285]]},"properties":{"name":"Herald Avenue","maxspeed":"30 mph","oneway":"yes","highway":"secondary","junction":"roundabout","profile":"bus","distance":"18094.18","time":"1528.377"}},{"type":"Feature","name":"ShapeMeta","geometry":{"type":"LineString","coordinates":[[-1.553905,52.40285],[-1.55386,52.40284]]},"properties":{"name":"Herald Avenue","maxspeed":"30 mph","oneway":"yes","highway":"secondary","junction":"roundabout","profile":"bus","distance":"18097.88","time":"1528.745"}},{"type":"Feature","name":"ShapeMeta","geometry":{"type":"LineString","coordinates":[[-1.55386,52.40284],[-1.553766,52.40281],[-1.553631,52.40277],[-1.553433,52.40273]]},"properties":{"name":"Herald Avenue","maxspeed":"30 mph","oneway":"yes","highway":"secondary","profile":"bus","distance":"18129.18","time":"1531.857"}},{"type":"Feature","name":"ShapeMeta","geometry":{"type":"LineString","coordinates":[[-1.553433,52.40273],[-1.553223,52.40271],[-1.552178,52.40271],[-1.5512,52.40273]]},"properties":{"name":"Herald Avenue","maxspeed":"30 mph","highway":"secondary","profile":"bus","distance":"18280.91","time":"1546.942"}},{"type":"Feature","name":"ShapeMeta","geometry":{"type":"LineString","coordinates":[[-1.5512,52.40273],[-1.551098,52.40273],[-1.550723,52.40274]]},"properties":{"name":"Herald Avenue","maxspeed":"30 mph","highway":"secondary","profile":"bus","distance":"18313.28","time":"1550.16"}},{"type":"Feature","name":"ShapeMeta","geometry":{"type":"LineString","coordinates":[[-1.550723,52.40274],[-1.550419,52.40274],[-1.550084,52.40276],[-1.549997,52.40277]]},"properties":{"name":"Herald Avenue","maxspeed":"30 mph","highway":"secondary","profile":"bus","distance":"18362.78","time":"1555.082"}},{"type":"Feature","name":"ShapeMeta","geometry":{"type":"LineString","coordinates":[[-1.549997,52.40277],[-1.549862,52.40279],[-1.549571,52.40284],[-1.5495,52.40286]]},"properties":{"name":"Herald Avenue","maxspeed":"30 mph","highway":"secondary","profile":"bus","distance":"18397.98","time":"1558.581"}},{"type":"Feature","name":"ShapeMeta","geometry":{"type":"LineString","coordinates":[[-1.5495,52.40286],[-1.549339,52.40295],[-1.549215,52.40307],[-1.549135,52.40319]]},"properties":{"name":"Herald Avenue","maxspeed":"30 mph","oneway":"yes","highway":"secondary","profile":"bus","distance":"18443.08","time":"1563.065"}},{"type":"Feature","name":"ShapeMeta","geometry":{"type":"LineString","coordinates":[[-1.549135,52.40319],[-1.549131,52.40323],[-1.549113,52.40328]]},"properties":{"maxspeed":"30 mph","highway":"secondary","junction":"roundabout","profile":"bus","distance":"18452.48","time":"1564"}},{"type":"Feature","name":"ShapeMeta","geometry":{"type":"LineString","coordinates":[[-1.549113,52.40328],[-1.549099,52.40332],[-1.549001,52.40342],[-1.548823,52.4035],[-1.548722,52.40352]]},"properties":{"maxspeed":"30 mph","highway":"secondary","junction":"roundabout","profile":"bus","distance":"18492.48","time":"1567.976"}},{"type":"Feature","name":"ShapeMeta","geometry":{"type":"LineString","coordinates":[[-1.548722,52.40352],[-1.548628,52.40353],[-1.548564,52.40353]]},"properties":{"maxspeed":"30 mph","highway":"secondary","junction":"roundabout","profile":"bus","distance":"18503.18","time":"1569.04"}},{"type":"Feature","name":"ShapeMeta","geometry":{"type":"LineString","coordinates":[[-1.548564,52.40353],[-1.548274,52.40359],[-1.547771,52.40372]]},"properties":{"name":"Tile Hill Lane","maxspeed":"30 mph","oneway":"yes","highway":"secondary","profile":"bus","distance":"18561.38","time":"1574.827"}},{"type":"Feature","name":"ShapeMeta","geometry":{"type":"LineString","coordinates":[[-1.547771,52.40372],[-1.547685,52.40375],[-1.547473,52.40382],[-1.547179,52.40391]]},"properties":{"name":"Tile Hill Lane","maxspeed":"30 mph","oneway":"yes","highway":"secondary","profile":"bus","distance":"18606.38","time":"1579.3"}},{"type":"Feature","name":"ShapeMeta","geometry":{"type":"LineString","coordinates":[[-1.547179,52.40391],[-1.54693,52.40399],[-1.546659,52.40409],[-1.546607,52.40413],[-1.546547,52.40416],[-1.546491,52.40421]]},"properties":{"name":"Tile Hill Lane","maxspeed":"30 mph","oneway":"yes","highway":"secondary","profile":"bus","distance":"18664.78","time":"1585.106"}},{"type":"Feature","name":"ShapeMeta","geometry":{"type":"LineString","coordinates":[[-1.546491,52.40421],[-1.546481,52.40423],[-1.546467,52.40425],[-1.546455,52.40426]]},"properties":{"maxspeed":"30 mph","highway":"secondary","junction":"roundabout","profile":"bus","distance":"18670.78","time":"1585.703"}},{"type":"Feature","name":"ShapeMeta","geometry":{"type":"LineString","coordinates":[[-1.546455,52.40426],[-1.5464,52.40431],[-1.546252,52.40435],[-1.546152,52.40435]]},"properties":{"maxspeed":"30 mph","highway":"secondary","junction":"roundabout","profile":"bus","distance":"18695.18","time":"1588.129"}},{"type":"Feature","name":"ShapeMeta","geometry":{"type":"LineString","coordinates":[[-1.546152,52.40435],[-1.546078,52.40434],[-1.545986,52.40431],[-1.545951,52.40428]]},"properties":{"maxspeed":"30 mph","highway":"secondary","junction":"roundabout","profile":"bus","distance":"18711.48","time":"1589.749"}},{"type":"Feature","name":"ShapeMeta","geometry":{"type":"LineString","coordinates":[[-1.545951,52.40428],[-1.545774,52.40416],[-1.545334,52.40395],[-1.545127,52.40388],[-1.544506,52.40372],[-1.544033,52.40361]]},"properties":{"name":"Tile Hill Lane","maxspeed":"30 mph","oneway":"yes","highway":"secondary","profile":"bus","distance":"18863.48","time":"1604.861"}},{"type":"Feature","name":"ShapeMeta","geometry":{"type":"LineString","coordinates":[[-1.544033,52.40361],[-1.543879,52.40359],[-1.543452,52.40355],[-1.542979,52.40351],[-1.542635,52.4035],[-1.542608,52.4035]]},"properties":{"name":"Tile Hill Lane","maxspeed":"30 mph","highway":"secondary","profile":"bus","distance":"18961.08","time":"1614.565"}},{"type":"Feature","name":"ShapeMeta","geometry":{"type":"LineString","coordinates":[[-1.542608,52.4035],[-1.541917,52.40353],[-1.54147,52.40356],[-1.540825,52.40364],[-1.540685,52.40366]]},"properties":{"name":"Tile Hill Lane","maxspeed":"30 mph","highway":"secondary","profile":"bus","distance":"19093.08","time":"1627.688"}},{"type":"Feature","name":"ShapeMeta","geometry":{"type":"LineString","coordinates":[[-1.540685,52.40366],[-1.540599,52.40368],[-1.537515,52.40424],[-1.536913,52.40438],[-1.536462,52.40451]]},"properties":{"name":"Hearsall Common","maxspeed":"30 mph","highway":"secondary","profile":"bus","distance":"19394.88","time":"1657.693"}},{"type":"Feature","name":"ShapeMeta","geometry":{"type":"LineString","coordinates":[[-1.536462,52.40451],[-1.536289,52.40456]]},"properties":{"name":"Hearsall Common","maxspeed":"30 mph","oneway":"yes","highway":"secondary","profile":"bus","distance":"19407.78","time":"1658.975"}},{"type":"Feature","name":"ShapeMeta","geometry":{"type":"LineString","coordinates":[[-1.536289,52.40456],[-1.53555,52.4048],[-1.535409,52.40484]]},"properties":{"name":"Hearsall Common","maxspeed":"30 mph","oneway":"yes","highway":"secondary","profile":"bus","distance":"19475.38","time":"1665.696"}},{"type":"Feature","name":"ShapeMeta","geometry":{"type":"LineString","coordinates":[[-1.535409,52.40484],[-1.535303,52.40488]]},"properties":{"name":"Hearsall Common","maxspeed":"30 mph","oneway":"yes","highway":"secondary","profile":"bus","distance":"19483.38","time":"1666.491"}},{"type":"Feature","name":"ShapeMeta","geometry":{"type":"LineString","coordinates":[[-1.535303,52.40488],[-1.535263,52.40483]]},"properties":{"name":"Earlsdon Avenue North","maxspeed":"30 mph","oneway":"yes","highway":"secondary","profile":"bus","distance":"19489.48","time":"1667.098"}},{"type":"Feature","name":"ShapeMeta","geometry":{"type":"LineString","coordinates":[[-1.535263,52.40483],[-1.535201,52.40474],[-1.535111,52.40459]]},"properties":{"name":"Earlsdon Avenue North","maxspeed":"30 mph","oneway":"yes","highway":"secondary","profile":"bus","distance":"19517.28","time":"1669.862"}},{"type":"Feature","name":"ShapeMeta","geometry":{"type":"LineString","coordinates":[[-1.535111,52.40459],[-1.534991,52.40446],[-1.534983,52.40445]]},"properties":{"name":"Earlsdon Avenue North","maxspeed":"30 mph","highway":"secondary","profile":"bus","distance":"19535.67","time":"1671.691"}},{"type":"Feature","name":"ShapeMeta","geometry":{"type":"LineString","coordinates":[[-1.534983,52.40445],[-1.534864,52.40432]]},"properties":{"name":"Earlsdon Avenue North","maxspeed":"30 mph","highway":"secondary","profile":"bus","distance":"19552.47","time":"1673.362"}},{"type":"Feature","name":"ShapeMeta","geometry":{"type":"LineString","coordinates":[[-1.534864,52.40432],[-1.53483,52.40425]]},"properties":{"name":"Earlsdon Avenue North","maxspeed":"30 mph","highway":"secondary","profile":"bus","distance":"19559.57","time":"1674.067"}},{"type":"Feature","name":"ShapeMeta","geometry":{"type":"LineString","coordinates":[[-1.53483,52.40425],[-1.534727,52.40407],[-1.534519,52.40371]]},"properties":{"name":"Earlsdon Avenue North","maxspeed":"30 mph","highway":"secondary","profile":"bus","distance":"19624.17","time":"1680.49"}},{"type":"Feature","name":"ShapeMeta","geometry":{"type":"LineString","coordinates":[[-1.534519,52.40371],[-1.534324,52.40339],[-1.534268,52.4033],[-1.534176,52.40316]]},"properties":{"name":"Earlsdon Avenue North","maxspeed":"30 mph","highway":"secondary","profile":"bus","distance":"19688.67","time":"1686.902"}},{"type":"Feature","name":"ShapeMeta","geometry":{"type":"LineString","coordinates":[[-1.534176,52.40316],[-1.53408,52.40305],[-1.533977,52.40296],[-1.533875,52.40291],[-1.533662,52.40283]]},"properties":{"name":"Earlsdon Avenue North","maxspeed":"30 mph","highway":"secondary","profile":"bus","distance":"19740.77","time":"1692.082"}},{"type":"Feature","name":"ShapeMeta","geometry":{"type":"LineString","coordinates":[[-1.533662,52.40283],[-1.533467,52.40276],[-1.532742,52.4025],[-1.532342,52.40237]]},"properties":{"name":"Earlsdon Avenue North","maxspeed":"30 mph","highway":"secondary","profile":"bus","distance":"19843.97","time":"1702.342"}},{"type":"Feature","name":"ShapeMeta","geometry":{"type":"LineString","coordinates":[[-1.532342,52.40237],[-1.532122,52.40229]]},"properties":{"name":"Earlsdon Avenue North","maxspeed":"30 mph","highway":"secondary","profile":"bus","distance":"19861.38","time":"1704.073"}},{"type":"Feature","name":"ShapeMeta","geometry":{"type":"LineString","coordinates":[[-1.532122,52.40229],[-1.532101,52.40228],[-1.531751,52.40214],[-1.531679,52.40202],[-1.531675,52.40199]]},"properties":{"name":"Earlsdon Avenue North","maxspeed":"30 mph","highway":"secondary","profile":"bus","distance":"19909.18","time":"1708.825"}},{"type":"Feature","name":"ShapeMeta","geometry":{"type":"LineString","coordinates":[[-1.531675,52.40199],[-1.531678,52.40191],[-1.531657,52.4017]]},"properties":{"name":"Earlsdon Avenue North","maxspeed":"30 mph","highway":"secondary","profile":"bus","distance":"19940.97","time":"1711.986"}},{"type":"Feature","name":"ShapeMeta","geometry":{"type":"LineString","coordinates":[[-1.531657,52.4017],[-1.531645,52.4015]]},"properties":{"name":"Earlsdon Avenue North","bridge":"yes","highway":"secondary","profile":"bus","distance":"19962.97","time":"1713.118"}},{"type":"Feature","name":"ShapeMeta","geometry":{"type":"LineString","coordinates":[[-1.531645,52.4015],[-1.531649,52.40145],[-1.531583,52.40117],[-1.531559,52.40112]]},"properties":{"name":"Earlsdon Avenue North","highway":"secondary","profile":"bus","distance":"20005.97","time":"1715.329"}},{"type":"Feature","name":"ShapeMeta","geometry":{"type":"LineString","coordinates":[[-1.531559,52.40112],[-1.53154,52.4011],[-1.531505,52.40106],[-1.53116,52.40083],[-1.530802,52.40057],[-1.530731,52.40048],[-1.530625,52.40029],[-1.530601,52.40022]]},"properties":{"name":"Earlsdon Avenue North","highway":"secondary","profile":"bus","distance":"20127.47","time":"1721.578"}},{"type":"Feature","name":"ShapeMeta","geometry":{"type":"LineString","coordinates":[[-1.530601,52.40022],[-1.530548,52.40017],[-1.530502,52.40004],[-1.530481,52.39998]]},"properties":{"name":"Earlsdon Avenue North","oneway":"yes","highway":"secondary","profile":"bus","distance":"20156.07","time":"1723.049"}},{"type":"Feature","name":"ShapeMeta","geometry":{"type":"LineString","coordinates":[[-1.530481,52.39998],[-1.53045,52.39997],[-1.530406,52.39996]]},"properties":{"highway":"secondary","junction":"roundabout","profile":"bus","distance":"20161.87","time":"1723.347"}},{"type":"Feature","name":"ShapeMeta","geometry":{"type":"LineString","coordinates":[[-1.530406,52.39996],[-1.530386,52.39994],[-1.530364,52.39991],[-1.53036,52.39989]]},"properties":{"highway":"secondary","junction":"roundabout","profile":"bus","distance":"20169.47","time":"1723.738"}},{"type":"Feature","name":"ShapeMeta","geometry":{"type":"LineString","coordinates":[[-1.53036,52.39989],[-1.530367,52.39987],[-1.530384,52.39985]]},"properties":{"highway":"secondary","junction":"roundabout","profile":"bus","distance":"20175.17","time":"1724.031"}},{"type":"Feature","name":"ShapeMeta","geometry":{"type":"LineString","coordinates":[[-1.530384,52.39985],[-1.530377,52.3998],[-1.530324,52.39973],[-1.530283,52.39967]]},"properties":{"name":"Earlsdon Avenue South","oneway":"yes","highway":"secondary","profile":"bus","distance":"20195.57","time":"1725.08"}},{"type":"Feature","name":"ShapeMeta","geometry":{"type":"LineString","coordinates":[[-1.530283,52.39967],[-1.530134,52.39956],[-1.529385,52.39914],[-1.52921,52.39903]]},"properties":{"name":"Earlsdon Avenue South","highway":"secondary","profile":"bus","distance":"20297.87","time":"1730.341"}},{"type":"Feature","name":"ShapeMeta","geometry":{"type":"LineString","coordinates":[[-1.52921,52.39903],[-1.528938,52.39886]]},"properties":{"name":"Earlsdon Avenue South","highway":"secondary","profile":"bus","distance":"20324.07","time":"1731.689"}},{"type":"Feature","name":"ShapeMeta","geometry":{"type":"LineString","coordinates":[[-1.528938,52.39886],[-1.528677,52.39868],[-1.528527,52.39854]]},"properties":{"name":"Earlsdon Avenue South","highway":"secondary","profile":"bus","distance":"20369.07","time":"1734.003"}},{"type":"Feature","name":"ShapeMeta","geometry":{"type":"LineString","coordinates":[[-1.528527,52.39854],[-1.528354,52.39837],[-1.528289,52.39829]]},"properties":{"name":"Earlsdon Avenue South","highway":"secondary","profile":"bus","distance":"20401.77","time":"1735.685"}},{"type":"Feature","name":"ShapeMeta","geometry":{"type":"LineString","coordinates":[[-1.528289,52.39829],[-1.528187,52.39813],[-1.527869,52.3975],[-1.527774,52.39735]]},"properties":{"name":"Earlsdon Avenue South","highway":"secondary","profile":"bus","distance":"20511.47","time":"1741.327"}},{"type":"Feature","name":"ShapeMeta","geometry":{"type":"LineString","coordinates":[[-1.527774,52.39735],[-1.52768,52.39725],[-1.527393,52.39706],[-1.527022,52.39689],[-1.526648,52.39673]]},"properties":{"name":"Earlsdon Avenue South","highway":"secondary","profile":"bus","distance":"20615.57","time":"1746.68"}},{"type":"Feature","name":"ShapeMeta","geometry":{"type":"LineString","coordinates":[[-1.526648,52.39673],[-1.526274,52.39656],[-1.526262,52.39655]]},"properties":{"name":"Earlsdon Avenue South","highway":"secondary","profile":"bus","distance":"20648.69","time":"1748.384"}},{"type":"Feature","name":"ShapeMeta","geometry":{"type":"LineString","coordinates":[[-1.526262,52.39655],[-1.525989,52.3964]]},"properties":{"name":"Earlsdon Avenue South","highway":"secondary","profile":"bus","distance":"20673.57","time":"1749.664"}},{"type":"Feature","name":"ShapeMeta","geometry":{"type":"LineString","coordinates":[[-1.525989,52.3964],[-1.525041,52.39699]]},"properties":{"name":"Belvedere Road","highway":"residential","profile":"bus","distance":"20765.17","time":"1756.259"}},{"type":"Feature","name":"ShapeMeta","geometry":{"type":"LineString","coordinates":[[-1.525041,52.39699],[-1.524342,52.39743]]},"properties":{"name":"Belvedere Road","highway":"residential","profile":"bus","distance":"20833.08","time":"1761.148"}},{"type":"Feature","name":"ShapeMeta","geometry":{"type":"LineString","coordinates":[[-1.524342,52.39743],[-1.524162,52.39754]]},"properties":{"name":"Belvedere Road","highway":"residential","profile":"bus","distance":"20850.57","time":"1762.407"}},{"type":"Feature","name":"ShapeMeta","geometry":{"type":"LineString","coordinates":[[-1.524162,52.39754],[-1.523305,52.39808]]},"properties":{"name":"Belvedere Road","highway":"residential","profile":"bus","distance":"20933.87","time":"1768.405"}},{"type":"Feature","name":"ShapeMeta","geometry":{"type":"LineString","coordinates":[[-1.523305,52.39808],[-1.522893,52.39834],[-1.522655,52.39852],[-1.522585,52.39861]]},"properties":{"name":"Belvedere Road","highway":"residential","profile":"bus","distance":"21011.12","time":"1773.967"}},{"type":"Feature","name":"ShapeMeta","geometry":{"type":"LineString","coordinates":[[-1.522585,52.39861],[-1.522508,52.3987],[-1.522397,52.39886]]},"properties":{"name":"Belvedere Road","highway":"residential","profile":"bus","distance":"21041.47","time":"1776.152"}},{"type":"Feature","name":"ShapeMeta","geometry":{"type":"LineString","coordinates":[[-1.522397,52.39886],[-1.522189,52.39882],[-1.521961,52.39878],[-1.521764,52.39876],[-1.52162,52.39875],[-1.521501,52.39875],[-1.521412,52.39877],[-1.52134,52.39879]]},"properties":{"name":"Broadway","highway":"residential","profile":"bus","distance":"21115.47","time":"1781.48"}},{"type":"Feature","name":"ShapeMeta","geometry":{"type":"LineString","coordinates":[[-1.52134,52.39879],[-1.521285,52.39882],[-1.521007,52.39917],[-1.520938,52.39927]]},"properties":{"name":"Dalton Road","highway":"residential","profile":"bus","distance":"21175.37","time":"1785.793"}},{"type":"Feature","name":"ShapeMeta","geometry":{"type":"LineString","coordinates":[[-1.520938,52.39927],[-1.520719,52.39955],[-1.520661,52.39962],[-1.520625,52.39967]]},"properties":{"name":"Dalton Road","highway":"residential","profile":"bus","distance":"21225.07","time":"1789.371"}},{"type":"Feature","name":"ShapeMeta","geometry":{"type":"LineString","coordinates":[[-1.520625,52.39967],[-1.520141,52.39954]]},"properties":{"name":"Spencer Road","highway":"unclassified","profile":"bus","distance":"21260.86","time":"1791.948"}},{"type":"Feature","name":"ShapeMeta","geometry":{"type":"LineString","coordinates":[[-1.520141,52.39954],[-1.518485,52.3991]]},"properties":{"name":"Spencer Road","highway":"unclassified","profile":"bus","distance":"21383.37","time":"1800.769"}},{"type":"Feature","name":"ShapeMeta","geometry":{"type":"LineString","coordinates":[[-1.518485,52.3991],[-1.518209,52.39903]]},"properties":{"name":"Spencer Road","highway":"unclassified","profile":"bus","distance":"21403.6","time":"1802.226"}},{"type":"Feature","name":"ShapeMeta","geometry":{"type":"LineString","coordinates":[[-1.518209,52.39903],[-1.518195,52.39903],[-1.517491,52.39883],[-1.51663,52.39861],[-1.516572,52.3986]]},"properties":{"name":"Spencer Road","highway":"unclassified","profile":"bus","distance":"21524.67","time":"1810.943"}},{"type":"Feature","name":"ShapeMeta","geometry":{"type":"LineString","coordinates":[[-1.516572,52.3986],[-1.516473,52.39906]]},"properties":{"name":"Warwick Road","maxspeed":"30 mph","highway":"primary","profile":"bus","distance":"21576.77","time":"1816.123"}},{"type":"Feature","name":"ShapeMeta","geometry":{"type":"LineString","coordinates":[[-1.516473,52.39906],[-1.516381,52.39944],[-1.516266,52.39981]]},"properties":{"name":"Warwick Road","maxspeed":"30 mph","highway":"primary","profile":"bus","distance":"21660.67","time":"1824.464"}},{"type":"Feature","name":"ShapeMeta","geometry":{"type":"LineString","coordinates":[[-1.516266,52.39981],[-1.516214,52.40001],[-1.516161,52.40015]]},"properties":{"name":"Warwick Road","maxspeed":"30 mph","highway":"primary","profile":"bus","distance":"21699.87","time":"1828.361"}},{"type":"Feature","name":"ShapeMeta","geometry":{"type":"LineString","coordinates":[[-1.516161,52.40015],[-1.516123,52.40026]]},"properties":{"name":"Warwick Road","maxspeed":"30 mph","highway":"primary","profile":"bus","distance":"21711.97","time":"1829.564"}},{"type":"Feature","name":"ShapeMeta","geometry":{"type":"LineString","coordinates":[[-1.516123,52.40026],[-1.516072,52.40043]]},"properties":{"name":"Warwick Road","maxspeed":"30 mph","highway":"primary","profile":"bus","distance":"21731.27","time":"1831.483"}},{"type":"Feature","name":"ShapeMeta","geometry":{"type":"LineString","coordinates":[[-1.516072,52.40043],[-1.516033,52.40054]]},"properties":{"name":"Warwick Road","maxspeed":"30 mph","highway":"primary","profile":"bus","distance":"21742.99","time":"1832.648"}},{"type":"Feature","name":"ShapeMeta","geometry":{"type":"LineString","coordinates":[[-1.516033,52.40054],[-1.515987,52.40066]]},"properties":{"name":"Warwick Road","maxspeed":"30 mph","highway":"primary","profile":"bus","distance":"21756.87","time":"1834.028"}},{"type":"Feature","name":"ShapeMeta","geometry":{"type":"LineString","coordinates":[[-1.515987,52.40066],[-1.515966,52.40073],[-1.515913,52.40084]]},"properties":{"name":"Warwick Road","maxspeed":"30 mph","oneway":"yes","highway":"primary","profile":"bus","distance":"21777.77","time":"1836.106"}},{"type":"Feature","name":"ShapeMeta","geometry":{"type":"LineString","coordinates":[[-1.515913,52.40084],[-1.515869,52.40093]]},"properties":{"name":"Warwick Road","maxspeed":"30 mph","oneway":"yes","highway":"primary","profile":"bus","distance":"21788.37","time":"1837.16"}},{"type":"Feature","name":"ShapeMeta","geometry":{"type":"LineString","coordinates":[[-1.515869,52.40093],[-1.515751,52.40121]]},"properties":{"name":"Warwick Road","bridge":"yes","maxspeed":"30 mph","oneway":"yes","highway":"primary","profile":"bus","distance":"21820.67","time":"1840.371"}},{"type":"Feature","name":"ShapeMeta","geometry":{"type":"LineString","coordinates":[[-1.515751,52.40121],[-1.515696,52.40138],[-1.515706,52.40145],[-1.515753,52.40153],[-1.515848,52.40159]]},"properties":{"name":"Warwick Road","maxspeed":"30 mph","oneway":"yes","highway":"primary","profile":"bus","distance":"21865.77","time":"1844.855"}},{"type":"Feature","name":"ShapeMeta","geometry":{"type":"LineString","coordinates":[[-1.515848,52.40159],[-1.515879,52.4016],[-1.515906,52.40162]]},"properties":{"name":"Warwick Road","maxspeed":"30 mph","oneway":"yes","highway":"primary","junction":"roundabout","profile":"bus","distance":"21871.17","time":"1845.392"}},{"type":"Feature","name":"ShapeMeta","geometry":{"type":"LineString","coordinates":[[-1.515906,52.40162],[-1.515922,52.40164],[-1.515927,52.40171],[-1.515888,52.40176],[-1.515859,52.40177]]},"properties":{"name":"Warwick Road","maxspeed":"30 mph","oneway":"yes","highway":"primary","junction":"roundabout","profile":"bus","distance":"21889.67","time":"1847.231"}},{"type":"Feature","name":"ShapeMeta","geometry":{"type":"LineString","coordinates":[[-1.515859,52.40177],[-1.515807,52.40179],[-1.515763,52.40179]]},"properties":{"name":"Warwick Road","maxspeed":"30 mph","oneway":"yes","highway":"primary","junction":"roundabout","profile":"bus","distance":"21896.57","time":"1847.917"}},{"type":"Feature","name":"ShapeMeta","geometry":{"type":"LineString","coordinates":[[-1.515763,52.40179],[-1.515672,52.40184],[-1.515585,52.40189],[-1.515528,52.40194],[-1.515422,52.40209],[-1.515378,52.40223]]},"properties":{"name":"Warwick Road","maxspeed":"30 mph","oneway":"yes","highway":"primary","profile":"bus","distance":"21953.27","time":"1853.554"}},{"type":"Feature","name":"ShapeMeta","geometry":{"type":"LineString","coordinates":[[-1.515378,52.40223],[-1.515348,52.40231],[-1.515331,52.40236]]},"properties":{"name":"Warwick Road","maxspeed":"20 mph","oneway":"yes","highway":"primary","profile":"bus","distance":"21968.37","time":"1855.806"}},{"type":"Feature","name":"ShapeMeta","geometry":{"type":"LineString","coordinates":[[-1.515331,52.40236],[-1.515278,52.40239],[-1.515222,52.40242],[-1.515161,52.40244]]},"properties":{"maxspeed":"20 mph","oneway":"yes","highway":"tertiary","profile":"bus","distance":"21982.97","time":"1857.983"}},{"type":"Feature","name":"ShapeMeta","geometry":{"type":"LineString","coordinates":[[-1.515161,52.40244],[-1.514899,52.4025],[-1.514776,52.40252]]},"properties":{"maxspeed":"20 mph","highway":"tertiary","profile":"bus","distance":"22010.57","time":"1862.099"}},{"type":"Feature","name":"ShapeMeta","geometry":{"type":"LineString","coordinates":[[-1.514776,52.40252],[-1.514602,52.40256],[-1.514512,52.40257],[-1.51437,52.40253],[-1.514345,52.40249]]},"properties":{"maxspeed":"20 mph","highway":"tertiary","profile":"bus","distance":"22044.07","time":"1867.095"}},{"type":"Feature","name":"ShapeMeta","geometry":{"type":"LineString","coordinates":[[-1.514345,52.40249],[-1.514318,52.40242],[-1.514265,52.4023],[-1.514215,52.40219]]},"properties":{"name":"Eaton Road","maxspeed":"20 mph","highway":"tertiary","profile":"bus","distance":"22078.27","time":"1872.195"}},{"type":"Feature","name":"ShapeMeta","geometry":{"type":"LineString","coordinates":[[-1.514215,52.40219],[-1.514111,52.40205]]},"properties":{"name":"Eaton Road","maxspeed":"20 mph","highway":"tertiary","profile":"bus","distance":"22096.17","time":"1874.865"}},{"type":"Feature","name":"ShapeMeta","geometry":{"type":"LineString","coordinates":[[-1.514111,52.40205],[-1.514056,52.40197],[-1.513965,52.40181],[-1.513956,52.40178]]},"properties":{"name":"Eaton Road","maxspeed":"20 mph","highway":"tertiary","profile":"bus","distance":"22127.67","time":"1879.562"}},{"type":"Feature","name":"ShapeMeta","geometry":{"type":"LineString","coordinates":[[-1.513956,52.40178],[-1.513945,52.40174],[-1.513946,52.40164],[-1.513964,52.40157]]},"properties":{"name":"Station Square","maxspeed":"20 mph","highway":"unclassified","profile":"bus","distance":"22151.57","time":"1883.126"}},{"type":"Feature","name":"ShapeMeta","geometry":{"type":"LineString","coordinates":[[-1.513964,52.40157],[-1.514087,52.40158],[-1.514138,52.40162],[-1.514115,52.40174]]},"properties":{"highway":"service","oneway":"yes","profile":"bus","distance":"22180.02","time":"1886.54"}},{"type":"Feature","name":"ShapeMeta","geometry":{"type":"LineString","coordinates":[[-1.514115,52.40174],[-1.514085,52.40191],[-1.51409,52.40196],[-1.514111,52.40205]]},"properties":{"highway":"service","oneway":"yes","profile":"bus","distance":"22213.87","time":"1890.602"}},{"type":"Feature","name":"ShapeMeta","geometry":{"type":"LineString","coordinates":[[-1.514111,52.40205],[-1.514215,52.40219]]},"properties":{"name":"Eaton Road","maxspeed":"20 mph","highway":"tertiary","profile":"bus","distance":"22231.77","time":"1893.272"}},{"type":"Feature","name":"ShapeMeta","geometry":{"type":"LineString","coordinates":[[-1.514215,52.40219],[-1.514265,52.4023],[-1.514318,52.40242],[-1.514345,52.40249]]},"properties":{"name":"Eaton Road","maxspeed":"20 mph","highway":"tertiary","profile":"bus","distance":"22265.97","time":"1898.372"}},{"type":"Feature","name":"ShapeMeta","geometry":{"type":"LineString","coordinates":[[-1.514345,52.40249],[-1.514375,52.40259],[-1.514313,52.40279],[-1.514278,52.40285],[-1.514257,52.40288]]},"properties":{"maxspeed":"20 mph","highway":"tertiary_link","profile":"bus","distance":"22310.17","time":"1904.963"}},{"type":"Feature","name":"ShapeMeta","geometry":{"type":"LineString","coordinates":[[-1.514257,52.40288],[-1.514403,52.40291],[-1.51472,52.403]]},"properties":{"maxspeed":"20 mph","oneway":"yes","highway":"trunk_link","profile":"bus","distance":"22344.17","time":"1910.034"}},{"type":"Feature","name":"ShapeMeta","geometry":{"type":"LineString","coordinates":[[-1.51472,52.403],[-1.514761,52.40302],[-1.514845,52.40305]]},"properties":{"maxspeed":"20 mph","oneway":"yes","highway":"primary","profile":"bus","distance":"22354.77","time":"1911.615"}},{"type":"Feature","name":"ShapeMeta","geometry":{"type":"LineString","coordinates":[[-1.514845,52.40305],[-1.514813,52.40308]]},"properties":{"name":"Warwick Road","maxspeed":"20 mph","oneway":"yes","highway":"primary","profile":"bus","distance":"22358.37","time":"1912.151"}},{"type":"Feature","name":"ShapeMeta","geometry":{"type":"LineString","coordinates":[[-1.514813,52.40308],[-1.514631,52.40323]]},"properties":{"name":"Warwick Road","maxspeed":"20 mph","oneway":"yes","highway":"primary","profile":"bus","distance":"22379.27","time":"1915.268"}},{"type":"Feature","name":"ShapeMeta","geometry":{"type":"LineString","coordinates":[[-1.514631,52.40323],[-1.514616,52.40324],[-1.514546,52.40327],[-1.514531,52.40327]]},"properties":{"name":"Warwick Road","maxspeed":"20 mph","oneway":"yes","highway":"primary","profile":"bus","distance":"22387.37","time":"1916.476"}},{"type":"Feature","name":"ShapeMeta","geometry":{"type":"LineString","coordinates":[[-1.514531,52.40327],[-1.514322,52.40346],[-1.514083,52.40363],[-1.514031,52.4037],[-1.513913,52.40393],[-1.513838,52.40425],[-1.513832,52.40432]]},"properties":{"name":"Warwick Road","maxspeed":"20 mph","highway":"secondary","profile":"bus","distance":"22516.37","time":"1935.714"}},{"type":"Feature","name":"ShapeMeta","geometry":{"type":"LineString","coordinates":[[-1.513832,52.40432],[-1.513812,52.40443],[-1.513756,52.4045]]},"properties":{"name":"Warwick Road","maxspeed":"20 mph","oneway":"yes","highway":"secondary","profile":"bus","distance":"22537.27","time":"1938.831"}},{"type":"Feature","name":"ShapeMeta","geometry":{"type":"LineString","coordinates":[[-1.513756,52.4045],[-1.513763,52.4045],[-1.513765,52.40451]]},"properties":{"name":"Warwick Road","maxspeed":"20 mph","highway":"secondary","junction":"roundabout","profile":"bus","distance":"22539.07","time":"1939.099"}},{"type":"Feature","name":"ShapeMeta","geometry":{"type":"LineString","coordinates":[[-1.513765,52.40451],[-1.513764,52.40452],[-1.513754,52.40453],[-1.513744,52.40454]]},"properties":{"name":"Warwick Road","maxspeed":"20 mph","highway":"secondary","junction":"roundabout","profile":"bus","distance":"22542.87","time":"1939.666"}},{"type":"Feature","name":"ShapeMeta","geometry":{"type":"LineString","coordinates":[[-1.513744,52.40454],[-1.513733,52.40454],[-1.513719,52.40455]]},"properties":{"name":"Warwick Road","maxspeed":"20 mph","highway":"secondary","junction":"roundabout","profile":"bus","distance":"22544.77","time":"1939.949"}},{"type":"Feature","name":"ShapeMeta","geometry":{"type":"LineString","coordinates":[[-1.513719,52.40455],[-1.513674,52.40459],[-1.513569,52.4047],[-1.513319,52.40506]]},"properties":{"name":"Warwick Road","maxspeed":"20 mph","oneway":"yes","highway":"secondary","profile":"bus","distance":"22607.47","time":"1949.3"}},{"type":"Feature","name":"ShapeMeta","geometry":{"type":"LineString","coordinates":[[-1.513319,52.40506],[-1.513203,52.40518],[-1.513111,52.40526],[-1.513024,52.40531]]},"properties":{"name":"Warwick Road","maxspeed":"20 mph","oneway":"yes","highway":"secondary","profile":"bus","distance":"22642.07","time":"1954.459"}},{"type":"Feature","name":"ShapeMeta","geometry":{"type":"LineString","coordinates":[[-1.513024,52.40531],[-1.51297,52.40536],[-1.512884,52.40543],[-1.512782,52.40549],[-1.512692,52.40553],[-1.51251,52.40557],[-1.51246,52.40559]]},"properties":{"name":"Warwick Road","maxspeed":"20 mph","highway":"secondary","profile":"bus","distance":"22692.97","time":"1962.05"}},{"type":"Feature","name":"ShapeMeta","geometry":{"type":"LineString","coordinates":[[-1.51246,52.40559],[-1.512382,52.40559],[-1.512291,52.4056],[-1.512153,52.40559],[-1.512038,52.40558]]},"properties":{"name":"New Union Street","maxspeed":"20 mph","highway":"secondary","profile":"bus","distance":"22721.77","time":"1966.345"}},{"type":"Feature","name":"ShapeMeta","geometry":{"type":"LineString","coordinates":[[-1.512038,52.40558],[-1.511954,52.40557],[-1.511856,52.40555],[-1.511681,52.40549]]},"properties":{"name":"New Union Street","maxspeed":"20 mph","highway":"secondary","profile":"bus","distance":"22748.43","time":"1970.321"}},{"type":"Feature","name":"ShapeMeta","geometry":{"type":"LineString","coordinates":[[-1.511681,52.40549],[-1.511292,52.40535],[-1.511162,52.40531]]},"properties":{"name":"New Union Street","maxspeed":"20 mph","highway":"secondary","profile":"bus","distance":"22788.67","time":"1976.322"}},{"type":"Feature","name":"ShapeMeta","geometry":{"type":"LineString","coordinates":[[-1.511162,52.40531],[-1.51096,52.40527],[-1.510846,52.40524],[-1.51068,52.4052]]},"properties":{"name":"New Union Street","maxspeed":"20 mph","oneway":"yes","highway":"secondary","profile":"bus","distance":"22823.77","time":"1981.557"}},{"type":"Feature","name":"ShapeMeta","geometry":{"type":"LineString","coordinates":[[-1.51068,52.4052],[-1.509967,52.40498],[-1.509641,52.40489],[-1.509015,52.40465],[-1.508883,52.40462]]},"properties":{"name":"New Union Street","maxspeed":"20 mph","oneway":"yes","highway":"secondary","profile":"bus","distance":"22961.77","time":"2002.137"}},{"type":"Feature","name":"ShapeMeta","geometry":{"type":"LineString","coordinates":[[-1.508883,52.40462],[-1.508859,52.40462]]},"properties":{"maxspeed":"20 mph","highway":"secondary","junction":"roundabout","profile":"bus","distance":"22963.37","time":"2002.375"}},{"type":"Feature","name":"ShapeMeta","geometry":{"type":"LineString","coordinates":[[-1.508859,52.40462],[-1.508806,52.40468],[-1.508693,52.40477],[-1.508672,52.40479]]},"properties":{"name":"Little Park Street","maxspeed":"20 mph","oneway":"yes","highway":"secondary","profile":"bus","distance":"22985.97","time":"2005.746"}},{"type":"Feature","name":"ShapeMeta","geometry":{"type":"LineString","coordinates":[[-1.508672,52.40479],[-1.508608,52.40484],[-1.508566,52.40488]]},"properties":{"name":"Little Park Street","maxspeed":"20 mph","oneway":"yes","highway":"secondary","profile":"bus","distance":"22998.47","time":"2007.61"}},{"type":"Feature","name":"ShapeMeta","geometry":{"type":"LineString","coordinates":[[-1.508566,52.40488],[-1.508559,52.40491],[-1.508554,52.40503],[-1.508557,52.40514]]},"properties":{"name":"Little Park Street","maxspeed":"20 mph","highway":"secondary","profile":"bus","distance":"23027.27","time":"2011.905"}},{"type":"Feature","name":"ShapeMeta","geometry":{"type":"LineString","coordinates":[[-1.508557,52.40514],[-1.508556,52.4053],[-1.508554,52.40538]]},"properties":{"name":"Little Park Street","maxspeed":"20 mph","highway":"secondary","profile":"bus","distance":"23054.37","time":"2015.946"}},{"type":"Feature","name":"ShapeMeta","geometry":{"type":"LineString","coordinates":[[-1.508554,52.40538],[-1.508533,52.40594]]},"properties":{"name":"Little Park Street","maxspeed":"20 mph","oneway":"yes","highway":"secondary","profile":"bus","distance":"23116.67","time":"2025.237"}},{"type":"Feature","name":"ShapeMeta","geometry":{"type":"LineString","coordinates":[[-1.508533,52.40594],[-1.508531,52.40599],[-1.508487,52.40659]]},"properties":{"name":"Little Park Street","maxspeed":"20 mph","oneway":"yes","highway":"secondary","profile":"bus","distance":"23188.03","time":"2035.879"}},{"type":"Feature","name":"ShapeMeta","geometry":{"type":"LineString","coordinates":[[-1.508487,52.40659],[-1.508481,52.40666],[-1.508432,52.40677],[-1.508401,52.40681],[-1.508267,52.4069],[-1.508183,52.40694]]},"properties":{"name":"Little Park Street","maxspeed":"20 mph","oneway":"yes","highway":"secondary","profile":"bus","distance":"23234.37","time":"2042.789"}},{"type":"Feature","name":"ShapeMeta","geometry":{"type":"LineString","coordinates":[[-1.508183,52.40694],[-1.508132,52.40695],[-1.507958,52.40697],[-1.507766,52.40697],[-1.507361,52.40692]]},"properties":{"name":"Earl Street","maxspeed":"20 mph","oneway":"yes","highway":"secondary","profile":"bus","distance":"23291.27","time":"2051.275"}},{"type":"Feature","name":"ShapeMeta","geometry":{"type":"LineString","coordinates":[[-1.507361,52.40692],[-1.507185,52.40689],[-1.506787,52.40687],[-1.50675,52.40687]]},"properties":{"name":"Earl Street","maxspeed":"20 mph","oneway":"yes","highway":"secondary","profile":"bus","distance":"23333.12","time":"2057.517"}},{"type":"Feature","name":"ShapeMeta","geometry":{"type":"LineString","coordinates":[[-1.50675,52.40687],[-1.506611,52.40686]]},"properties":{"name":"Earl Street","maxspeed":"20 mph","oneway":"yes","highway":"secondary","profile":"bus","distance":"23342.56","time":"2058.925"}},{"type":"Feature","name":"ShapeMeta","geometry":{"type":"LineString","coordinates":[[-1.506611,52.40686],[-1.50644,52.40686]]},"properties":{"name":"Earl Street","maxspeed":"20 mph","oneway":"yes","highway":"secondary","profile":"bus","distance":"23354.16","time":"2060.655"}},{"type":"Feature","name":"ShapeMeta","geometry":{"type":"LineString","coordinates":[[-1.50644,52.40686],[-1.506315,52.40685],[-1.506165,52.40684]]},"properties":{"name":"Jordan Well","maxspeed":"20 mph","oneway":"yes","highway":"secondary","profile":"bus","distance":"23372.86","time":"2063.444"}},{"type":"Feature","name":"ShapeMeta","geometry":{"type":"LineString","coordinates":[[-1.506165,52.40684],[-1.506111,52.40684],[-1.505694,52.40683],[-1.504435,52.40678],[-1.504223,52.40678],[-1.504148,52.40679]]},"properties":{"name":"Jordan Well","maxspeed":"20 mph","highway":"secondary","profile":"bus","distance":"23510.16","time":"2083.919"}},{"type":"Feature","name":"ShapeMeta","geometry":{"type":"LineString","coordinates":[[-1.504148,52.40679],[-1.504114,52.40685],[-1.503847,52.40764],[-1.50372,52.40798]]},"properties":{"name":"Cox Street","maxspeed":"20 mph","highway":"secondary","profile":"bus","distance":"23645.29","time":"2104.071"}},{"type":"Feature","name":"ShapeMeta","geometry":{"type":"LineString","coordinates":[[-1.50372,52.40798],[-1.503677,52.40809]]},"properties":{"name":"Cox Street","maxspeed":"20 mph","highway":"secondary","profile":"bus","distance":"23658.37","time":"2106.021"}},{"type":"Feature","name":"ShapeMeta","geometry":{"type":"LineString","coordinates":[[-1.503677,52.40809],[-1.503596,52.40836],[-1.503581,52.40843],[-1.503568,52.4085]]},"properties":{"name":"Cox Street","maxspeed":"20 mph","highway":"secondary","profile":"bus","distance":"23703.87","time":"2112.806"}},{"type":"Feature","name":"ShapeMeta","geometry":{"type":"LineString","coordinates":[[-1.503568,52.4085],[-1.503559,52.40852]]},"properties":{"name":"Cox Street","maxspeed":"20 mph","highway":"secondary","profile":"bus","distance":"23706.87","time":"2113.254"}},{"type":"Feature","name":"ShapeMeta","geometry":{"type":"LineString","coordinates":[[-1.503559,52.40852],[-1.503482,52.40876],[-1.503406,52.40898]]},"properties":{"name":"Cox Street","tunnel":"building_passage","maxspeed":"20 mph","highway":"secondary","profile":"bus","distance":"23758.37","time":"2120.934"}},{"type":"Feature","name":"ShapeMeta","geometry":{"type":"LineString","coordinates":[[-1.503406,52.40898],[-1.503387,52.40905],[-1.503383,52.40914],[-1.503412,52.40922],[-1.503432,52.40925],[-1.503543,52.40932],[-1.503624,52.40935]]},"properties":{"name":"Cox Street","maxspeed":"20 mph","highway":"secondary","profile":"bus","distance":"23806.46","time":"2128.107"}},{"type":"Feature","name":"ShapeMeta","geometry":{"type":"LineString","coordinates":[[-1.503624,52.40935],[-1.503827,52.40934],[-1.504711,52.40945],[-1.505101,52.40951]]},"properties":{"name":"Fairfax Street","maxspeed":"20 mph","oneway":"yes","highway":"tertiary","profile":"bus","distance":"23908.66","time":"2143.348"}},{"type":"Feature","name":"ShapeMeta","geometry":{"type":"LineString","coordinates":[[-1.505101,52.40951],[-1.505119,52.40951]]},"properties":{"name":"Fairfax Street","maxspeed":"20 mph","oneway":"yes","highway":"tertiary","profile":"bus","distance":"23909.89","time":"2143.531"}},{"type":"Feature","name":"ShapeMeta","geometry":{"type":"LineString","coordinates":[[-1.505119,52.40951],[-1.505629,52.40958]]},"properties":{"name":"Fairfax Street","maxspeed":"20 mph","oneway":"yes","highway":"tertiary","profile":"bus","distance":"23945.16","time":"2148.791"}},{"type":"Feature","name":"ShapeMeta","geometry":{"type":"LineString","coordinates":[[-1.505629,52.40958],[-1.50612,52.40964]]},"properties":{"name":"Fairfax Street","maxspeed":"20 mph","oneway":"yes","highway":"tertiary","profile":"bus","distance":"23979.16","time":"2153.862"}},{"type":"Feature","name":"ShapeMeta","geometry":{"type":"LineString","coordinates":[[-1.50612,52.40964],[-1.50611,52.4097]]},"properties":{"maxspeed":"20 mph","highway":"unclassified","profile":"bus","distance":"23985.46","time":"2154.801"}},{"type":"Feature","name":"ShapeMeta","geometry":{"type":"LineString","coordinates":[[-1.50611,52.4097],[-1.506083,52.40978]]},"properties":{"maxspeed":"20 mph","highway":"unclassified","profile":"bus","distance":"23994.96","time":"2156.218"}},{"type":"Feature","name":"ShapeMeta","geometry":{"type":"LineString","coordinates":[[-1.506083,52.40978],[-1.50618,52.4099]]},"properties":{"highway":"service","oneway":"yes","profile":"bus","distance":"24009.66","time":"2157.982"}},{"type":"Feature","name":"ShapeMeta","geometry":{"type":"LineString","coordinates":[[-1.50618,52.4099],[-1.506199,52.40994]]},"properties":{"highway":"service","oneway":"yes","profile":"bus","distance":"24014.06","time":"2158.51"}},{"type":"Feature","name":"ShapeMeta","geometry":{"type":"LineString","coordinates":[[-1.506199,52.40994],[-1.506213,52.41004],[-1.506038,52.41054]]},"properties":{"highway":"service","oneway":"yes","profile":"bus","distance":"24082.36","time":"2166.706"}},{"type":"Feature","name":"ShapeMeta","geometry":{"type":"LineString","coordinates":[[-1.506038,52.41054],[-1.506017,52.41061]]},"properties":{"highway":"service","oneway":"yes","profile":"bus","distance":"24090.46","time":"2167.678"}},{"type":"Feature","name":"ShapeMeta","geometry":{"type":"LineString","coordinates":[[-1.506017,52.41061],[-1.506296,52.41065]]},"properties":{"highway":"service","maxspeed":"10 mph","profile":"bus","distance":"24109.66","time":"2173.405"}},{"type":"Feature","name":"ShapeMeta","geometry":{"type":"LineString","coordinates":[[-1.506296,52.41065],[-1.506415,52.41066]]},"properties":{"highway":"service","maxspeed":"10 mph","profile":"bus","distance":"24117.86","time":"2175.85"}},{"type":"Feature","name":"ShapeMeta","geometry":{"type":"LineString","coordinates":[[-1.506415,52.41066],[-1.506615,52.41069]]},"properties":{"highway":"service","maxspeed":"10 mph","profile":"bus","distance":"24131.66","time":"2179.966"}},{"type":"Feature","name":"ShapeMeta","geometry":{"type":"LineString","coordinates":[[-1.506615,52.41069],[-1.507108,52.41076]]},"properties":{"highway":"service","maxspeed":"10 mph","profile":"bus","distance":"24165.86","time":"2190.167"}},{"type":"Feature","name":"ShapeMeta","geometry":{"type":"LineString","coordinates":[[-1.507108,52.41076],[-1.507298,52.41022],[-1.507329,52.41019],[-1.507389,52.41017],[-1.507454,52.41016],[-1.507536,52.41018],[-1.507568,52.4102],[-1.507597,52.41023],[-1.507597,52.41026],[-1.507559,52.41041],[-1.507418,52.41063]]},"properties":{"highway":"service","oneway":"yes","maxspeed":"10 mph","profile":"bus","distance":"24298.73","time":"2229.795"}},{"type":"Feature","name":"Stop","Shape":"0","geometry":{"type":"Point","coordinates":[-1.53298,52.28397]},"properties":{"index":"0","distance":"0","time":"0"}},{"type":"Feature","name":"Stop","Shape":"13","geometry":{"type":"Point","coordinates":[-1.5347,52.2856]},"properties":{"index":"1","distance":"258.7382","time":"25.72365"}},{"type":"Feature","name":"Stop","Shape":"26","geometry":{"type":"Point","coordinates":[-1.53333,52.28624]},"properties":{"index":"2","distance":"421.6239","time":"44.54059"}},{"type":"Feature","name":"Stop","Shape":"43","geometry":{"type":"Point","coordinates":[-1.53514,52.28822]},"properties":{"index":"3","distance":"678.1703","time":"82.79922"}},{"type":"Feature","name":"Stop","Shape":"50","geometry":{"type":"Point","coordinates":[-1.53565,52.29005]},"properties":{"index":"4","distance":"880.6002","time":"112.9875"}},{"type":"Feature","name":"Stop","Shape":"56","geometry":{"type":"Point","coordinates":[-1.5361,52.2926]},"properties":{"index":"5","distance":"1165.442","time":"155.4658"}},{"type":"Feature","name":"Stop","Shape":"66","geometry":{"type":"Point","coordinates":[-1.5354,52.29438]},"properties":{"index":"6","distance":"1416.411","time":"186.0103"}},{"type":"Feature","name":"Stop","Shape":"73","geometry":{"type":"Point","coordinates":[-1.53567,52.29674]},"properties":{"index":"7","distance":"1679.51","time":"212.1675"}},{"type":"Feature","name":"Stop","Shape":"81","geometry":{"type":"Point","coordinates":[-1.53606,52.29881]},"properties":{"index":"8","distance":"1913.698","time":"235.4504"}},{"type":"Feature","name":"Stop","Shape":"86","geometry":{"type":"Point","coordinates":[-1.5367,52.30113]},"properties":{"index":"9","distance":"2174.442","time":"261.3735"}},{"type":"Feature","name":"Stop","Shape":"90","geometry":{"type":"Point","coordinates":[-1.53728,52.30312]},"properties":{"index":"10","distance":"2399.293","time":"283.7281"}},{"type":"Feature","name":"Stop","Shape":"96","geometry":{"type":"Point","coordinates":[-1.53875,52.30854]},"properties":{"index":"11","distance":"3010.766","time":"332.498"}},{"type":"Feature","name":"Stop","Shape":"99","geometry":{"type":"Point","coordinates":[-1.53952,52.31162]},"properties":{"index":"12","distance":"3354.995","time":"358.1653"}},{"type":"Feature","name":"Stop","Shape":"135","geometry":{"type":"Point","coordinates":[-1.54482,52.31964]},"properties":{"index":"13","distance":"4359.522","time":"433.0676"}},{"type":"Feature","name":"Stop","Shape":"162","geometry":{"type":"Point","coordinates":[-1.55493,52.32525]},"properties":{"index":"14","distance":"5298.739","time":"503.1"}},{"type":"Feature","name":"Stop","Shape":"181","geometry":{"type":"Point","coordinates":[-1.5604,52.32875]},"properties":{"index":"15","distance":"5844.925","time":"543.8262"}},{"type":"Feature","name":"Stop","Shape":"216","geometry":{"type":"Point","coordinates":[-1.56534,52.33236]},"properties":{"index":"16","distance":"6415.126","time":"586.3431"}},{"type":"Feature","name":"Stop","Shape":"230","geometry":{"type":"Point","coordinates":[-1.57097,52.33544]},"properties":{"index":"17","distance":"6933.046","time":"627.1088"}},{"type":"Feature","name":"Stop","Shape":"258","geometry":{"type":"Point","coordinates":[-1.57438,52.33794]},"properties":{"index":"18","distance":"7353.06","time":"668.8665"}},{"type":"Feature","name":"Stop","Shape":"273","geometry":{"type":"Point","coordinates":[-1.57767,52.3411]},"properties":{"index":"19","distance":"7768.836","time":"710.2029"}},{"type":"Feature","name":"Stop","Shape":"310","geometry":{"type":"Point","coordinates":[-1.58062,52.34411]},"properties":{"index":"20","distance":"8332.729","time":"764.3329"}},{"type":"Feature","name":"Stop","Shape":"325","geometry":{"type":"Point","coordinates":[-1.57855,52.34626]},"properties":{"index":"21","distance":"8701.557","time":"802.1835"}},{"type":"Feature","name":"Stop","Shape":"338","geometry":{"type":"Point","coordinates":[-1.58005,52.34882]},"properties":{"index":"22","distance":"9061.193","time":"820.8293"}},{"type":"Feature","name":"Stop","Shape":"348","geometry":{"type":"Point","coordinates":[-1.57898,52.35107]},"properties":{"index":"23","distance":"9386.48","time":"833.8408"}},{"type":"Feature","name":"Stop","Shape":"361","geometry":{"type":"Point","coordinates":[-1.57626,52.35355]},"properties":{"index":"24","distance":"9731.837","time":"847.6551"}},{"type":"Feature","name":"Stop","Shape":"377","geometry":{"type":"Point","coordinates":[-1.56725,52.35748]},"properties":{"index":"25","distance":"10492.76","time":"878.092"}},{"type":"Feature","name":"Stop","Shape":"379","geometry":{"type":"Point","coordinates":[-1.5658,52.35856]},"properties":{"index":"26","distance":"10647.27","time":"884.2722"}},{"type":"Feature","name":"Stop","Shape":"394","geometry":{"type":"Point","coordinates":[-1.56259,52.36114]},"properties":{"index":"27","distance":"11011.89","time":"898.8572"}},{"type":"Feature","name":"Stop","Shape":"410","geometry":{"type":"Point","coordinates":[-1.55267,52.368]},"properties":{"index":"28","distance":"12054.89","time":"960.314"}},{"type":"Feature","name":"Stop","Shape":"435","geometry":{"type":"Point","coordinates":[-1.55585,52.37464]},"properties":{"index":"29","distance":"13036.4","time":"1027.566"}},{"type":"Feature","name":"Stop","Shape":"485","geometry":{"type":"Point","coordinates":[-1.56294,52.37972]},"properties":{"index":"30","distance":"13935.19","time":"1117.759"}},{"type":"Feature","name":"Stop","Shape":"534","geometry":{"type":"Point","coordinates":[-1.56575,52.3832]},"properties":{"index":"31","distance":"14587.86","time":"1209.346"}},{"type":"Feature","name":"Stop","Shape":"543","geometry":{"type":"Point","coordinates":[-1.56747,52.38447]},"properties":{"index":"32","distance":"14773.96","time":"1227.848"}},{"type":"Feature","name":"Stop","Shape":"578","geometry":{"type":"Point","coordinates":[-1.56169,52.38786]},"properties":{"index":"33","distance":"15381.25","time":"1287.064"}},{"type":"Feature","name":"Stop","Shape":"593","geometry":{"type":"Point","coordinates":[-1.55675,52.38974]},"properties":{"index":"34","distance":"15780.09","time":"1326.716"}},{"type":"Feature","name":"Stop","Shape":"622","geometry":{"type":"Point","coordinates":[-1.55287,52.39174]},"properties":{"index":"35","distance":"16163.66","time":"1364.85"}},{"type":"Feature","name":"Stop","Shape":"651","geometry":{"type":"Point","coordinates":[-1.55837,52.39968]},"properties":{"index":"36","distance":"17196.72","time":"1447.676"}},{"type":"Feature","name":"Stop","Shape":"689","geometry":{"type":"Point","coordinates":[-1.55552,52.40276]},"properties":{"index":"37","distance":"17978.43","time":"1516.869"}},{"type":"Feature","name":"Stop","Shape":"705","geometry":{"type":"Point","coordinates":[-1.5512,52.40275]},"properties":{"index":"38","distance":"18280.91","time":"1546.942"}},{"type":"Feature","name":"Stop","Shape":"726","geometry":{"type":"Point","coordinates":[-1.54778,52.40377]},"properties":{"index":"39","distance":"18561.38","time":"1574.827"}},{"type":"Feature","name":"Stop","Shape":"753","geometry":{"type":"Point","coordinates":[-1.54261,52.40354]},"properties":{"index":"40","distance":"18961.08","time":"1614.565"}},{"type":"Feature","name":"Stop","Shape":"770","geometry":{"type":"Point","coordinates":[-1.53491,52.40451]},"properties":{"index":"41","distance":"19535.67","time":"1671.691"}},{"type":"Feature","name":"Stop","Shape":"785","geometry":{"type":"Point","coordinates":[-1.53211,52.40233]},"properties":{"index":"42","distance":"19861.38","time":"1704.073"}},{"type":"Feature","name":"Stop","Shape":"802","geometry":{"type":"Point","coordinates":[-1.53052,52.40025]},"properties":{"index":"43","distance":"20127.47","time":"1721.578"}},{"type":"Feature","name":"Stop","Shape":"832","geometry":{"type":"Point","coordinates":[-1.52623,52.3966]},"properties":{"index":"44","distance":"20648.69","time":"1748.384"}},{"type":"Feature","name":"Stop","Shape":"835","geometry":{"type":"Point","coordinates":[-1.52437,52.39748]},"properties":{"index":"45","distance":"20833.08","time":"1761.148"}},{"type":"Feature","name":"Stop","Shape":"840","geometry":{"type":"Point","coordinates":[-1.52262,52.39864]},"properties":{"index":"46","distance":"21011.12","time":"1773.967"}},{"type":"Feature","name":"Stop","Shape":"856","geometry":{"type":"Point","coordinates":[-1.52013,52.39958]},"properties":{"index":"47","distance":"21260.86","time":"1791.948"}},{"type":"Feature","name":"Stop","Shape":"858","geometry":{"type":"Point","coordinates":[-1.5182,52.39906]},"properties":{"index":"48","distance":"21403.6","time":"1802.226"}},{"type":"Feature","name":"Stop","Shape":"870","geometry":{"type":"Point","coordinates":[-1.51612,52.40057]},"properties":{"index":"49","distance":"21742.99","time":"1832.648"}},{"type":"Feature","name":"Stop","Shape":"916","geometry":{"type":"Point","coordinates":[-1.51427,52.40178]},"properties":{"index":"50","distance":"22180.02","time":"1886.54"}},{"type":"Feature","name":"Stop","Shape":"970","geometry":{"type":"Point","coordinates":[-1.51164,52.4056]},"properties":{"index":"51","distance":"22748.43","time":"1970.321"}},{"type":"Feature","name":"Stop","Shape":"993","geometry":{"type":"Point","coordinates":[-1.50859,52.40659]},"properties":{"index":"52","distance":"23188.03","time":"2035.879"}},{"type":"Feature","name":"Stop","Shape":"1005","geometry":{"type":"Point","coordinates":[-1.50675,52.40692]},"properties":{"index":"53","distance":"23333.12","time":"2057.517"}},{"type":"Feature","name":"Stop","Shape":"1017","geometry":{"type":"Point","coordinates":[-1.50378,52.408]},"properties":{"index":"54","distance":"23645.29","time":"2104.071"}},{"type":"Feature","name":"Stop","Shape":"1034","geometry":{"type":"Point","coordinates":[-1.50513,52.40943]},"properties":{"index":"55","distance":"23909.89","time":"2143.531"}},{"type":"Feature","name":"Stop","Shape":"1057","geometry":{"type":"Point","coordinates":[-1.5075,52.41067]},"properties":{"index":"56","distance":"24298.73","time":"2229.795"}}]}