{"type":"FeatureCollection","features":[{"type":"Feature","name":"ShapeMeta","geometry":{"type":"LineString","coordinates":[[-1.507418,52.41063],[-1.507351,52.41073]]},"properties":{"highway":"service","oneway":"yes","maxspeed":"10 mph","profile":"bus","distance":"12.43591","time":"3.709123"}},{"type":"Feature","name":"ShapeMeta","geometry":{"type":"LineString","coordinates":[[-1.507351,52.41073],[-1.507351,52.41076],[-1.507376,52.41081],[-1.507402,52.41083]]},"properties":{"highway":"service","oneway":"yes","profile":"bus","distance":"23.93591","time":"5.089123"}},{"type":"Feature","name":"ShapeMeta","geometry":{"type":"LineString","coordinates":[[-1.507402,52.41083],[-1.507444,52.41085],[-1.507605,52.41092]]},"properties":{"highway":"service","profile":"bus","distance":"40.73591","time":"7.105123"}},{"type":"Feature","name":"ShapeMeta","geometry":{"type":"LineString","coordinates":[[-1.507605,52.41092],[-1.507696,52.41084],[-1.508271,52.41037],[-1.508322,52.41029],[-1.508319,52.41024]]},"properties":{"name":"Hales Street","maxspeed":"20 mph","highway":"tertiary","profile":"bus","distance":"130.9359","time":"20.5566"}},{"type":"Feature","name":"ShapeMeta","geometry":{"type":"LineString","coordinates":[[-1.508319,52.41024],[-1.508301,52.41021],[-1.508215,52.41015],[-1.508105,52.4101],[-1.507701,52.40993]]},"properties":{"name":"Fairfax Street","maxspeed":"20 mph","highway":"tertiary","profile":"bus","distance":"186.3359","time":"28.81837"}},{"type":"Feature","name":"ShapeMeta","geometry":{"type":"LineString","coordinates":[[-1.507701,52.40993],[-1.507511,52.40989],[-1.507263,52.40984]]},"properties":{"name":"Fairfax Street","maxspeed":"20 mph","oneway":"yes","highway":"tertiary","profile":"bus","distance":"217.6359","time":"33.48612"}},{"type":"Feature","name":"ShapeMeta","geometry":{"type":"LineString","coordinates":[[-1.507263,52.40984],[-1.507003,52.40981]]},"properties":{"name":"Fairfax Street","tunnel":"building_passage","maxspeed":"20 mph","oneway":"yes","highway":"tertiary","profile":"bus","distance":"235.5359","time":"36.15554"}},{"type":"Feature","name":"ShapeMeta","geometry":{"type":"LineString","coordinates":[[-1.507003,52.40981],[-1.506383,52.40973],[-1.50611,52.4097]]},"properties":{"name":"Fairfax Street","maxspeed":"20 mph","oneway":"yes","highway":"tertiary","profile":"bus","distance":"297.4359","time":"45.38665"}},{"type":"Feature","name":"ShapeMeta","geometry":{"type":"LineString","coordinates":[[-1.50611,52.4097],[-1.505856,52.40967],[-1.505083,52.40957]]},"properties":{"name":"Fairfax Street","maxspeed":"20 mph","oneway":"yes","highway":"tertiary","profile":"bus","distance":"368.4359","time":"55.97484"}},{"type":"Feature","name":"ShapeMeta","geometry":{"type":"LineString","coordinates":[[-1.505083,52.40957],[-1.504688,52.40951],[-1.5038,52.4094],[-1.503624,52.40935]]},"properties":{"name":"Fairfax Street","maxspeed":"20 mph","oneway":"yes","highway":"tertiary","profile":"bus","distance":"470.8359","time":"71.2457"}},{"type":"Feature","name":"ShapeMeta","geometry":{"type":"LineString","coordinates":[[-1.503624,52.40935],[-1.503543,52.40932],[-1.503432,52.40925],[-1.503412,52.40922],[-1.503383,52.40914],[-1.503387,52.40905],[-1.503406,52.40898]]},"properties":{"name":"Cox Street","maxspeed":"20 mph","highway":"secondary","profile":"bus","distance":"518.9359","time":"78.41882"}},{"type":"Feature","name":"ShapeMeta","geometry":{"type":"LineString","coordinates":[[-1.503406,52.40898],[-1.503482,52.40876],[-1.503559,52.40852]]},"properties":{"name":"Cox Street","tunnel":"building_passage","maxspeed":"20 mph","highway":"secondary","profile":"bus","distance":"570.4359","time":"86.09899"}},{"type":"Feature","name":"ShapeMeta","geometry":{"type":"LineString","coordinates":[[-1.503559,52.40852],[-1.503568,52.4085]]},"properties":{"name":"Cox Street","maxspeed":"20 mph","highway":"secondary","profile":"bus","distance":"573.4359","time":"86.54638"}},{"type":"Feature","name":"ShapeMeta","geometry":{"type":"LineString","coordinates":[[-1.503568,52.4085],[-1.503581,52.40843],[-1.503596,52.40836],[-1.503677,52.40809]]},"properties":{"name":"Cox Street","maxspeed":"20 mph","highway":"secondary","profile":"bus","distance":"618.9359","time":"93.33177"}},{"type":"Feature","name":"ShapeMeta","geometry":{"type":"LineString","coordinates":[[-1.503677,52.40809],[-1.503847,52.40764],[-1.503974,52.40726]]},"properties":{"name":"Cox Street","maxspeed":"20 mph","highway":"secondary","profile":"bus","distance":"713.5953","time":"107.4483"}},{"type":"Feature","name":"ShapeMeta","geometry":{"type":"LineString","coordinates":[[-1.503974,52.40726],[-1.504114,52.40685],[-1.504148,52.40679]]},"properties":{"name":"Cox Street","maxspeed":"20 mph","highway":"secondary","profile":"bus","distance":"767.1359","time":"115.4328"}},{"type":"Feature","name":"ShapeMeta","geometry":{"type":"LineString","coordinates":[[-1.504148,52.40679],[-1.504223,52.40678],[-1.504435,52.40678],[-1.505694,52.40683],[-1.506111,52.40684],[-1.506165,52.40684]]},"properties":{"name":"Jordan Well","maxspeed":"20 mph","highway":"secondary","profile":"bus","distance":"904.4359","time":"135.9083"}},{"type":"Feature","name":"ShapeMeta","geometry":{"type":"LineString","coordinates":[[-1.506165,52.40684],[-1.506096,52.40672],[-1.506027,52.40658]]},"properties":{"name":"Much Park Street","maxspeed":"20 mph","oneway":"yes","highway":"secondary","profile":"bus","distance":"935.0547","time":"140.4744"}},{"type":"Feature","name":"ShapeMeta","geometry":{"type":"LineString","coordinates":[[-1.506027,52.40658],[-1.506021,52.40657],[-1.505996,52.4065]]},"properties":{"name":"Much Park Street","maxspeed":"20 mph","oneway":"yes","highway":"secondary","profile":"bus","distance":"943.8359","time":"141.7839"}},{"type":"Feature","name":"ShapeMeta","geometry":{"type":"LineString","coordinates":[[-1.505996,52.4065],[-1.505954,52.4064],[-1.505552,52.40549],[-1.505555,52.40547]]},"properties":{"name":"Much Park Street","maxspeed":"20 mph","oneway":"yes","highway":"secondary","profile":"bus","distance":"1062.736","time":"159.5154"}},{"type":"Feature","name":"ShapeMeta","geometry":{"type":"LineString","coordinates":[[-1.505555,52.40547],[-1.505567,52.40545],[-1.505794,52.40533],[-1.505836,52.40532]]},"properties":{"name":"St Johns Street","maxspeed":"20 mph","oneway":"yes","highway":"secondary","profile":"bus","distance":"1088.136","time":"163.3033"}},{"type":"Feature","name":"ShapeMeta","geometry":{"type":"LineString","coordinates":[[-1.505836,52.40532],[-1.505884,52.40532],[-1.506347,52.40532]]},"properties":{"name":"St Johns Street","maxspeed":"20 mph","oneway":"yes","highway":"secondary","profile":"bus","distance":"1122.736","time":"168.4632"}},{"type":"Feature","name":"ShapeMeta","geometry":{"type":"LineString","coordinates":[[-1.506347,52.40532],[-1.506745,52.40533],[-1.506812,52.40534],[-1.506871,52.40535]]},"properties":{"name":"St Johns Street","maxspeed":"20 mph","oneway":"yes","highway":"secondary","profile":"bus","distance":"1158.536","time":"173.802"}},{"type":"Feature","name":"ShapeMeta","geometry":{"type":"LineString","coordinates":[[-1.506871,52.40535],[-1.506932,52.40535],[-1.507015,52.40536],[-1.507207,52.40536]]},"properties":{"name":"St Johns Street","maxspeed":"20 mph","oneway":"yes","highway":"secondary","profile":"bus","distance":"1181.436","time":"177.2171"}},{"type":"Feature","name":"ShapeMeta","geometry":{"type":"LineString","coordinates":[[-1.507207,52.40536],[-1.508219,52.40538]]},"properties":{"name":"St Johns Street","maxspeed":"20 mph","oneway":"yes","highway":"secondary","profile":"bus","distance":"1250.037","time":"187.4476"}},{"type":"Feature","name":"ShapeMeta","geometry":{"type":"LineString","coordinates":[[-1.508219,52.40538],[-1.508301,52.40538],[-1.508478,52.40538],[-1.508554,52.40538]]},"properties":{"name":"St Johns Street","maxspeed":"20 mph","oneway":"yes","highway":"secondary","profile":"bus","distance":"1272.736","time":"190.8326"}},{"type":"Feature","name":"ShapeMeta","geometry":{"type":"LineString","coordinates":[[-1.508554,52.40538],[-1.508556,52.4053],[-1.508557,52.40514]]},"properties":{"name":"Little Park Street","maxspeed":"20 mph","highway":"secondary","profile":"bus","distance":"1299.836","time":"194.874"}},{"type":"Feature","name":"ShapeMeta","geometry":{"type":"LineString","coordinates":[[-1.508557,52.40514],[-1.508554,52.40503],[-1.508559,52.40491],[-1.508566,52.40488]]},"properties":{"name":"Little Park Street","maxspeed":"20 mph","highway":"secondary","profile":"bus","distance":"1328.635","time":"199.169"}},{"type":"Feature","name":"ShapeMeta","geometry":{"type":"LineString","coordinates":[[-1.508566,52.40488],[-1.508566,52.40483],[-1.508574,52.40478],[-1.508578,52.40474]]},"properties":{"name":"Little Park Street","maxspeed":"20 mph","oneway":"yes","highway":"secondary","profile":"bus","distance":"1343.936","time":"201.4506"}},{"type":"Feature","name":"ShapeMeta","geometry":{"type":"LineString","coordinates":[[-1.508578,52.40474],[-1.508586,52.40472],[-1.508666,52.40463],[-1.508752,52.40458]]},"properties":{"name":"Little Park Street","maxspeed":"20 mph","oneway":"yes","highway":"secondary","profile":"bus","distance":"1366.336","time":"204.7911"}},{"type":"Feature","name":"ShapeMeta","geometry":{"type":"LineString","coordinates":[[-1.508752,52.40458],[-1.508747,52.40456],[-1.508747,52.40454]]},"properties":{"maxspeed":"20 mph","highway":"secondary","junction":"roundabout","profile":"bus","distance":"1369.736","time":"205.2982"}},{"type":"Feature","name":"ShapeMeta","geometry":{"type":"LineString","coordinates":[[-1.508747,52.40454],[-1.508753,52.40453],[-1.508795,52.4045],[-1.50889,52.40449],[-1.508915,52.4045]]},"properties":{"maxspeed":"20 mph","highway":"secondary","junction":"roundabout","profile":"bus","distance":"1384.736","time":"207.5351"}},{"type":"Feature","name":"ShapeMeta","geometry":{"type":"LineString","coordinates":[[-1.508915,52.4045],[-1.508938,52.4045],[-1.508954,52.40451],[-1.508966,52.40453]]},"properties":{"maxspeed":"20 mph","highway":"secondary","junction":"roundabout","profile":"bus","distance":"1390.036","time":"208.3255"}},{"type":"Feature","name":"ShapeMeta","geometry":{"type":"LineString","coordinates":[[-1.508966,52.40453],[-1.509028,52.40454],[-1.509657,52.4048],[-1.509708,52.40482]]},"properties":{"name":"New Union Street","maxspeed":"20 mph","oneway":"yes","highway":"secondary","profile":"bus","distance":"1449.936","time":"217.2584"}},{"type":"Feature","name":"ShapeMeta","geometry":{"type":"LineString","coordinates":[[-1.509708,52.40482],[-1.509809,52.40486],[-1.509869,52.40488]]},"properties":{"name":"New Union Street","maxspeed":"20 mph","oneway":"yes","highway":"secondary","profile":"bus","distance":"1462.559","time":"219.1409"}},{"type":"Feature","name":"ShapeMeta","geometry":{"type":"LineString","coordinates":[[-1.509869,52.40488],[-1.509985,52.40491]]},"properties":{"name":"New Union Street","maxspeed":"20 mph","oneway":"yes","highway":"secondary","profile":"bus","distance":"1471.335","time":"220.4497"}},{"type":"Feature","name":"ShapeMeta","geometry":{"type":"LineString","coordinates":[[-1.509985,52.40491],[-1.510696,52.40514]]},"properties":{"name":"New Union Street","maxspeed":"20 mph","oneway":"yes","highway":"secondary","profile":"bus","distance":"1525.735","time":"228.5624"}},{"type":"Feature","name":"ShapeMeta","geometry":{"type":"LineString","coordinates":[[-1.510696,52.40514],[-1.510887,52.40519],[-1.511162,52.40531]]},"properties":{"name":"New Union Street","maxspeed":"20 mph","oneway":"yes","highway":"secondary","profile":"bus","distance":"1562.735","time":"234.0802"}},{"type":"Feature","name":"ShapeMeta","geometry":{"type":"LineString","coordinates":[[-1.511162,52.40531],[-1.511292,52.40535],[-1.511704,52.40549]]},"properties":{"name":"New Union Street","maxspeed":"20 mph","highway":"secondary","profile":"bus","distance":"1604.767","time":"240.3483"}},{"type":"Feature","name":"ShapeMeta","geometry":{"type":"LineString","coordinates":[[-1.511704,52.40549],[-1.511856,52.40555],[-1.511954,52.40557],[-1.512038,52.40558]]},"properties":{"name":"New Union Street","maxspeed":"20 mph","highway":"secondary","profile":"bus","distance":"1629.635","time":"244.0569"}},{"type":"Feature","name":"ShapeMeta","geometry":{"type":"LineString","coordinates":[[-1.512038,52.40558],[-1.512153,52.40559],[-1.512291,52.4056],[-1.512382,52.40559],[-1.51246,52.40559]]},"properties":{"name":"New Union Street","maxspeed":"20 mph","highway":"secondary","profile":"bus","distance":"1658.435","time":"248.3518"}},{"type":"Feature","name":"ShapeMeta","geometry":{"type":"LineString","coordinates":[[-1.51246,52.40559],[-1.51251,52.40557],[-1.512692,52.40553],[-1.512782,52.40549],[-1.512884,52.40543],[-1.51297,52.40536],[-1.513024,52.40531]]},"properties":{"name":"Warwick Road","maxspeed":"20 mph","highway":"secondary","profile":"bus","distance":"1709.335","time":"255.9425"}},{"type":"Feature","name":"ShapeMeta","geometry":{"type":"LineString","coordinates":[[-1.513024,52.40531],[-1.513213,52.40505],[-1.513491,52.40468],[-1.513543,52.40463]]},"properties":{"name":"Warwick Road","maxspeed":"20 mph","oneway":"yes","highway":"secondary","profile":"bus","distance":"1792.635","time":"268.365"}},{"type":"Feature","name":"ShapeMeta","geometry":{"type":"LineString","coordinates":[[-1.513543,52.40463],[-1.513586,52.40459],[-1.513617,52.40457],[-1.513662,52.40453]]},"properties":{"name":"Warwick Road","maxspeed":"20 mph","oneway":"yes","highway":"secondary","profile":"bus","distance":"1805.935","time":"270.3484"}},{"type":"Feature","name":"ShapeMeta","geometry":{"type":"LineString","coordinates":[[-1.513662,52.40453],[-1.513656,52.40453],[-1.513658,52.4045],[-1.513692,52.40448],[-1.513705,52.40448]]},"properties":{"name":"Warwick Road","maxspeed":"20 mph","highway":"secondary","junction":"roundabout","profile":"bus","distance":"1813.935","time":"271.5414"}},{"type":"Feature","name":"ShapeMeta","geometry":{"type":"LineString","coordinates":[[-1.513705,52.40448],[-1.51375,52.40442],[-1.513832,52.40432]]},"properties":{"name":"Warwick Road","maxspeed":"20 mph","oneway":"yes","highway":"secondary","profile":"bus","distance":"1834.035","time":"274.5389"}},{"type":"Feature","name":"ShapeMeta","geometry":{"type":"LineString","coordinates":[[-1.513832,52.40432],[-1.513838,52.40425],[-1.513913,52.40393],[-1.514031,52.4037],[-1.514083,52.40363],[-1.514322,52.40346],[-1.514531,52.40327]]},"properties":{"name":"Warwick Road","maxspeed":"20 mph","highway":"secondary","profile":"bus","distance":"1963.035","time":"293.7767"}},{"type":"Feature","name":"ShapeMeta","geometry":{"type":"LineString","coordinates":[[-1.514531,52.40327],[-1.514534,52.40327],[-1.514511,52.4032],[-1.514512,52.40319]]},"properties":{"name":"Warwick Road","maxspeed":"20 mph","oneway":"yes","highway":"primary","profile":"bus","distance":"1972.535","time":"295.1934"}},{"type":"Feature","name":"ShapeMeta","geometry":{"type":"LineString","coordinates":[[-1.514512,52.40319],[-1.514526,52.40317],[-1.514554,52.40313],[-1.514681,52.40303]]},"properties":{"name":"Warwick Road","maxspeed":"20 mph","oneway":"yes","highway":"primary","profile":"bus","distance":"1993.735","time":"298.3549"}},{"type":"Feature","name":"ShapeMeta","geometry":{"type":"LineString","coordinates":[[-1.514681,52.40303],[-1.51472,52.403]]},"properties":{"name":"Warwick Road","maxspeed":"20 mph","oneway":"yes","highway":"primary","profile":"bus","distance":"1997.935","time":"298.9813"}},{"type":"Feature","name":"ShapeMeta","geometry":{"type":"LineString","coordinates":[[-1.51472,52.403],[-1.514769,52.40295],[-1.514939,52.40279],[-1.515063,52.40265]]},"properties":{"name":"Warwick Road","maxspeed":"20 mph","oneway":"yes","highway":"primary","profile":"bus","distance":"2043.435","time":"305.7667"}},{"type":"Feature","name":"ShapeMeta","geometry":{"type":"LineString","coordinates":[[-1.515063,52.40265],[-1.514985,52.40258],[-1.514888,52.40254],[-1.514776,52.40252]]},"properties":{"maxspeed":"20 mph","oneway":"yes","highway":"tertiary","profile":"bus","distance":"2068.035","time":"309.4352"}},{"type":"Feature","name":"ShapeMeta","geometry":{"type":"LineString","coordinates":[[-1.514776,52.40252],[-1.514602,52.40256],[-1.514512,52.40257],[-1.51437,52.40253],[-1.514345,52.40249]]},"properties":{"maxspeed":"20 mph","highway":"tertiary","profile":"bus","distance":"2101.535","time":"314.4311"}},{"type":"Feature","name":"ShapeMeta","geometry":{"type":"LineString","coordinates":[[-1.514345,52.40249],[-1.514318,52.40242],[-1.514265,52.4023],[-1.514215,52.40219]]},"properties":{"name":"Eaton Road","maxspeed":"20 mph","highway":"tertiary","profile":"bus","distance":"2135.735","time":"319.5313"}},{"type":"Feature","name":"ShapeMeta","geometry":{"type":"LineString","coordinates":[[-1.514215,52.40219],[-1.514111,52.40205]]},"properties":{"name":"Eaton Road","maxspeed":"20 mph","highway":"tertiary","profile":"bus","distance":"2153.635","time":"322.2007"}},{"type":"Feature","name":"ShapeMeta","geometry":{"type":"LineString","coordinates":[[-1.514111,52.40205],[-1.514056,52.40197],[-1.513965,52.40181],[-1.513956,52.40178]]},"properties":{"name":"Eaton Road","maxspeed":"20 mph","highway":"tertiary","profile":"bus","distance":"2185.135","time":"326.8983"}},{"type":"Feature","name":"ShapeMeta","geometry":{"type":"LineString","coordinates":[[-1.513956,52.40178],[-1.513945,52.40174],[-1.513946,52.40164],[-1.513964,52.40157]]},"properties":{"name":"Station Square","maxspeed":"20 mph","highway":"unclassified","profile":"bus","distance":"2209.035","time":"330.4625"}},{"type":"Feature","name":"ShapeMeta","geometry":{"type":"LineString","coordinates":[[-1.513964,52.40157],[-1.514087,52.40158],[-1.514138,52.40162],[-1.514085,52.40191],[-1.51409,52.40196],[-1.514094,52.40197]]},"properties":{"highway":"service","oneway":"yes","profile":"bus","distance":"2263.184","time":"336.9603"}},{"type":"Feature","name":"ShapeMeta","geometry":{"type":"LineString","coordinates":[[-1.514094,52.40197],[-1.514111,52.40205]]},"properties":{"highway":"service","oneway":"yes","profile":"bus","distance":"2271.336","time":"337.9385"}},{"type":"Feature","name":"ShapeMeta","geometry":{"type":"LineString","coordinates":[[-1.514111,52.40205],[-1.514215,52.40219]]},"properties":{"name":"Eaton Road","maxspeed":"20 mph","highway":"tertiary","profile":"bus","distance":"2289.236","time":"340.6079"}},{"type":"Feature","name":"ShapeMeta","geometry":{"type":"LineString","coordinates":[[-1.514215,52.40219],[-1.514265,52.4023],[-1.514318,52.40242],[-1.514345,52.40249]]},"properties":{"name":"Eaton Road","maxspeed":"20 mph","highway":"tertiary","profile":"bus","distance":"2323.436","time":"345.7082"}},{"type":"Feature","name":"ShapeMeta","geometry":{"type":"LineString","coordinates":[[-1.514345,52.40249],[-1.51437,52.40253],[-1.514512,52.40257],[-1.514602,52.40256],[-1.514776,52.40252]]},"properties":{"maxspeed":"20 mph","highway":"tertiary","profile":"bus","distance":"2356.936","time":"350.704"}},{"type":"Feature","name":"ShapeMeta","geometry":{"type":"LineString","coordinates":[[-1.514776,52.40252],[-1.514899,52.4025],[-1.515161,52.40244]]},"properties":{"maxspeed":"20 mph","highway":"tertiary","profile":"bus","distance":"2384.536","time":"354.8199"}},{"type":"Feature","name":"ShapeMeta","geometry":{"type":"LineString","coordinates":[[-1.515161,52.40244],[-1.515209,52.40231],[-1.515232,52.40222]]},"properties":{"name":"Warwick Road","maxspeed":"20 mph","oneway":"yes","highway":"primary","profile":"bus","distance":"2409.536","time":"358.5482"}},{"type":"Feature","name":"ShapeMeta","geometry":{"type":"LineString","coordinates":[[-1.515232,52.40222],[-1.515261,52.40214],[-1.51528,52.4021],[-1.515288,52.40207]]},"properties":{"name":"Warwick Road","maxspeed":"30 mph","oneway":"yes","highway":"primary","profile":"bus","distance":"2426.036","time":"360.1886"}},{"type":"Feature","name":"ShapeMeta","geometry":{"type":"LineString","coordinates":[[-1.515288,52.40207],[-1.515355,52.40192],[-1.515396,52.40186],[-1.515475,52.40179]]},"properties":{"name":"Warwick Road","maxspeed":"30 mph","oneway":"yes","highway":"primary","profile":"bus","distance":"2459.936","time":"363.5589"}},{"type":"Feature","name":"ShapeMeta","geometry":{"type":"LineString","coordinates":[[-1.515475,52.40179],[-1.51554,52.40175]]},"properties":{"name":"Warwick Road","maxspeed":"30 mph","oneway":"yes","highway":"primary","profile":"bus","distance":"2466.636","time":"364.225"}},{"type":"Feature","name":"ShapeMeta","geometry":{"type":"LineString","coordinates":[[-1.51554,52.40175],[-1.515584,52.4017]]},"properties":{"name":"Warwick Road","maxspeed":"30 mph","oneway":"yes","highway":"primary","profile":"bus","distance":"2473.236","time":"364.8812"}},{"type":"Feature","name":"ShapeMeta","geometry":{"type":"LineString","coordinates":[[-1.515584,52.4017],[-1.515583,52.40168],[-1.515587,52.40166],[-1.515597,52.40164]]},"properties":{"name":"Warwick Road","maxspeed":"30 mph","oneway":"yes","highway":"primary","junction":"roundabout","profile":"bus","distance":"2479.636","time":"365.5175"}},{"type":"Feature","name":"ShapeMeta","geometry":{"type":"LineString","coordinates":[[-1.515597,52.40164],[-1.515583,52.40161],[-1.515556,52.40155],[-1.515542,52.40146],[-1.515548,52.4014],[-1.51562,52.40121],[-1.515626,52.4012]]},"properties":{"name":"Warwick Road","maxspeed":"30 mph","oneway":"yes","highway":"primary","profile":"bus","distance":"2529.836","time":"370.5084"}},{"type":"Feature","name":"ShapeMeta","geometry":{"type":"LineString","coordinates":[[-1.515626,52.4012],[-1.515663,52.40112]]},"properties":{"name":"Warwick Road","bridge":"yes","maxspeed":"30 mph","oneway":"yes","highway":"primary","profile":"bus","distance":"2539.094","time":"371.4288"}},{"type":"Feature","name":"ShapeMeta","geometry":{"type":"LineString","coordinates":[[-1.515663,52.40112],[-1.515752,52.40092]]},"properties":{"name":"Warwick Road","bridge":"yes","maxspeed":"30 mph","oneway":"yes","highway":"primary","profile":"bus","distance":"2561.536","time":"373.66"}},{"type":"Feature","name":"ShapeMeta","geometry":{"type":"LineString","coordinates":[[-1.515752,52.40092],[-1.515987,52.40066]]},"properties":{"name":"Warwick Road","maxspeed":"30 mph","oneway":"yes","highway":"primary","profile":"bus","distance":"2594.836","time":"376.9707"}},{"type":"Feature","name":"ShapeMeta","geometry":{"type":"LineString","coordinates":[[-1.515987,52.40066],[-1.516072,52.40043]]},"properties":{"name":"Warwick Road","maxspeed":"30 mph","highway":"primary","profile":"bus","distance":"2620.436","time":"379.5158"}},{"type":"Feature","name":"ShapeMeta","geometry":{"type":"LineString","coordinates":[[-1.516072,52.40043],[-1.516123,52.40026]]},"properties":{"name":"Warwick Road","maxspeed":"30 mph","highway":"primary","profile":"bus","distance":"2639.736","time":"381.4346"}},{"type":"Feature","name":"ShapeMeta","geometry":{"type":"LineString","coordinates":[[-1.516123,52.40026],[-1.516161,52.40015]]},"properties":{"name":"Warwick Road","maxspeed":"30 mph","highway":"primary","profile":"bus","distance":"2651.836","time":"382.6376"}},{"type":"Feature","name":"ShapeMeta","geometry":{"type":"LineString","coordinates":[[-1.516161,52.40015],[-1.516214,52.40001],[-1.516266,52.39981]]},"properties":{"name":"Warwick Road","maxspeed":"30 mph","highway":"primary","profile":"bus","distance":"2691.036","time":"386.5349"}},{"type":"Feature","name":"ShapeMeta","geometry":{"type":"LineString","coordinates":[[-1.516266,52.39981],[-1.516381,52.39944],[-1.516473,52.39906]]},"properties":{"name":"Warwick Road","maxspeed":"30 mph","highway":"primary","profile":"bus","distance":"2774.936","time":"394.8762"}},{"type":"Feature","name":"ShapeMeta","geometry":{"type":"LineString","coordinates":[[-1.516473,52.39906],[-1.516572,52.3986]]},"properties":{"name":"Warwick Road","maxspeed":"30 mph","highway":"primary","profile":"bus","distance":"2827.036","time":"400.0559"}},{"type":"Feature","name":"ShapeMeta","geometry":{"type":"LineString","coordinates":[[-1.516572,52.3986],[-1.51663,52.39861],[-1.517491,52.39883],[-1.517565,52.39885]]},"properties":{"name":"Spencer Road","highway":"unclassified","profile":"bus","distance":"2900.063","time":"405.3139"}},{"type":"Feature","name":"ShapeMeta","geometry":{"type":"LineString","coordinates":[[-1.517565,52.39885],[-1.518195,52.39903],[-1.518485,52.3991]]},"properties":{"name":"Spencer Road","highway":"unclassified","profile":"bus","distance":"2968.336","time":"410.2296"}},{"type":"Feature","name":"ShapeMeta","geometry":{"type":"LineString","coordinates":[[-1.518485,52.3991],[-1.520625,52.39967]]},"properties":{"name":"Spencer Road","highway":"unclassified","profile":"bus","distance":"3126.636","time":"421.6272"}},{"type":"Feature","name":"ShapeMeta","geometry":{"type":"LineString","coordinates":[[-1.520625,52.39967],[-1.520661,52.39962],[-1.520719,52.39955],[-1.520791,52.39946]]},"properties":{"name":"Dalton Road","highway":"residential","profile":"bus","distance":"3152.817","time":"423.5122"}},{"type":"Feature","name":"ShapeMeta","geometry":{"type":"LineString","coordinates":[[-1.520791,52.39946],[-1.520938,52.39927]]},"properties":{"name":"Dalton Road","highway":"residential","profile":"bus","distance":"3176.335","time":"425.2056"}},{"type":"Feature","name":"ShapeMeta","geometry":{"type":"LineString","coordinates":[[-1.520938,52.39927],[-1.521007,52.39917],[-1.521285,52.39882],[-1.52134,52.39879]]},"properties":{"name":"Dalton Road","highway":"residential","profile":"bus","distance":"3236.236","time":"429.5183"}},{"type":"Feature","name":"ShapeMeta","geometry":{"type":"LineString","coordinates":[[-1.52134,52.39879],[-1.521412,52.39877],[-1.521501,52.39875],[-1.52162,52.39875],[-1.521764,52.39876],[-1.521961,52.39878],[-1.522189,52.39882],[-1.522397,52.39886]]},"properties":{"name":"Broadway","highway":"residential","profile":"bus","distance":"3310.236","time":"434.8463"}},{"type":"Feature","name":"ShapeMeta","geometry":{"type":"LineString","coordinates":[[-1.522397,52.39886],[-1.522508,52.3987],[-1.522655,52.39852],[-1.522862,52.39837]]},"properties":{"name":"Belvedere Road","highway":"residential","profile":"bus","distance":"3373.761","time":"439.4202"}},{"type":"Feature","name":"ShapeMeta","geometry":{"type":"LineString","coordinates":[[-1.522862,52.39837],[-1.522893,52.39834],[-1.523305,52.39808]]},"properties":{"name":"Belvedere Road","highway":"residential","profile":"bus","distance":"3417.835","time":"442.5936"}},{"type":"Feature","name":"ShapeMeta","geometry":{"type":"LineString","coordinates":[[-1.523305,52.39808],[-1.524162,52.39754]]},"properties":{"name":"Belvedere Road","highway":"residential","profile":"bus","distance":"3501.135","time":"448.5912"}},{"type":"Feature","name":"ShapeMeta","geometry":{"type":"LineString","coordinates":[[-1.524162,52.39754],[-1.524168,52.39753]]},"properties":{"name":"Belvedere Road","highway":"residential","profile":"bus","distance":"3501.722","time":"448.6334"}},{"type":"Feature","name":"ShapeMeta","geometry":{"type":"LineString","coordinates":[[-1.524168,52.39753],[-1.525041,52.39699]]},"properties":{"name":"Belvedere Road","highway":"residential","profile":"bus","distance":"3586.536","time":"454.74"}},{"type":"Feature","name":"ShapeMeta","geometry":{"type":"LineString","coordinates":[[-1.525041,52.39699],[-1.525989,52.3964]]},"properties":{"name":"Belvedere Road","highway":"residential","profile":"bus","distance":"3678.135","time":"461.3352"}},{"type":"Feature","name":"ShapeMeta","geometry":{"type":"LineString","coordinates":[[-1.525989,52.3964],[-1.526274,52.39656],[-1.526648,52.39673]]},"properties":{"name":"Earlsdon Avenue South","highway":"secondary","profile":"bus","distance":"3736.135","time":"464.318"}},{"type":"Feature","name":"ShapeMeta","geometry":{"type":"LineString","coordinates":[[-1.526648,52.39673],[-1.527022,52.39689],[-1.527353,52.39704]]},"properties":{"name":"Earlsdon Avenue South","highway":"secondary","profile":"bus","distance":"3795.064","time":"467.3487"}},{"type":"Feature","name":"ShapeMeta","geometry":{"type":"LineString","coordinates":[[-1.527353,52.39704],[-1.527393,52.39706],[-1.52768,52.39725],[-1.527774,52.39735]]},"properties":{"name":"Earlsdon Avenue South","highway":"secondary","profile":"bus","distance":"3840.235","time":"469.6718"}},{"type":"Feature","name":"ShapeMeta","geometry":{"type":"LineString","coordinates":[[-1.527774,52.39735],[-1.527869,52.3975],[-1.528187,52.39813],[-1.528289,52.39829]]},"properties":{"name":"Earlsdon Avenue South","highway":"secondary","profile":"bus","distance":"3949.935","time":"475.3135"}},{"type":"Feature","name":"ShapeMeta","geometry":{"type":"LineString","coordinates":[[-1.528289,52.39829],[-1.528354,52.39837],[-1.528527,52.39854]]},"properties":{"name":"Earlsdon Avenue South","highway":"secondary","profile":"bus","distance":"3982.635","time":"476.9952"}},{"type":"Feature","name":"ShapeMeta","geometry":{"type":"LineString","coordinates":[[-1.528527,52.39854],[-1.528677,52.39868],[-1.528938,52.39886]]},"properties":{"name":"Earlsdon Avenue South","highway":"secondary","profile":"bus","distance":"4027.635","time":"479.3095"}},{"type":"Feature","name":"ShapeMeta","geometry":{"type":"LineString","coordinates":[[-1.528938,52.39886],[-1.52921,52.39903]]},"properties":{"name":"Earlsdon Avenue South","highway":"secondary","profile":"bus","distance":"4053.835","time":"480.6569"}},{"type":"Feature","name":"ShapeMeta","geometry":{"type":"LineString","coordinates":[[-1.52921,52.39903],[-1.529385,52.39914],[-1.530134,52.39956],[-1.53014,52.39957]]},"properties":{"name":"Earlsdon Avenue South","highway":"secondary","profile":"bus","distance":"4140.819","time":"485.1304"}},{"type":"Feature","name":"ShapeMeta","geometry":{"type":"LineString","coordinates":[[-1.53014,52.39957],[-1.530283,52.39967]]},"properties":{"name":"Earlsdon Avenue South","highway":"secondary","profile":"bus","distance":"4156.135","time":"485.9181"}},{"type":"Feature","name":"ShapeMeta","geometry":{"type":"LineString","coordinates":[[-1.530283,52.39967],[-1.530354,52.39972],[-1.530442,52.39977],[-1.530517,52.39981]]},"properties":{"name":"Earlsdon Avenue South","oneway":"yes","highway":"secondary","profile":"bus","distance":"4178.135","time":"487.0495"}},{"type":"Feature","name":"ShapeMeta","geometry":{"type":"LineString","coordinates":[[-1.530517,52.39981],[-1.530548,52.39981],[-1.530586,52.39983]]},"properties":{"highway":"secondary","junction":"roundabout","profile":"bus","distance":"4183.035","time":"487.3015"}},{"type":"Feature","name":"ShapeMeta","geometry":{"type":"LineString","coordinates":[[-1.530586,52.39983],[-1.530617,52.39985],[-1.530629,52.39986],[-1.530637,52.39988]]},"properties":{"highway":"secondary","junction":"roundabout","profile":"bus","distance":"4190.335","time":"487.677"}},{"type":"Feature","name":"ShapeMeta","geometry":{"type":"LineString","coordinates":[[-1.530637,52.39988],[-1.530639,52.39989]]},"properties":{"highway":"secondary","junction":"roundabout","profile":"bus","distance":"4191.535","time":"487.7387"}},{"type":"Feature","name":"ShapeMeta","geometry":{"type":"LineString","coordinates":[[-1.530639,52.39989],[-1.530635,52.39991],[-1.530622,52.39993],[-1.530593,52.39996]]},"properties":{"highway":"secondary","junction":"roundabout","profile":"bus","distance":"4199.135","time":"488.1295"}},{"type":"Feature","name":"ShapeMeta","geometry":{"type":"LineString","coordinates":[[-1.530593,52.39996],[-1.530613,52.40003],[-1.530628,52.40012],[-1.530601,52.40022]]},"properties":{"name":"Earlsdon Avenue North","oneway":"yes","highway":"secondary","profile":"bus","distance":"4229.035","time":"489.6672"}},{"type":"Feature","name":"ShapeMeta","geometry":{"type":"LineString","coordinates":[[-1.530601,52.40022],[-1.530625,52.40029],[-1.530731,52.40048],[-1.530802,52.40057],[-1.53116,52.40083],[-1.531505,52.40106],[-1.53154,52.4011],[-1.531559,52.40112]]},"properties":{"name":"Earlsdon Avenue North","highway":"secondary","profile":"bus","distance":"4350.535","time":"495.9158"}},{"type":"Feature","name":"ShapeMeta","geometry":{"type":"LineString","coordinates":[[-1.531559,52.40112],[-1.531583,52.40117],[-1.531649,52.40145],[-1.531645,52.4015]]},"properties":{"name":"Earlsdon Avenue North","highway":"secondary","profile":"bus","distance":"4393.535","time":"498.1273"}},{"type":"Feature","name":"ShapeMeta","geometry":{"type":"LineString","coordinates":[[-1.531645,52.4015],[-1.531657,52.4017]]},"properties":{"name":"Earlsdon Avenue North","bridge":"yes","highway":"secondary","profile":"bus","distance":"4415.535","time":"499.2587"}},{"type":"Feature","name":"ShapeMeta","geometry":{"type":"LineString","coordinates":[[-1.531657,52.4017],[-1.531678,52.40191],[-1.531675,52.40199]]},"properties":{"name":"Earlsdon Avenue North","maxspeed":"30 mph","highway":"secondary","profile":"bus","distance":"4447.335","time":"502.4202"}},{"type":"Feature","name":"ShapeMeta","geometry":{"type":"LineString","coordinates":[[-1.531675,52.40199],[-1.531679,52.40202],[-1.531751,52.40214],[-1.532101,52.40228],[-1.532342,52.40237]]},"properties":{"name":"Earlsdon Avenue North","maxspeed":"30 mph","highway":"secondary","profile":"bus","distance":"4512.535","time":"508.9024"}},{"type":"Feature","name":"ShapeMeta","geometry":{"type":"LineString","coordinates":[[-1.532342,52.40237],[-1.532707,52.40249]]},"properties":{"name":"Earlsdon Avenue North","maxspeed":"30 mph","highway":"secondary","profile":"bus","distance":"4540.786","time":"511.7111"}},{"type":"Feature","name":"ShapeMeta","geometry":{"type":"LineString","coordinates":[[-1.532707,52.40249],[-1.532742,52.4025],[-1.533467,52.40276],[-1.533662,52.40283]]},"properties":{"name":"Earlsdon Avenue North","maxspeed":"30 mph","highway":"secondary","profile":"bus","distance":"4615.735","time":"519.1625"}},{"type":"Feature","name":"ShapeMeta","geometry":{"type":"LineString","coordinates":[[-1.533662,52.40283],[-1.533875,52.40291],[-1.533977,52.40296],[-1.53408,52.40305],[-1.534176,52.40316]]},"properties":{"name":"Earlsdon Avenue North","maxspeed":"30 mph","highway":"secondary","profile":"bus","distance":"4667.835","time":"524.3423"}},{"type":"Feature","name":"ShapeMeta","geometry":{"type":"LineString","coordinates":[[-1.534176,52.40316],[-1.534268,52.4033],[-1.534324,52.40339],[-1.534519,52.40371]]},"properties":{"name":"Earlsdon Avenue North","maxspeed":"30 mph","highway":"secondary","profile":"bus","distance":"4732.335","time":"530.7549"}},{"type":"Feature","name":"ShapeMeta","geometry":{"type":"LineString","coordinates":[[-1.534519,52.40371],[-1.534727,52.40407],[-1.53483,52.40425]]},"properties":{"name":"Earlsdon Avenue North","maxspeed":"30 mph","highway":"secondary","profile":"bus","distance":"4796.936","time":"537.1774"}},{"type":"Feature","name":"ShapeMeta","geometry":{"type":"LineString","coordinates":[[-1.53483,52.40425],[-1.534864,52.40432]]},"properties":{"name":"Earlsdon Avenue North","maxspeed":"30 mph","highway":"secondary","profile":"bus","distance":"4804.036","time":"537.8832"}},{"type":"Feature","name":"ShapeMeta","geometry":{"type":"LineString","coordinates":[[-1.534864,52.40432],[-1.534991,52.40446],[-1.535111,52.40459]]},"properties":{"name":"Earlsdon Avenue North","maxspeed":"30 mph","highway":"secondary","profile":"bus","distance":"4839.235","time":"541.3828"}},{"type":"Feature","name":"ShapeMeta","geometry":{"type":"LineString","coordinates":[[-1.535111,52.40459],[-1.535229,52.40468],[-1.535281,52.40472],[-1.535358,52.40479]]},"properties":{"name":"Earlsdon Avenue North","maxspeed":"30 mph","oneway":"yes","highway":"secondary","profile":"bus","distance":"4866.635","time":"544.1069"}},{"type":"Feature","name":"ShapeMeta","geometry":{"type":"LineString","coordinates":[[-1.535358,52.40479],[-1.535558,52.40471],[-1.535709,52.40467]]},"properties":{"name":"Hearsall Common","maxspeed":"30 mph","oneway":"yes","highway":"secondary","profile":"bus","distance":"4894.02","time":"546.8294"}},{"type":"Feature","name":"ShapeMeta","geometry":{"type":"LineString","coordinates":[[-1.535709,52.40467],[-1.536178,52.40454],[-1.536462,52.40451]]},"properties":{"name":"Hearsall Common","maxspeed":"30 mph","oneway":"yes","highway":"secondary","profile":"bus","distance":"4948.436","time":"552.2394"}},{"type":"Feature","name":"ShapeMeta","geometry":{"type":"LineString","coordinates":[[-1.536462,52.40451],[-1.536913,52.40438],[-1.537515,52.40424],[-1.540599,52.40368],[-1.540685,52.40366]]},"properties":{"name":"Hearsall Common","maxspeed":"30 mph","highway":"secondary","profile":"bus","distance":"5250.236","time":"582.2443"}},{"type":"Feature","name":"ShapeMeta","geometry":{"type":"LineString","coordinates":[[-1.540685,52.40366],[-1.540825,52.40364],[-1.54147,52.40356],[-1.54156,52.40356]]},"properties":{"name":"Tile Hill Lane","maxspeed":"30 mph","highway":"secondary","profile":"bus","distance":"5310.821","time":"588.2676"}},{"type":"Feature","name":"ShapeMeta","geometry":{"type":"LineString","coordinates":[[-1.54156,52.40356],[-1.541917,52.40353],[-1.542635,52.4035],[-1.542979,52.40351],[-1.543452,52.40355],[-1.543879,52.40359],[-1.544033,52.40361]]},"properties":{"name":"Tile Hill Lane","maxspeed":"30 mph","highway":"secondary","profile":"bus","distance":"5479.835","time":"605.0709"}},{"type":"Feature","name":"ShapeMeta","geometry":{"type":"LineString","coordinates":[[-1.544033,52.40361],[-1.544757,52.40368],[-1.545056,52.40374],[-1.545333,52.40383],[-1.545657,52.40395],[-1.545985,52.404],[-1.546098,52.40401]]},"properties":{"name":"Tile Hill Lane","maxspeed":"30 mph","oneway":"yes","highway":"secondary","profile":"bus","distance":"5628.735","time":"619.8745"}},{"type":"Feature","name":"ShapeMeta","geometry":{"type":"LineString","coordinates":[[-1.546098,52.40401],[-1.546142,52.404],[-1.546202,52.404],[-1.546269,52.404]]},"properties":{"maxspeed":"30 mph","highway":"secondary","junction":"roundabout","profile":"bus","distance":"5640.436","time":"621.0377"}},{"type":"Feature","name":"ShapeMeta","geometry":{"type":"LineString","coordinates":[[-1.546269,52.404],[-1.546349,52.404],[-1.546669,52.40396],[-1.546797,52.40394],[-1.547334,52.40376],[-1.547441,52.40372]]},"properties":{"name":"Tile Hill Lane","maxspeed":"30 mph","oneway":"yes","highway":"secondary","profile":"bus","distance":"5726.917","time":"629.6357"}},{"type":"Feature","name":"ShapeMeta","geometry":{"type":"LineString","coordinates":[[-1.547441,52.40372],[-1.547952,52.40353],[-1.548042,52.40347],[-1.548092,52.4034],[-1.548111,52.40335],[-1.548125,52.40328]]},"properties":{"name":"Tile Hill Lane","maxspeed":"30 mph","oneway":"yes","highway":"secondary","profile":"bus","distance":"5798.735","time":"636.7758"}},{"type":"Feature","name":"ShapeMeta","geometry":{"type":"LineString","coordinates":[[-1.548125,52.40328],[-1.548116,52.40323],[-1.548134,52.40313],[-1.548158,52.40308]]},"properties":{"maxspeed":"30 mph","oneway":"yes","highway":"secondary","junction":"roundabout","profile":"bus","distance":"5821.535","time":"639.0425"}},{"type":"Feature","name":"ShapeMeta","geometry":{"type":"LineString","coordinates":[[-1.548158,52.40308],[-1.548236,52.403],[-1.548332,52.40295],[-1.548445,52.40292]]},"properties":{"maxspeed":"30 mph","highway":"secondary","junction":"roundabout","profile":"bus","distance":"5848.435","time":"641.7169"}},{"type":"Feature","name":"ShapeMeta","geometry":{"type":"LineString","coordinates":[[-1.548445,52.40292],[-1.548561,52.4029]]},"properties":{"maxspeed":"30 mph","highway":"secondary","junction":"roundabout","profile":"bus","distance":"5856.334","time":"642.5023"}},{"type":"Feature","name":"ShapeMeta","geometry":{"type":"LineString","coordinates":[[-1.548561,52.4029],[-1.548668,52.4029],[-1.54878,52.40292],[-1.548842,52.40293]]},"properties":{"maxspeed":"30 mph","highway":"secondary","junction":"roundabout","profile":"bus","distance":"5875.834","time":"644.441"}},{"type":"Feature","name":"ShapeMeta","geometry":{"type":"LineString","coordinates":[[-1.548842,52.40293],[-1.548887,52.40294],[-1.548938,52.40296]]},"properties":{"maxspeed":"30 mph","highway":"secondary","junction":"roundabout","profile":"bus","distance":"5883.135","time":"645.1668"}},{"type":"Feature","name":"ShapeMeta","geometry":{"type":"LineString","coordinates":[[-1.548938,52.40296],[-1.549044,52.40296],[-1.549212,52.40294],[-1.5495,52.40286]]},"properties":{"name":"Herald Avenue","maxspeed":"30 mph","oneway":"yes","highway":"secondary","profile":"bus","distance":"5923.135","time":"649.1436"}},{"type":"Feature","name":"ShapeMeta","geometry":{"type":"LineString","coordinates":[[-1.5495,52.40286],[-1.549571,52.40284],[-1.549862,52.40279],[-1.549997,52.40277]]},"properties":{"name":"Herald Avenue","maxspeed":"30 mph","highway":"secondary","profile":"bus","distance":"5958.334","time":"652.6431"}},{"type":"Feature","name":"ShapeMeta","geometry":{"type":"LineString","coordinates":[[-1.549997,52.40277],[-1.550084,52.40276],[-1.550419,52.40274],[-1.550723,52.40274]]},"properties":{"name":"Herald Avenue","maxspeed":"30 mph","highway":"secondary","profile":"bus","distance":"6007.834","time":"657.5644"}},{"type":"Feature","name":"ShapeMeta","geometry":{"type":"LineString","coordinates":[[-1.550723,52.40274],[-1.551098,52.40273],[-1.551262,52.40273]]},"properties":{"name":"Herald Avenue","maxspeed":"30 mph","highway":"secondary","profile":"bus","distance":"6044.458","time":"661.2055"}},{"type":"Feature","name":"ShapeMeta","geometry":{"type":"LineString","coordinates":[[-1.551262,52.40273],[-1.552178,52.40271],[-1.553223,52.40271],[-1.553433,52.40273]]},"properties":{"name":"Herald Avenue","maxspeed":"30 mph","highway":"secondary","profile":"bus","distance":"6191.935","time":"675.8676"}},{"type":"Feature","name":"ShapeMeta","geometry":{"type":"LineString","coordinates":[[-1.553433,52.40273],[-1.553633,52.40271],[-1.553798,52.40267],[-1.553868,52.40264]]},"properties":{"name":"Herald Avenue","maxspeed":"30 mph","oneway":"yes","highway":"secondary","profile":"bus","distance":"6223.735","time":"679.0291"}},{"type":"Feature","name":"ShapeMeta","geometry":{"type":"LineString","coordinates":[[-1.553868,52.40264],[-1.553928,52.4026],[-1.554005,52.40256]]},"properties":{"name":"Herald Avenue","maxspeed":"30 mph","oneway":"yes","highway":"secondary","junction":"roundabout","profile":"bus","distance":"6236.334","time":"680.2818"}},{"type":"Feature","name":"ShapeMeta","geometry":{"type":"LineString","coordinates":[[-1.554005,52.40256],[-1.554093,52.40256],[-1.55417,52.40256],[-1.554199,52.40256]]},"properties":{"name":"Herald Avenue","maxspeed":"30 mph","oneway":"yes","highway":"secondary","junction":"roundabout","profile":"bus","distance":"6249.435","time":"681.5842"}},{"type":"Feature","name":"ShapeMeta","geometry":{"type":"LineString","coordinates":[[-1.554199,52.40256],[-1.554253,52.40257],[-1.554326,52.4026],[-1.55437,52.40263]]},"properties":{"name":"Herald Avenue","maxspeed":"30 mph","oneway":"yes","highway":"secondary","junction":"roundabout","profile":"bus","distance":"6263.834","time":"683.0159"}},{"type":"Feature","name":"ShapeMeta","geometry":{"type":"LineString","coordinates":[[-1.55437,52.40263],[-1.554467,52.40265],[-1.554724,52.40266],[-1.555204,52.40264]]},"properties":{"name":"Herald Avenue","maxspeed":"30 mph","oneway":"yes","highway":"secondary","profile":"bus","distance":"6320.987","time":"688.6979"}},{"type":"Feature","name":"ShapeMeta","geometry":{"type":"LineString","coordinates":[[-1.555204,52.40264],[-1.555566,52.40263]]},"properties":{"name":"Herald Avenue","maxspeed":"30 mph","oneway":"yes","highway":"secondary","profile":"bus","distance":"6345.535","time":"691.1384"}},{"type":"Feature","name":"ShapeMeta","geometry":{"type":"LineString","coordinates":[[-1.555566,52.40263],[-1.55589,52.40261]]},"properties":{"name":"Herald Avenue","maxspeed":"30 mph","oneway":"yes","highway":"secondary","profile":"bus","distance":"6367.635","time":"693.3356"}},{"type":"Feature","name":"ShapeMeta","geometry":{"type":"LineString","coordinates":[[-1.55589,52.40261],[-1.556336,52.40258],[-1.556442,52.40257]]},"properties":{"name":"Herald Avenue","maxspeed":"30 mph","oneway":"yes","highway":"secondary","profile":"bus","distance":"6405.235","time":"697.0738"}},{"type":"Feature","name":"ShapeMeta","geometry":{"type":"LineString","coordinates":[[-1.556442,52.40257],[-1.55696,52.40255]]},"properties":{"name":"Herald Avenue","maxspeed":"30 mph","oneway":"yes","highway":"secondary","profile":"bus","distance":"6440.435","time":"700.5734"}},{"type":"Feature","name":"ShapeMeta","geometry":{"type":"LineString","coordinates":[[-1.55696,52.40255],[-1.557591,52.40248]]},"properties":{"name":"Herald Avenue","maxspeed":"30 mph","oneway":"yes","highway":"secondary","profile":"bus","distance":"6483.935","time":"704.8981"}},{"type":"Feature","name":"ShapeMeta","geometry":{"type":"LineString","coordinates":[[-1.557591,52.40248],[-1.558283,52.40237],[-1.558531,52.40227],[-1.558645,52.40216]]},"properties":{"name":"Herald Avenue","oneway":"yes","maxspeed":"40 mph","highway":"secondary_link","profile":"bus","distance":"6567.535","time":"711.1317"}},{"type":"Feature","name":"ShapeMeta","geometry":{"type":"LineString","coordinates":[[-1.558645,52.40216],[-1.558622,52.40175]]},"properties":{"name":"Fletchamstead Highway","oneway":"yes","highway":"trunk","maxspeed":"40 mph","profile":"bus","distance":"6612.435","time":"714.4797"}},{"type":"Feature","name":"ShapeMeta","geometry":{"type":"LineString","coordinates":[[-1.558622,52.40175],[-1.558502,52.40125],[-1.558429,52.40097],[-1.558318,52.4006]]},"properties":{"name":"Fletchamstead Highway","oneway":"yes","highway":"trunk","maxspeed":"40 mph","profile":"bus","distance":"6742.135","time":"724.1507"}},{"type":"Feature","name":"ShapeMeta","geometry":{"type":"LineString","coordinates":[[-1.558318,52.4006],[-1.558121,52.4001],[-1.557632,52.39917],[-1.557019,52.39807]]},"properties":{"name":"Fletchamstead Highway","oneway":"yes","highway":"trunk","maxspeed":"40 mph","profile":"bus","distance":"7037.435","time":"746.1697"}},{"type":"Feature","name":"ShapeMeta","geometry":{"type":"LineString","coordinates":[[-1.557019,52.39807],[-1.556818,52.39772]]},"properties":{"name":"Fletchamstead Highway","bridge":"yes","oneway":"yes","highway":"trunk","maxspeed":"40 mph","profile":"bus","distance":"7077.935","time":"749.1896"}},{"type":"Feature","name":"ShapeMeta","geometry":{"type":"LineString","coordinates":[[-1.556818,52.39772],[-1.556555,52.39729],[-1.556253,52.39687],[-1.555698,52.39627],[-1.555246,52.39576]]},"properties":{"name":"Fletchamstead Highway","oneway":"yes","highway":"trunk","maxspeed":"40 mph","profile":"bus","distance":"7321.435","time":"767.3461"}},{"type":"Feature","name":"ShapeMeta","geometry":{"type":"LineString","coordinates":[[-1.555246,52.39576],[-1.554803,52.39532],[-1.553507,52.39424],[-1.552571,52.39363],[-1.552397,52.39352]]},"properties":{"name":"Fletchamstead Highway","oneway":"yes","highway":"trunk","maxspeed":"40 mph","profile":"bus","distance":"7637.535","time":"790.916"}},{"type":"Feature","name":"ShapeMeta","geometry":{"type":"LineString","coordinates":[[-1.552397,52.39352],[-1.552006,52.39326],[-1.551899,52.39319],[-1.551732,52.39311],[-1.55164,52.39309],[-1.551536,52.39305]]},"properties":{"name":"Fletchamstead Highway","oneway":"yes","highway":"trunk","maxspeed":"40 mph","profile":"bus","distance":"7716.735","time":"796.8215"}},{"type":"Feature","name":"ShapeMeta","geometry":{"type":"LineString","coordinates":[[-1.551536,52.39305],[-1.551497,52.39305],[-1.551456,52.39305]]},"properties":{"highway":"trunk","junction":"roundabout","maxspeed":"40 mph","profile":"bus","distance":"7722.135","time":"797.2241"}},{"type":"Feature","name":"ShapeMeta","geometry":{"type":"LineString","coordinates":[[-1.551456,52.39305],[-1.5514,52.39305],[-1.551276,52.39302],[-1.55123,52.39299],[-1.551188,52.39295]]},"properties":{"oneway":"yes","highway":"trunk","junction":"roundabout","maxspeed":"40 mph","profile":"bus","distance":"7745.035","time":"798.9316"}},{"type":"Feature","name":"ShapeMeta","geometry":{"type":"LineString","coordinates":[[-1.551188,52.39295],[-1.551179,52.39293],[-1.551175,52.39289],[-1.551178,52.39286]]},"properties":{"oneway":"yes","highway":"trunk","junction":"roundabout","maxspeed":"40 mph","profile":"bus","distance":"7755.235","time":"799.6922"}},{"type":"Feature","name":"ShapeMeta","geometry":{"type":"LineString","coordinates":[[-1.551178,52.39286],[-1.551191,52.39282],[-1.551248,52.39273],[-1.551341,52.39267],[-1.551419,52.39263],[-1.551516,52.39261]]},"properties":{"oneway":"yes","highway":"trunk","junction":"roundabout","maxspeed":"40 mph","profile":"bus","distance":"7793.035","time":"802.5107"}},{"type":"Feature","name":"ShapeMeta","geometry":{"type":"LineString","coordinates":[[-1.551516,52.39261],[-1.551572,52.39261],[-1.551632,52.39261]]},"properties":{"oneway":"yes","highway":"trunk","junction":"roundabout","maxspeed":"40 mph","profile":"bus","distance":"7800.835","time":"803.0924"}},{"type":"Feature","name":"ShapeMeta","geometry":{"type":"LineString","coordinates":[[-1.551632,52.39261],[-1.551709,52.39259],[-1.551775,52.39256],[-1.551865,52.39249]]},"properties":{"name":"Sir Henry Parkes Road","maxspeed":"30 mph","oneway":"yes","highway":"tertiary","profile":"bus","distance":"7821.635","time":"805.1603"}},{"type":"Feature","name":"ShapeMeta","geometry":{"type":"LineString","coordinates":[[-1.551865,52.39249],[-1.552051,52.3923]]},"properties":{"name":"Sir Henry Parkes Road","maxspeed":"30 mph","highway":"tertiary","profile":"bus","distance":"7846.635","time":"807.6458"}},{"type":"Feature","name":"ShapeMeta","geometry":{"type":"LineString","coordinates":[[-1.552051,52.3923],[-1.552187,52.39217],[-1.552447,52.39193],[-1.552553,52.39185],[-1.552818,52.39166],[-1.552976,52.39157]]},"properties":{"name":"Sir Henry Parkes Road","maxspeed":"30 mph","highway":"tertiary","profile":"bus","distance":"7949.835","time":"817.9059"}},{"type":"Feature","name":"ShapeMeta","geometry":{"type":"LineString","coordinates":[[-1.552976,52.39157],[-1.553158,52.39147],[-1.55317,52.39146]]},"properties":{"name":"Sir Henry Parkes Road","maxspeed":"30 mph","highway":"tertiary","profile":"bus","distance":"7967.436","time":"819.6556"}},{"type":"Feature","name":"ShapeMeta","geometry":{"type":"LineString","coordinates":[[-1.55317,52.39146],[-1.553341,52.39138],[-1.554378,52.39094],[-1.55464,52.39082]]},"properties":{"name":"Sir Henry Parkes Road","maxspeed":"30 mph","highway":"tertiary","profile":"bus","distance":"8089.835","time":"831.8245"}},{"type":"Feature","name":"ShapeMeta","geometry":{"type":"LineString","coordinates":[[-1.55464,52.39082],[-1.554719,52.39067],[-1.554728,52.39065],[-1.554745,52.39058]]},"properties":{"name":"Sir Henry Parkes Road","maxspeed":"30 mph","oneway":"yes","highway":"tertiary","profile":"bus","distance":"8117.936","time":"834.6182"}},{"type":"Feature","name":"ShapeMeta","geometry":{"type":"LineString","coordinates":[[-1.554745,52.39058],[-1.554673,52.39052]]},"properties":{"maxspeed":"30 mph","highway":"tertiary","junction":"roundabout","profile":"bus","distance":"8125.936","time":"835.4135"}},{"type":"Feature","name":"ShapeMeta","geometry":{"type":"LineString","coordinates":[[-1.554673,52.39052],[-1.554644,52.39045],[-1.554662,52.39037],[-1.55472,52.3903]]},"properties":{"maxspeed":"30 mph","highway":"tertiary","junction":"roundabout","profile":"bus","distance":"8151.436","time":"837.9487"}},{"type":"Feature","name":"ShapeMeta","geometry":{"type":"LineString","coordinates":[[-1.55472,52.3903],[-1.55478,52.39027],[-1.554873,52.39024]]},"properties":{"maxspeed":"30 mph","highway":"tertiary","junction":"roundabout","profile":"bus","distance":"8163.936","time":"839.1915"}},{"type":"Feature","name":"ShapeMeta","geometry":{"type":"LineString","coordinates":[[-1.554873,52.39024],[-1.554985,52.39014],[-1.555485,52.38974],[-1.555592,52.38963]]},"properties":{"name":"Sir Henry Parkes Road","maxspeed":"30 mph","oneway":"yes","highway":"tertiary","profile":"bus","distance":"8247.636","time":"847.5129"}},{"type":"Feature","name":"ShapeMeta","geometry":{"type":"LineString","coordinates":[[-1.555592,52.38963],[-1.555601,52.3896],[-1.555614,52.38958],[-1.555632,52.38956]]},"properties":{"maxspeed":"30 mph","highway":"tertiary","junction":"roundabout","profile":"bus","distance":"8255.835","time":"848.3281"}},{"type":"Feature","name":"ShapeMeta","geometry":{"type":"LineString","coordinates":[[-1.555632,52.38956],[-1.555685,52.38954],[-1.555793,52.38952],[-1.555859,52.38953]]},"properties":{"maxspeed":"30 mph","highway":"tertiary","junction":"roundabout","profile":"bus","distance":"8272.636","time":"849.9984"}},{"type":"Feature","name":"ShapeMeta","geometry":{"type":"LineString","coordinates":[[-1.555859,52.38953],[-1.555894,52.38954],[-1.555928,52.38955],[-1.555957,52.38958]]},"properties":{"maxspeed":"30 mph","highway":"tertiary","junction":"roundabout","profile":"bus","distance":"8281.335","time":"850.8633"}},{"type":"Feature","name":"ShapeMeta","geometry":{"type":"LineString","coordinates":[[-1.555957,52.38958],[-1.556012,52.38961],[-1.556204,52.38967],[-1.556281,52.38968],[-1.556469,52.38968],[-1.556781,52.38964],[-1.557001,52.38958]]},"properties":{"name":"Kirby Corner Road","maxspeed":"30 mph","oneway":"yes","highway":"tertiary","profile":"bus","distance":"8357.136","time":"858.3994"}},{"type":"Feature","name":"ShapeMeta","geometry":{"type":"LineString","coordinates":[[-1.557001,52.38958],[-1.556987,52.38959]]},"properties":{"name":"Kirby Corner Road","maxspeed":"30 mph","oneway":"yes","highway":"tertiary","profile":"bus","distance":"8358.248","time":"858.5099"}},{"type":"Feature","name":"ShapeMeta","geometry":{"type":"LineString","coordinates":[[-1.556987,52.38959],[-1.556774,52.38967],[-1.556516,52.38973],[-1.556426,52.38974],[-1.556263,52.38974],[-1.556025,52.38973],[-1.555931,52.38972]]},"properties":{"name":"Kirby Corner Road","maxspeed":"30 mph","oneway":"yes","highway":"tertiary","profile":"bus","distance":"8434.136","time":"866.0546"}},{"type":"Feature","name":"ShapeMeta","geometry":{"type":"LineString","coordinates":[[-1.555931,52.38972],[-1.555889,52.38974],[-1.555788,52.38976],[-1.555733,52.38975]]},"properties":{"maxspeed":"30 mph","highway":"tertiary","junction":"roundabout","profile":"bus","distance":"8448.335","time":"867.4663"}},{"type":"Feature","name":"ShapeMeta","geometry":{"type":"LineString","coordinates":[[-1.555733,52.38975],[-1.555677,52.38974],[-1.555601,52.38968],[-1.555592,52.38963]]},"properties":{"maxspeed":"30 mph","highway":"tertiary","junction":"roundabout","profile":"bus","distance":"8466.035","time":"869.2261"}},{"type":"Feature","name":"ShapeMeta","geometry":{"type":"LineString","coordinates":[[-1.555592,52.38963],[-1.555601,52.3896],[-1.555614,52.38958],[-1.555632,52.38956]]},"properties":{"maxspeed":"30 mph","highway":"tertiary","junction":"roundabout","profile":"bus","distance":"8474.235","time":"870.0413"}},{"type":"Feature","name":"ShapeMeta","geometry":{"type":"LineString","coordinates":[[-1.555632,52.38956],[-1.555685,52.38954],[-1.555793,52.38952],[-1.555859,52.38953]]},"properties":{"maxspeed":"30 mph","highway":"tertiary","junction":"roundabout","profile":"bus","distance":"8491.035","time":"871.7115"}},{"type":"Feature","name":"ShapeMeta","geometry":{"type":"LineString","coordinates":[[-1.555859,52.38953],[-1.555894,52.38954],[-1.555928,52.38955],[-1.555957,52.38958]]},"properties":{"maxspeed":"30 mph","highway":"tertiary","junction":"roundabout","profile":"bus","distance":"8499.735","time":"872.5765"}},{"type":"Feature","name":"ShapeMeta","geometry":{"type":"LineString","coordinates":[[-1.555957,52.38958],[-1.556012,52.38961],[-1.556204,52.38967],[-1.556281,52.38968],[-1.556469,52.38968],[-1.556781,52.38964],[-1.557001,52.38958]]},"properties":{"name":"Kirby Corner Road","maxspeed":"30 mph","oneway":"yes","highway":"tertiary","profile":"bus","distance":"8575.535","time":"880.1125"}},{"type":"Feature","name":"ShapeMeta","geometry":{"type":"LineString","coordinates":[[-1.557001,52.38958],[-1.557146,52.38953],[-1.557455,52.38942],[-1.55754,52.38939]]},"properties":{"name":"Kirby Corner Road","maxspeed":"30 mph","highway":"tertiary","profile":"bus","distance":"8618.035","time":"884.3378"}},{"type":"Feature","name":"ShapeMeta","geometry":{"type":"LineString","coordinates":[[-1.55754,52.38939],[-1.557649,52.38933],[-1.557921,52.38917],[-1.558434,52.38882],[-1.558874,52.38862],[-1.559184,52.38851]]},"properties":{"name":"Kirby Corner Road","maxspeed":"30 mph","highway":"tertiary","profile":"bus","distance":"8767.235","time":"899.1713"}},{"type":"Feature","name":"ShapeMeta","geometry":{"type":"LineString","coordinates":[[-1.559184,52.38851],[-1.559804,52.38832],[-1.560733,52.3881],[-1.56109,52.388],[-1.561368,52.38791]]},"properties":{"name":"Kirby Corner Road","maxspeed":"30 mph","highway":"tertiary","profile":"bus","distance":"8930.035","time":"915.3568"}},{"type":"Feature","name":"ShapeMeta","geometry":{"type":"LineString","coordinates":[[-1.561368,52.38791],[-1.561728,52.3878],[-1.562396,52.38753]]},"properties":{"name":"Kirby Corner Road","maxspeed":"30 mph","highway":"tertiary","profile":"bus","distance":"9011.561","time":"923.462"}},{"type":"Feature","name":"ShapeMeta","geometry":{"type":"LineString","coordinates":[[-1.562396,52.38753],[-1.562971,52.3873],[-1.563596,52.38702],[-1.563926,52.38686]]},"properties":{"name":"Kirby Corner Road","maxspeed":"30 mph","highway":"tertiary","profile":"bus","distance":"9139.235","time":"936.1553"}},{"type":"Feature","name":"ShapeMeta","geometry":{"type":"LineString","coordinates":[[-1.563926,52.38686],[-1.564209,52.38673],[-1.564369,52.38665]]},"properties":{"name":"Kirby Corner Road","maxspeed":"30 mph","highway":"tertiary","profile":"bus","distance":"9177.535","time":"939.9631"}},{"type":"Feature","name":"ShapeMeta","geometry":{"type":"LineString","coordinates":[[-1.564369,52.38665],[-1.564556,52.38655],[-1.564877,52.38638],[-1.565183,52.38621]]},"properties":{"name":"Kirby Corner Road","maxspeed":"30 mph","highway":"tertiary","profile":"bus","distance":"9251.135","time":"947.2804"}},{"type":"Feature","name":"ShapeMeta","geometry":{"type":"LineString","coordinates":[[-1.565183,52.38621],[-1.565461,52.38605],[-1.566103,52.38565]]},"properties":{"name":"Kirby Corner Road","maxspeed":"30 mph","highway":"tertiary","profile":"bus","distance":"9339.035","time":"956.0194"}},{"type":"Feature","name":"ShapeMeta","geometry":{"type":"LineString","coordinates":[[-1.566103,52.38565],[-1.56654,52.3854],[-1.566625,52.38536]]},"properties":{"name":"Kirby Corner Road","maxspeed":"30 mph","highway":"tertiary","profile":"bus","distance":"9387.547","time":"960.8424"}},{"type":"Feature","name":"ShapeMeta","geometry":{"type":"LineString","coordinates":[[-1.566625,52.38536],[-1.566949,52.38519],[-1.567063,52.38514]]},"properties":{"name":"Kirby Corner Road","maxspeed":"30 mph","highway":"tertiary","profile":"bus","distance":"9425.535","time":"964.6192"}},{"type":"Feature","name":"ShapeMeta","geometry":{"type":"LineString","coordinates":[[-1.567063,52.38514],[-1.56724,52.38508]]},"properties":{"name":"Kirby Corner Road","bridge":"yes","maxspeed":"30 mph","highway":"tertiary","profile":"bus","distance":"9439.535","time":"966.011"}},{"type":"Feature","name":"ShapeMeta","geometry":{"type":"LineString","coordinates":[[-1.56724,52.38508],[-1.567271,52.38506]]},"properties":{"name":"Kirby Corner Road","maxspeed":"30 mph","highway":"tertiary","profile":"bus","distance":"9442.135","time":"966.2695"}},{"type":"Feature","name":"ShapeMeta","geometry":{"type":"LineString","coordinates":[[-1.567271,52.38506],[-1.567413,52.38501],[-1.567616,52.3849],[-1.567628,52.38488]]},"properties":{"name":"Kirby Corner Road","maxspeed":"30 mph","oneway":"yes","highway":"tertiary","profile":"bus","distance":"9473.635","time":"969.4012"}},{"type":"Feature","name":"ShapeMeta","geometry":{"type":"LineString","coordinates":[[-1.567628,52.38488],[-1.567629,52.38485],[-1.567639,52.38483]]},"properties":{"highway":"tertiary","junction":"roundabout","maxspeed":"40 mph","profile":"bus","distance":"9480.035","time":"969.8785"}},{"type":"Feature","name":"ShapeMeta","geometry":{"type":"LineString","coordinates":[[-1.567639,52.38483],[-1.567583,52.38475],[-1.567538,52.38469],[-1.567511,52.38463]]},"properties":{"name":"Gibbet Hill Road","maxspeed":"30 mph","oneway":"yes","highway":"tertiary","profile":"bus","distance":"9503.735","time":"972.2347"}},{"type":"Feature","name":"ShapeMeta","geometry":{"type":"LineString","coordinates":[[-1.567511,52.38463],[-1.567463,52.38453],[-1.567291,52.38432]]},"properties":{"name":"Gibbet Hill Road","maxspeed":"30 mph","highway":"tertiary","profile":"bus","distance":"9540.868","time":"975.9265"}},{"type":"Feature","name":"ShapeMeta","geometry":{"type":"LineString","coordinates":[[-1.567291,52.38432],[-1.567241,52.38426],[-1.567108,52.38409]]},"properties":{"name":"Gibbet Hill Road","maxspeed":"30 mph","highway":"tertiary","profile":"bus","distance":"9569.534","time":"978.7766"}},{"type":"Feature","name":"ShapeMeta","geometry":{"type":"LineString","coordinates":[[-1.567108,52.38409],[-1.567024,52.38399],[-1.566946,52.38393],[-1.566604,52.38375],[-1.566242,52.38359]]},"properties":{"name":"Gibbet Hill Road","maxspeed":"30 mph","highway":"tertiary","profile":"bus","distance":"9651.234","time":"986.8991"}},{"type":"Feature","name":"ShapeMeta","geometry":{"type":"LineString","coordinates":[[-1.566242,52.38359],[-1.566011,52.38348],[-1.56582,52.38335],[-1.565651,52.38317]]},"properties":{"name":"Gibbet Hill Road","maxspeed":"30 mph","highway":"tertiary","profile":"bus","distance":"9713.435","time":"993.083"}},{"type":"Feature","name":"ShapeMeta","geometry":{"type":"LineString","coordinates":[[-1.565651,52.38317],[-1.565473,52.38305],[-1.565364,52.38298]]},"properties":{"name":"Gibbet Hill Road","maxspeed":"30 mph","oneway":"yes","highway":"tertiary","profile":"bus","distance":"9742.835","time":"996.0059"}},{"type":"Feature","name":"ShapeMeta","geometry":{"type":"LineString","coordinates":[[-1.565364,52.38298],[-1.565319,52.38298],[-1.565279,52.38298],[-1.565238,52.38297]]},"properties":{"maxspeed":"30 mph","oneway":"yes","highway":"tertiary","junction":"roundabout","profile":"bus","distance":"9751.534","time":"996.8709"}},{"type":"Feature","name":"ShapeMeta","geometry":{"type":"LineString","coordinates":[[-1.565238,52.38297],[-1.565189,52.38295],[-1.565155,52.38293],[-1.565132,52.38291]]},"properties":{"maxspeed":"30 mph","oneway":"yes","highway":"tertiary","junction":"roundabout","profile":"bus","distance":"9761.635","time":"997.8751"}},{"type":"Feature","name":"ShapeMeta","geometry":{"type":"LineString","coordinates":[[-1.565132,52.38291],[-1.565115,52.38286],[-1.565124,52.38282],[-1.565138,52.3828]]},"properties":{"maxspeed":"30 mph","oneway":"yes","highway":"tertiary","junction":"roundabout","profile":"bus","distance":"9773.835","time":"999.088"}},{"type":"Feature","name":"ShapeMeta","geometry":{"type":"LineString","coordinates":[[-1.565138,52.3828],[-1.565042,52.3827],[-1.565018,52.38266]]},"properties":{"name":"Gibbet Hill Road","maxspeed":"20 mph","oneway":"yes","highway":"tertiary","profile":"bus","distance":"9791.435","time":"1001.713"}},{"type":"Feature","name":"ShapeMeta","geometry":{"type":"LineString","coordinates":[[-1.565018,52.38266],[-1.56497,52.38258]]},"properties":{"name":"Gibbet Hill Road","maxspeed":"20 mph","oneway":"yes","highway":"tertiary","profile":"bus","distance":"9800.534","time":"1003.07"}},{"type":"Feature","name":"ShapeMeta","geometry":{"type":"LineString","coordinates":[[-1.56497,52.38258],[-1.564931,52.38254],[-1.564766,52.3823],[-1.563705,52.38044],[-1.563682,52.38039]]},"properties":{"name":"Gibbet Hill Road","maxspeed":"20 mph","highway":"tertiary","profile":"bus","distance":"10059.73","time":"1041.724"}},{"type":"Feature","name":"ShapeMeta","geometry":{"type":"LineString","coordinates":[[-1.563682,52.38039],[-1.563447,52.37993]]},"properties":{"name":"Gibbet Hill Road","maxspeed":"20 mph","highway":"tertiary","profile":"bus","distance":"10113.43","time":"1049.733"}},{"type":"Feature","name":"ShapeMeta","geometry":{"type":"LineString","coordinates":[[-1.563447,52.37993],[-1.563401,52.37981]]},"properties":{"name":"Gibbet Hill Road","maxspeed":"20 mph","highway":"tertiary","profile":"bus","distance":"10126.53","time":"1051.686"}},{"type":"Feature","name":"ShapeMeta","geometry":{"type":"LineString","coordinates":[[-1.563401,52.37981],[-1.563231,52.37984]]},"properties":{"highway":"service","oneway":"yes","profile":"bus","distance":"10138.43","time":"1053.114"}},{"type":"Feature","name":"ShapeMeta","geometry":{"type":"LineString","coordinates":[[-1.563231,52.37984],[-1.563008,52.37987],[-1.562941,52.37987],[-1.562909,52.37987]]},"properties":{"highway":"service","oneway":"yes","profile":"bus","distance":"10160.73","time":"1055.79"}},{"type":"Feature","name":"ShapeMeta","geometry":{"type":"LineString","coordinates":[[-1.562909,52.37987],[-1.562882,52.37986],[-1.562854,52.37984],[-1.562573,52.37956]]},"properties":{"highway":"service","oneway":"yes","profile":"bus","distance":"10201.78","time":"1060.715"}},{"type":"Feature","name":"ShapeMeta","geometry":{"type":"LineString","coordinates":[[-1.562573,52.37956],[-1.562304,52.3793]]},"properties":{"highway":"service","oneway":"yes","profile":"bus","distance":"10236.34","time":"1064.862"}},{"type":"Feature","name":"ShapeMeta","geometry":{"type":"LineString","coordinates":[[-1.562304,52.3793],[-1.562278,52.37925],[-1.562274,52.37919]]},"properties":{"highway":"service","oneway":"yes","profile":"bus","distance":"10248.94","time":"1066.374"}},{"type":"Feature","name":"ShapeMeta","geometry":{"type":"LineString","coordinates":[[-1.562274,52.37919],[-1.562363,52.37918],[-1.56249,52.37918]]},"properties":{"name":"University Road","maxspeed":"20 mph","highway":"unclassified","profile":"bus","distance":"10263.54","time":"1068.551"}},{"type":"Feature","name":"ShapeMeta","geometry":{"type":"LineString","coordinates":[[-1.56249,52.37918],[-1.562556,52.37917],[-1.562598,52.37915],[-1.562652,52.3791],[-1.562671,52.37908]]},"properties":{"name":"University Road","maxspeed":"20 mph","oneway":"yes","highway":"unclassified","profile":"bus","distance":"10281.24","time":"1071.191"}},{"type":"Feature","name":"ShapeMeta","geometry":{"type":"LineString","coordinates":[[-1.562671,52.37908],[-1.562689,52.37906],[-1.562715,52.37903],[-1.562743,52.37901]]},"properties":{"maxspeed":"20 mph","oneway":"yes","highway":"tertiary","junction":"roundabout","profile":"bus","distance":"10290.04","time":"1072.503"}},{"type":"Feature","name":"ShapeMeta","geometry":{"type":"LineString","coordinates":[[-1.562743,52.37901],[-1.562783,52.37895],[-1.562816,52.37888],[-1.562838,52.37881]]},"properties":{"name":"Gibbet Hill Road","maxspeed":"20 mph","oneway":"yes","highway":"tertiary","profile":"bus","distance":"10313.44","time":"1075.993"}},{"type":"Feature","name":"ShapeMeta","geometry":{"type":"LineString","coordinates":[[-1.562838,52.37881],[-1.562852,52.37869],[-1.562844,52.37858],[-1.562654,52.37809]]},"properties":{"name":"Gibbet Hill Road","maxspeed":"20 mph","highway":"tertiary","profile":"bus","distance":"10395.14","time":"1088.177"}},{"type":"Feature","name":"ShapeMeta","geometry":{"type":"LineString","coordinates":[[-1.562654,52.37809],[-1.562636,52.37803]]},"properties":{"name":"Gibbet Hill Road","maxspeed":"20 mph","highway":"tertiary","profile":"bus","distance":"10401.54","time":"1089.131"}},{"type":"Feature","name":"ShapeMeta","geometry":{"type":"LineString","coordinates":[[-1.562636,52.37803],[-1.562594,52.3779]]},"properties":{"name":"Gibbet Hill Road","maxspeed":"20 mph","highway":"tertiary","profile":"bus","distance":"10416.24","time":"1091.323"}},{"type":"Feature","name":"ShapeMeta","geometry":{"type":"LineString","coordinates":[[-1.562594,52.3779],[-1.562568,52.37778],[-1.562557,52.37729],[-1.562539,52.37719],[-1.562477,52.37701],[-1.562302,52.37681],[-1.562178,52.37671]]},"properties":{"name":"Gibbet Hill Road","maxspeed":"30 mph","highway":"tertiary","profile":"bus","distance":"10555.14","time":"1105.133"}},{"type":"Feature","name":"ShapeMeta","geometry":{"type":"LineString","coordinates":[[-1.562178,52.37671],[-1.56187,52.37664]]},"properties":{"name":"Gibbet Hill Road","oneway":"yes","highway":"tertiary","profile":"bus","distance":"10577.34","time":"1106.275"}},{"type":"Feature","name":"ShapeMeta","geometry":{"type":"LineString","coordinates":[[-1.56187,52.37664],[-1.561812,52.37665],[-1.561752,52.37665]]},"properties":{"maxspeed":"30 mph","highway":"tertiary","junction":"roundabout","profile":"bus","distance":"10585.44","time":"1107.08"}},{"type":"Feature","name":"ShapeMeta","geometry":{"type":"LineString","coordinates":[[-1.561752,52.37665],[-1.561673,52.37663],[-1.561616,52.37658]]},"properties":{"maxspeed":"30 mph","highway":"tertiary","junction":"roundabout","profile":"bus","distance":"10597.34","time":"1108.263"}},{"type":"Feature","name":"ShapeMeta","geometry":{"type":"LineString","coordinates":[[-1.561616,52.37658],[-1.561602,52.37656],[-1.561594,52.37654],[-1.561592,52.37652]]},"properties":{"maxspeed":"30 mph","highway":"tertiary","junction":"roundabout","profile":"bus","distance":"10604.74","time":"1108.999"}},{"type":"Feature","name":"ShapeMeta","geometry":{"type":"LineString","coordinates":[[-1.561592,52.37652],[-1.561351,52.37639]]},"properties":{"name":"Gibbet Hill Road","oneway":"yes","highway":"tertiary","profile":"bus","distance":"10626.24","time":"1110.104"}},{"type":"Feature","name":"ShapeMeta","geometry":{"type":"LineString","coordinates":[[-1.561351,52.37639],[-1.561048,52.3763],[-1.560689,52.37619],[-1.559997,52.37593]]},"properties":{"name":"Gibbet Hill Road","highway":"tertiary","maxspeed":"40 mph","profile":"bus","distance":"10731.54","time":"1117.956"}},{"type":"Feature","name":"ShapeMeta","geometry":{"type":"LineString","coordinates":[[-1.559997,52.37593],[-1.559836,52.37587],[-1.559755,52.37583]]},"properties":{"name":"Gibbet Hill Road","highway":"tertiary","maxspeed":"40 mph","profile":"bus","distance":"10751.24","time":"1119.425"}},{"type":"Feature","name":"ShapeMeta","geometry":{"type":"LineString","coordinates":[[-1.559755,52.37583],[-1.559394,52.37569],[-1.558967,52.37552]]},"properties":{"name":"Gibbet Hill Road","highway":"tertiary","maxspeed":"40 mph","profile":"bus","distance":"10814.84","time":"1124.167"}},{"type":"Feature","name":"ShapeMeta","geometry":{"type":"LineString","coordinates":[[-1.558967,52.37552],[-1.558884,52.37549],[-1.55851,52.37539],[-1.556868,52.37503],[-1.556361,52.37487],[-1.555912,52.37471],[-1.55559,52.37461],[-1.554134,52.37424],[-1.553931,52.37418]]},"properties":{"name":"Gibbet Hill Road","highway":"tertiary","maxspeed":"40 mph","profile":"bus","distance":"11188.84","time":"1152.054"}},{"type":"Feature","name":"ShapeMeta","geometry":{"type":"LineString","coordinates":[[-1.553931,52.37418],[-1.553724,52.37411],[-1.553251,52.37394]]},"properties":{"name":"Gibbet Hill Road","highway":"tertiary","maxspeed":"40 mph","profile":"bus","distance":"11241.94","time":"1156.013"}},{"type":"Feature","name":"ShapeMeta","geometry":{"type":"LineString","coordinates":[[-1.553251,52.37394],[-1.552744,52.37371],[-1.552441,52.37355],[-1.552018,52.37329],[-1.55194,52.37323]]},"properties":{"name":"Gibbet Hill Road","highway":"tertiary","maxspeed":"40 mph","profile":"bus","distance":"11360.94","time":"1164.887"}},{"type":"Feature","name":"ShapeMeta","geometry":{"type":"LineString","coordinates":[[-1.55194,52.37323],[-1.551752,52.37305],[-1.551617,52.37288],[-1.551479,52.37267],[-1.55126,52.37227]]},"properties":{"name":"Gibbet Hill Road","highway":"tertiary","maxspeed":"40 mph","profile":"bus","distance":"11477.74","time":"1173.596"}},{"type":"Feature","name":"ShapeMeta","geometry":{"type":"LineString","coordinates":[[-1.55126,52.37227],[-1.551003,52.37179],[-1.550821,52.37148],[-1.550644,52.37126],[-1.550429,52.37109],[-1.550112,52.37091],[-1.550071,52.37089]]},"properties":{"name":"Gibbet Hill Road","highway":"tertiary","maxspeed":"40 mph","profile":"bus","distance":"11654.74","time":"1186.794"}},{"type":"Feature","name":"ShapeMeta","geometry":{"type":"LineString","coordinates":[[-1.550071,52.37089],[-1.550011,52.37092],[-1.549938,52.37092],[-1.549869,52.37091]]},"properties":{"name":"Kenilworth Road","highway":"primary","junction":"roundabout","profile":"bus","distance":"11669.74","time":"1187.394"}},{"type":"Feature","name":"ShapeMeta","geometry":{"type":"LineString","coordinates":[[-1.549869,52.37091],[-1.54982,52.37087],[-1.549808,52.37082],[-1.549836,52.37078]]},"properties":{"name":"Kenilworth Road","highway":"primary","junction":"roundabout","profile":"bus","distance":"11685.64","time":"1188.03"}},{"type":"Feature","name":"ShapeMeta","geometry":{"type":"LineString","coordinates":[[-1.549836,52.37078],[-1.549889,52.37075],[-1.549957,52.37074],[-1.550025,52.37075]]},"properties":{"name":"Kenilworth Road","highway":"primary","junction":"roundabout","profile":"bus","distance":"11699.64","time":"1188.59"}},{"type":"Feature","name":"ShapeMeta","geometry":{"type":"LineString","coordinates":[[-1.550025,52.37075],[-1.55014,52.37062],[-1.550196,52.37056]]},"properties":{"name":"Kenilworth Road","highway":"primary","maxspeed":"50 mph","profile":"bus","distance":"11723.59","time":"1190.018"}},{"type":"Feature","name":"ShapeMeta","geometry":{"type":"LineString","coordinates":[[-1.550196,52.37056],[-1.55014,52.37062],[-1.550025,52.37075]]},"properties":{"name":"Kenilworth Road","highway":"primary","maxspeed":"50 mph","profile":"bus","distance":"11747.54","time":"1191.446"}},{"type":"Feature","name":"ShapeMeta","geometry":{"type":"LineString","coordinates":[[-1.550025,52.37075],[-1.550075,52.37078],[-1.550103,52.37082],[-1.550101,52.37085],[-1.550071,52.37089]]},"properties":{"name":"Kenilworth Road","highway":"primary","junction":"roundabout","profile":"bus","distance":"11765.63","time":"1192.17"}},{"type":"Feature","name":"ShapeMeta","geometry":{"type":"LineString","coordinates":[[-1.550071,52.37089],[-1.550011,52.37092],[-1.549938,52.37092],[-1.549869,52.37091]]},"properties":{"name":"Kenilworth Road","highway":"primary","junction":"roundabout","profile":"bus","distance":"11780.63","time":"1192.77"}},{"type":"Feature","name":"ShapeMeta","geometry":{"type":"LineString","coordinates":[[-1.549869,52.37091],[-1.54982,52.37087],[-1.549808,52.37082],[-1.549836,52.37078]]},"properties":{"name":"Kenilworth Road","highway":"primary","junction":"roundabout","profile":"bus","distance":"11796.54","time":"1193.406"}},{"type":"Feature","name":"ShapeMeta","geometry":{"type":"LineString","coordinates":[[-1.549836,52.37078],[-1.549889,52.37075],[-1.549957,52.37074],[-1.550025,52.37075]]},"properties":{"name":"Kenilworth Road","highway":"primary","junction":"roundabout","profile":"bus","distance":"11810.54","time":"1193.966"}},{"type":"Feature","name":"ShapeMeta","geometry":{"type":"LineString","coordinates":[[-1.550025,52.37075],[-1.55014,52.37062],[-1.551853,52.36882],[-1.552835,52.36777]]},"properties":{"name":"Kenilworth Road","highway":"primary","maxspeed":"50 mph","profile":"bus","distance":"12192.43","time":"1216.747"}},{"type":"Feature","name":"ShapeMeta","geometry":{"type":"LineString","coordinates":[[-1.552835,52.36777],[-1.553891,52.36662],[-1.555643,52.36478],[-1.55615,52.36431],[-1.556587,52.36403],[-1.557224,52.36365],[-1.559287,52.36244],[-1.559713,52.36218]]},"properties":{"name":"Kenilworth Road","highway":"primary","maxspeed":"50 mph","profile":"bus","distance":"12977.13","time":"1263.556"}},{"type":"Feature","name":"ShapeMeta","geometry":{"type":"LineString","coordinates":[[-1.559713,52.36218],[-1.560043,52.36198]]},"properties":{"name":"Kenilworth Road","highway":"primary","maxspeed":"50 mph","profile":"bus","distance":"13008.53","time":"1265.429"}},{"type":"Feature","name":"ShapeMeta","geometry":{"type":"LineString","coordinates":[[-1.560043,52.36198],[-1.560494,52.36172],[-1.560959,52.36153],[-1.561343,52.3614]]},"properties":{"name":"Coventry Road","highway":"primary","maxspeed":"50 mph","profile":"bus","distance":"13118.73","time":"1272.002"}},{"type":"Feature","name":"ShapeMeta","geometry":{"type":"LineString","coordinates":[[-1.561343,52.3614],[-1.561485,52.36137]]},"properties":{"bridge":"yes","name":"Coventry Road","highway":"primary","maxspeed":"50 mph","profile":"bus","distance":"13129.03","time":"1272.617"}},{"type":"Feature","name":"ShapeMeta","geometry":{"type":"LineString","coordinates":[[-1.561485,52.36137],[-1.562052,52.36122]]},"properties":{"name":"Coventry Road","highway":"primary","maxspeed":"50 mph","profile":"bus","distance":"13170.83","time":"1275.11"}},{"type":"Feature","name":"ShapeMeta","geometry":{"type":"LineString","coordinates":[[-1.562052,52.36122],[-1.562355,52.36114],[-1.56268,52.36104],[-1.563023,52.3609],[-1.563296,52.36076],[-1.563597,52.36054],[-1.563907,52.36021],[-1.564094,52.3599],[-1.564201,52.35973]]},"properties":{"name":"Coventry Road","highway":"primary","profile":"bus","distance":"13401.23","time":"1284.326"}},{"type":"Feature","name":"ShapeMeta","geometry":{"type":"LineString","coordinates":[[-1.564201,52.35973],[-1.564318,52.35959],[-1.564445,52.35948],[-1.564734,52.35926]]},"properties":{"name":"Coventry Road","highway":"primary","profile":"bus","distance":"13464.93","time":"1286.874"}},{"type":"Feature","name":"ShapeMeta","geometry":{"type":"LineString","coordinates":[[-1.564734,52.35926],[-1.56495,52.3591]]},"properties":{"name":"Coventry Road","highway":"primary","profile":"bus","distance":"13487.63","time":"1287.782"}},{"type":"Feature","name":"ShapeMeta","geometry":{"type":"LineString","coordinates":[[-1.56495,52.3591],[-1.565248,52.35888]]},"properties":{"name":"Coventry Road","highway":"primary","profile":"bus","distance":"13519.43","time":"1289.054"}},{"type":"Feature","name":"ShapeMeta","geometry":{"type":"LineString","coordinates":[[-1.565248,52.35888],[-1.565307,52.35884]]},"properties":{"name":"Coventry Road","highway":"primary","profile":"bus","distance":"13525.53","time":"1289.298"}},{"type":"Feature","name":"ShapeMeta","geometry":{"type":"LineString","coordinates":[[-1.565307,52.35884],[-1.5654,52.35877]]},"properties":{"name":"Coventry Road","highway":"primary","profile":"bus","distance":"13535.31","time":"1289.689"}},{"type":"Feature","name":"ShapeMeta","geometry":{"type":"LineString","coordinates":[[-1.5654,52.35877],[-1.565697,52.35856]]},"properties":{"name":"Coventry Road","highway":"primary","profile":"bus","distance":"13566.53","time":"1290.938"}},{"type":"Feature","name":"ShapeMeta","geometry":{"type":"LineString","coordinates":[[-1.565697,52.35856],[-1.567003,52.35759]]},"properties":{"name":"Coventry Road","highway":"primary","profile":"bus","distance":"13706.03","time":"1296.518"}},{"type":"Feature","name":"ShapeMeta","geometry":{"type":"LineString","coordinates":[[-1.567003,52.35759],[-1.56763,52.35713]]},"properties":{"name":"Coventry Road","highway":"primary","profile":"bus","distance":"13772.73","time":"1299.186"}},{"type":"Feature","name":"ShapeMeta","geometry":{"type":"LineString","coordinates":[[-1.56763,52.35713],[-1.567764,52.35703]]},"properties":{"name":"Coventry Road","highway":"primary","profile":"bus","distance":"13786.89","time":"1299.752"}},{"type":"Feature","name":"ShapeMeta","geometry":{"type":"LineString","coordinates":[[-1.567764,52.35703],[-1.567923,52.35691],[-1.568788,52.35631]]},"properties":{"name":"Coventry Road","highway":"primary","profile":"bus","distance":"13893.14","time":"1304.002"}},{"type":"Feature","name":"ShapeMeta","geometry":{"type":"LineString","coordinates":[[-1.568788,52.35631],[-1.56894,52.35622],[-1.56921,52.3561],[-1.570869,52.35553]]},"properties":{"name":"Coventry Road","highway":"primary","profile":"bus","distance":"14059.54","time":"1310.658"}},{"type":"Feature","name":"ShapeMeta","geometry":{"type":"LineString","coordinates":[[-1.570869,52.35553],[-1.572246,52.35504],[-1.573424,52.35462],[-1.573777,52.3545]]},"properties":{"name":"Coventry Road","highway":"primary","profile":"bus","distance":"14287.54","time":"1319.778"}},{"type":"Feature","name":"ShapeMeta","geometry":{"type":"LineString","coordinates":[[-1.573777,52.3545],[-1.574415,52.35427],[-1.574916,52.3541]]},"properties":{"name":"Coventry Road","highway":"primary","profile":"bus","distance":"14376.54","time":"1323.338"}},{"type":"Feature","name":"ShapeMeta","geometry":{"type":"LineString","coordinates":[[-1.574916,52.3541],[-1.575336,52.35395]]},"properties":{"name":"Coventry Road","highway":"primary","profile":"bus","distance":"14409.44","time":"1324.654"}},{"type":"Feature","name":"ShapeMeta","geometry":{"type":"LineString","coordinates":[[-1.575336,52.35395],[-1.575539,52.35387]]},"properties":{"name":"Coventry Road","highway":"primary","profile":"bus","distance":"14425.84","time":"1325.31"}},{"type":"Feature","name":"ShapeMeta","geometry":{"type":"LineString","coordinates":[[-1.575539,52.35387],[-1.575823,52.35374]]},"properties":{"name":"Coventry Road","highway":"primary","profile":"bus","distance":"14450.44","time":"1326.294"}},{"type":"Feature","name":"ShapeMeta","geometry":{"type":"LineString","coordinates":[[-1.575823,52.35374],[-1.576,52.35363],[-1.576094,52.35357]]},"properties":{"name":"Coventry Road","highway":"primary","profile":"bus","distance":"14476.97","time":"1327.355"}},{"type":"Feature","name":"ShapeMeta","geometry":{"type":"LineString","coordinates":[[-1.576094,52.35357],[-1.577005,52.35293],[-1.577322,52.35271]]},"properties":{"name":"Coventry Road","highway":"primary","profile":"bus","distance":"14603.33","time":"1332.409"}},{"type":"Feature","name":"ShapeMeta","geometry":{"type":"LineString","coordinates":[[-1.577322,52.35271],[-1.577606,52.35252],[-1.577798,52.35237],[-1.577931,52.3522]]},"properties":{"name":"Coventry Road","highway":"primary","profile":"bus","distance":"14674.43","time":"1335.253"}},{"type":"Feature","name":"ShapeMeta","geometry":{"type":"LineString","coordinates":[[-1.577931,52.3522],[-1.577989,52.35205],[-1.578031,52.35173],[-1.578071,52.35156]]},"properties":{"name":"Coventry Road","highway":"primary","profile":"bus","distance":"14745.63","time":"1338.101"}},{"type":"Feature","name":"ShapeMeta","geometry":{"type":"LineString","coordinates":[[-1.578071,52.35156],[-1.578104,52.35149],[-1.578224,52.35136],[-1.578316,52.35128]]},"properties":{"name":"Coventry Road","highway":"primary","profile":"bus","distance":"14781.33","time":"1339.529"}},{"type":"Feature","name":"ShapeMeta","geometry":{"type":"LineString","coordinates":[[-1.578316,52.35128],[-1.578189,52.35131],[-1.578096,52.35136]]},"properties":{"name":"Manor Road","oneway":"yes","highway":"tertiary","profile":"bus","distance":"14798.99","time":"1340.438"}},{"type":"Feature","name":"ShapeMeta","geometry":{"type":"LineString","coordinates":[[-1.578096,52.35136],[-1.57809,52.35136],[-1.577801,52.35155]]},"properties":{"name":"Manor Road","oneway":"yes","highway":"tertiary","profile":"bus","distance":"14828.33","time":"1341.947"}},{"type":"Feature","name":"ShapeMeta","geometry":{"type":"LineString","coordinates":[[-1.577801,52.35155],[-1.577865,52.35154],[-1.578019,52.35155],[-1.578071,52.35156]]},"properties":{"name":"Manor Road","highway":"tertiary","profile":"bus","distance":"14847.03","time":"1342.909"}},{"type":"Feature","name":"ShapeMeta","geometry":{"type":"LineString","coordinates":[[-1.578071,52.35156],[-1.578104,52.35149],[-1.578224,52.35136],[-1.578316,52.35128]]},"properties":{"name":"Coventry Road","highway":"primary","profile":"bus","distance":"14882.73","time":"1344.337"}},{"type":"Feature","name":"ShapeMeta","geometry":{"type":"LineString","coordinates":[[-1.578316,52.35128],[-1.578423,52.35123],[-1.579087,52.35092],[-1.579853,52.35042],[-1.580091,52.3503],[-1.580362,52.35021],[-1.581053,52.34999]]},"properties":{"name":"New Street","highway":"primary","profile":"bus","distance":"15119.63","time":"1353.813"}},{"type":"Feature","name":"ShapeMeta","geometry":{"type":"LineString","coordinates":[[-1.581053,52.34999],[-1.580532,52.34943],[-1.580352,52.34926]]},"properties":{"name":"Bridge Street","highway":"primary","profile":"bus","distance":"15213.23","time":"1357.557"}},{"type":"Feature","name":"ShapeMeta","geometry":{"type":"LineString","coordinates":[[-1.580352,52.34926],[-1.580081,52.34898]]},"properties":{"name":"Bridge Street","highway":"primary","profile":"bus","distance":"15249.93","time":"1359.025"}},{"type":"Feature","name":"ShapeMeta","geometry":{"type":"LineString","coordinates":[[-1.580081,52.34898],[-1.580017,52.34892]]},"properties":{"name":"Bridge Street","highway":"primary","profile":"bus","distance":"15257.53","time":"1359.329"}},{"type":"Feature","name":"ShapeMeta","geometry":{"type":"LineString","coordinates":[[-1.580017,52.34892],[-1.579883,52.34879],[-1.579806,52.34871],[-1.579737,52.34864]]},"properties":{"name":"Bridge Street","highway":"primary","profile":"bus","distance":"15293.83","time":"1360.781"}},{"type":"Feature","name":"ShapeMeta","geometry":{"type":"LineString","coordinates":[[-1.579737,52.34864],[-1.579395,52.34831]]},"properties":{"bridge":"yes","name":"Bridge Street","highway":"primary","profile":"bus","distance":"15337.33","time":"1362.521"}},{"type":"Feature","name":"ShapeMeta","geometry":{"type":"LineString","coordinates":[[-1.579395,52.34831],[-1.579242,52.34816]]},"properties":{"name":"Rosemary Hill","highway":"primary","profile":"bus","distance":"15356.55","time":"1363.29"}},{"type":"Feature","name":"ShapeMeta","geometry":{"type":"LineString","coordinates":[[-1.579242,52.34816],[-1.579056,52.34799],[-1.578823,52.34778]]},"properties":{"name":"Rosemary Hill","highway":"primary","profile":"bus","distance":"15407.93","time":"1365.345"}},{"type":"Feature","name":"ShapeMeta","geometry":{"type":"LineString","coordinates":[[-1.578823,52.34778],[-1.577976,52.34708],[-1.577829,52.34687],[-1.577807,52.34679],[-1.577814,52.34669]]},"properties":{"name":"Rosemary Hill","highway":"primary","profile":"bus","distance":"15549.53","time":"1371.009"}},{"type":"Feature","name":"ShapeMeta","geometry":{"type":"LineString","coordinates":[[-1.577814,52.34669],[-1.577854,52.34663],[-1.578215,52.34637],[-1.578222,52.34637]]},"properties":{"name":"Abbey Hill","maxspeed":"30 mph","highway":"secondary","profile":"bus","distance":"15595.34","time":"1375.564"}},{"type":"Feature","name":"ShapeMeta","geometry":{"type":"LineString","coordinates":[[-1.578222,52.34637],[-1.578486,52.3462]]},"properties":{"name":"Abbey Hill","maxspeed":"30 mph","highway":"secondary","profile":"bus","distance":"15621.23","time":"1378.138"}},{"type":"Feature","name":"ShapeMeta","geometry":{"type":"LineString","coordinates":[[-1.578486,52.3462],[-1.578821,52.34602],[-1.57917,52.34583]]},"properties":{"name":"Abbey Hill","maxspeed":"30 mph","highway":"secondary","profile":"bus","distance":"15683.23","time":"1384.302"}},{"type":"Feature","name":"ShapeMeta","geometry":{"type":"LineString","coordinates":[[-1.57917,52.34583],[-1.579401,52.34573],[-1.579865,52.34554],[-1.581363,52.34496],[-1.581391,52.34494]]},"properties":{"name":"Abbey Hill","maxspeed":"30 mph","highway":"secondary","profile":"bus","distance":"15864.33","time":"1402.307"}},{"type":"Feature","name":"ShapeMeta","geometry":{"type":"LineString","coordinates":[[-1.581391,52.34494],[-1.581412,52.34491],[-1.581389,52.34484],[-1.581321,52.34479],[-1.580952,52.34456],[-1.580811,52.34447]]},"properties":{"name":"Abbey End","maxspeed":"30 mph","highway":"secondary","profile":"bus","distance":"15932.63","time":"1409.097"}},{"type":"Feature","name":"ShapeMeta","geometry":{"type":"LineString","coordinates":[[-1.580811,52.34447],[-1.580779,52.34444],[-1.580649,52.34435]]},"properties":{"name":"Abbey End","maxspeed":"30 mph","highway":"secondary","profile":"bus","distance":"15949.43","time":"1410.767"}},{"type":"Feature","name":"ShapeMeta","geometry":{"type":"LineString","coordinates":[[-1.580649,52.34435],[-1.580602,52.34431],[-1.580488,52.3442],[-1.580431,52.34415]]},"properties":{"name":"Abbey End","maxspeed":"30 mph","highway":"secondary","profile":"bus","distance":"15976.23","time":"1413.432"}},{"type":"Feature","name":"ShapeMeta","geometry":{"type":"LineString","coordinates":[[-1.580431,52.34415],[-1.580298,52.34414],[-1.580184,52.34412],[-1.579945,52.34386]]},"properties":{"highway":"service","oneway":"yes","profile":"bus","distance":"16026.9","time":"1419.512"}},{"type":"Feature","name":"ShapeMeta","geometry":{"type":"LineString","coordinates":[[-1.579945,52.34386],[-1.579886,52.34379],[-1.579857,52.34374],[-1.579876,52.34369],[-1.579914,52.34364],[-1.579954,52.34362]]},"properties":{"highway":"service","oneway":"yes","profile":"bus","distance":"16056.63","time":"1423.079"}},{"type":"Feature","name":"ShapeMeta","geometry":{"type":"LineString","coordinates":[[-1.579954,52.34362],[-1.579955,52.34361]]},"properties":{"highway":"secondary","junction":"roundabout","profile":"bus","distance":"16058.73","time":"1423.187"}},{"type":"Feature","name":"ShapeMeta","geometry":{"type":"LineString","coordinates":[[-1.579955,52.34361],[-1.579906,52.34355],[-1.579768,52.34334],[-1.579695,52.34321]]},"properties":{"name":"The Square","oneway":"yes","highway":"secondary","profile":"bus","distance":"16106.33","time":"1425.635"}},{"type":"Feature","name":"ShapeMeta","geometry":{"type":"LineString","coordinates":[[-1.579695,52.34321],[-1.579576,52.34307],[-1.579254,52.34274],[-1.579093,52.34258]]},"properties":{"name":"The Square","maxspeed":"30 mph","highway":"secondary","profile":"bus","distance":"16187.03","time":"1433.659"}},{"type":"Feature","name":"ShapeMeta","geometry":{"type":"LineString","coordinates":[[-1.579093,52.34258],[-1.578998,52.34249],[-1.578531,52.34206],[-1.578514,52.34205]]},"properties":{"name":"Warwick Road","maxspeed":"30 mph","highway":"secondary","profile":"bus","distance":"16258.23","time":"1440.737"}},{"type":"Feature","name":"ShapeMeta","geometry":{"type":"LineString","coordinates":[[-1.578514,52.34205],[-1.578317,52.34186],[-1.578213,52.34176]]},"properties":{"name":"Warwick Road","maxspeed":"30 mph","highway":"secondary","profile":"bus","distance":"16296.03","time":"1444.495"}},{"type":"Feature","name":"ShapeMeta","geometry":{"type":"LineString","coordinates":[[-1.578213,52.34176],[-1.578155,52.34171]]},"properties":{"name":"Warwick Road","maxspeed":"30 mph","highway":"secondary","profile":"bus","distance":"16303.13","time":"1445.201"}},{"type":"Feature","name":"ShapeMeta","geometry":{"type":"LineString","coordinates":[[-1.578155,52.34171],[-1.578035,52.34159],[-1.577933,52.3415]]},"properties":{"name":"Warwick Road","maxspeed":"30 mph","highway":"secondary","profile":"bus","distance":"16330.82","time":"1447.954"}},{"type":"Feature","name":"ShapeMeta","geometry":{"type":"LineString","coordinates":[[-1.577933,52.3415],[-1.577864,52.34143]]},"properties":{"name":"Warwick Road","maxspeed":"30 mph","highway":"secondary","profile":"bus","distance":"16339.43","time":"1448.81"}},{"type":"Feature","name":"ShapeMeta","geometry":{"type":"LineString","coordinates":[[-1.577864,52.34143],[-1.577752,52.34132]]},"properties":{"name":"Warwick Road","maxspeed":"30 mph","highway":"secondary","profile":"bus","distance":"16354.53","time":"1450.311"}},{"type":"Feature","name":"ShapeMeta","geometry":{"type":"LineString","coordinates":[[-1.577752,52.34132],[-1.57766,52.34122]]},"properties":{"name":"Warwick Road","maxspeed":"30 mph","highway":"secondary","profile":"bus","distance":"16366.43","time":"1451.494"}},{"type":"Feature","name":"ShapeMeta","geometry":{"type":"LineString","coordinates":[[-1.57766,52.34122],[-1.577353,52.34094]]},"properties":{"name":"Warwick Road","maxspeed":"30 mph","highway":"secondary","profile":"bus","distance":"16404.43","time":"1455.272"}},{"type":"Feature","name":"ShapeMeta","geometry":{"type":"LineString","coordinates":[[-1.577353,52.34094],[-1.576985,52.34057]]},"properties":{"name":"Warwick Road","maxspeed":"30 mph","highway":"secondary","profile":"bus","distance":"16452.53","time":"1460.054"}},{"type":"Feature","name":"ShapeMeta","geometry":{"type":"LineString","coordinates":[[-1.576985,52.34057],[-1.576725,52.34031]]},"properties":{"name":"Warwick Road","maxspeed":"30 mph","highway":"secondary","profile":"bus","distance":"16486.23","time":"1463.405"}},{"type":"Feature","name":"ShapeMeta","geometry":{"type":"LineString","coordinates":[[-1.576725,52.34031],[-1.576244,52.33986]]},"properties":{"name":"Warwick Road","maxspeed":"30 mph","highway":"secondary","profile":"bus","distance":"16546.33","time":"1469.38"}},{"type":"Feature","name":"ShapeMeta","geometry":{"type":"LineString","coordinates":[[-1.576244,52.33986],[-1.57605,52.33966]]},"properties":{"name":"Warwick Road","maxspeed":"30 mph","highway":"primary","profile":"bus","distance":"16571.23","time":"1471.855"}},{"type":"Feature","name":"ShapeMeta","geometry":{"type":"LineString","coordinates":[[-1.57605,52.33966],[-1.576002,52.33962]]},"properties":{"name":"Warwick Road","maxspeed":"30 mph","highway":"primary","profile":"bus","distance":"16577.23","time":"1472.452"}},{"type":"Feature","name":"ShapeMeta","geometry":{"type":"LineString","coordinates":[[-1.576002,52.33962],[-1.57594,52.33955]]},"properties":{"name":"Warwick Road","maxspeed":"30 mph","highway":"primary","profile":"bus","distance":"16585.53","time":"1473.277"}},{"type":"Feature","name":"ShapeMeta","geometry":{"type":"LineString","coordinates":[[-1.57594,52.33955],[-1.575536,52.33917],[-1.575354,52.339]]},"properties":{"name":"Warwick Road","maxspeed":"30 mph","highway":"primary","profile":"bus","distance":"16658.73","time":"1480.555"}},{"type":"Feature","name":"ShapeMeta","geometry":{"type":"LineString","coordinates":[[-1.575354,52.339],[-1.575224,52.33888]]},"properties":{"name":"Warwick Road","maxspeed":"30 mph","highway":"primary","profile":"bus","distance":"16674.83","time":"1482.155"}},{"type":"Feature","name":"ShapeMeta","geometry":{"type":"LineString","coordinates":[[-1.575224,52.33888],[-1.57507,52.33873]]},"properties":{"name":"Warwick Road","maxspeed":"30 mph","highway":"primary","profile":"bus","distance":"16694.03","time":"1484.064"}},{"type":"Feature","name":"ShapeMeta","geometry":{"type":"LineString","coordinates":[[-1.57507,52.33873],[-1.574999,52.33875]]},"properties":{"highway":"service","profile":"bus","distance":"16699.38","time":"1484.705"}},{"type":"Feature","name":"ShapeMeta","geometry":{"type":"LineString","coordinates":[[-1.574999,52.33875],[-1.57507,52.33873]]},"properties":{"highway":"service","profile":"bus","distance":"16704.72","time":"1485.346"}},{"type":"Feature","name":"ShapeMeta","geometry":{"type":"LineString","coordinates":[[-1.57507,52.33873],[-1.575002,52.33867]]},"properties":{"name":"Warwick Road","maxspeed":"30 mph","highway":"primary","profile":"bus","distance":"16713.62","time":"1486.231"}},{"type":"Feature","name":"ShapeMeta","geometry":{"type":"LineString","coordinates":[[-1.575002,52.33867],[-1.574834,52.3385]]},"properties":{"name":"Warwick Road","maxspeed":"30 mph","highway":"primary","profile":"bus","distance":"16734.72","time":"1488.329"}},{"type":"Feature","name":"ShapeMeta","geometry":{"type":"LineString","coordinates":[[-1.574834,52.3385],[-1.574581,52.33827]]},"properties":{"name":"Warwick Road","maxspeed":"30 mph","highway":"primary","profile":"bus","distance":"16765.72","time":"1491.411"}},{"type":"Feature","name":"ShapeMeta","geometry":{"type":"LineString","coordinates":[[-1.574581,52.33827],[-1.574306,52.33801],[-1.573999,52.33772],[-1.573696,52.33744]]},"properties":{"name":"Warwick Road","maxspeed":"30 mph","highway":"primary","profile":"bus","distance":"16876.02","time":"1502.377"}},{"type":"Feature","name":"ShapeMeta","geometry":{"type":"LineString","coordinates":[[-1.573696,52.33744],[-1.573635,52.33738]]},"properties":{"name":"Warwick Road","maxspeed":"30 mph","highway":"primary","profile":"bus","distance":"16883.62","time":"1503.132"}},{"type":"Feature","name":"ShapeMeta","geometry":{"type":"LineString","coordinates":[[-1.573635,52.33738],[-1.573566,52.33731],[-1.573309,52.33706],[-1.573211,52.33695]]},"properties":{"name":"Warwick Road","maxspeed":"30 mph","highway":"primary","profile":"bus","distance":"16939.45","time":"1508.682"}},{"type":"Feature","name":"ShapeMeta","geometry":{"type":"LineString","coordinates":[[-1.573211,52.33695],[-1.573157,52.33689]]},"properties":{"name":"Warwick Road","maxspeed":"30 mph","highway":"primary","profile":"bus","distance":"16946.82","time":"1509.415"}},{"type":"Feature","name":"ShapeMeta","geometry":{"type":"LineString","coordinates":[[-1.573157,52.33689],[-1.573106,52.33684]]},"properties":{"name":"Warwick Road","maxspeed":"30 mph","highway":"primary","profile":"bus","distance":"16954.02","time":"1510.131"}},{"type":"Feature","name":"ShapeMeta","geometry":{"type":"LineString","coordinates":[[-1.573106,52.33684],[-1.573091,52.33682]]},"properties":{"name":"Warwick Road","maxspeed":"30 mph","highway":"primary","profile":"bus","distance":"16955.92","time":"1510.32"}},{"type":"Feature","name":"ShapeMeta","geometry":{"type":"LineString","coordinates":[[-1.573091,52.33682],[-1.572952,52.3367],[-1.572529,52.33652],[-1.572435,52.33649]]},"properties":{"maxspeed":"30 mph","oneway":"yes","highway":"primary","profile":"bus","distance":"17014.92","time":"1516.186"}},{"type":"Feature","name":"ShapeMeta","geometry":{"type":"LineString","coordinates":[[-1.572435,52.33649],[-1.572361,52.33648],[-1.572217,52.33645],[-1.572156,52.33644]]},"properties":{"maxspeed":"30 mph","oneway":"yes","highway":"primary","profile":"bus","distance":"17034.62","time":"1518.144"}},{"type":"Feature","name":"ShapeMeta","geometry":{"type":"LineString","coordinates":[[-1.572156,52.33644],[-1.572093,52.33642]]},"properties":{"bridge":"yes","maxspeed":"30 mph","oneway":"yes","highway":"primary","profile":"bus","distance":"17039.32","time":"1518.611"}},{"type":"Feature","name":"ShapeMeta","geometry":{"type":"LineString","coordinates":[[-1.572093,52.33642],[-1.572,52.33639],[-1.571937,52.33636],[-1.571783,52.33628]]},"properties":{"bridge":"yes","maxspeed":"30 mph","oneway":"yes","highway":"primary","profile":"bus","distance":"17065.52","time":"1521.216"}},{"type":"Feature","name":"ShapeMeta","geometry":{"type":"LineString","coordinates":[[-1.571783,52.33628],[-1.571625,52.33619],[-1.571528,52.33612]]},"properties":{"maxspeed":"30 mph","oneway":"yes","highway":"primary","profile":"bus","distance":"17090.62","time":"1523.712"}},{"type":"Feature","name":"ShapeMeta","geometry":{"type":"LineString","coordinates":[[-1.571528,52.33612],[-1.57139,52.33603],[-1.570835,52.33562]]},"properties":{"maxspeed":"30 mph","oneway":"yes","highway":"primary","profile":"bus","distance":"17162.83","time":"1530.891"}},{"type":"Feature","name":"ShapeMeta","geometry":{"type":"LineString","coordinates":[[-1.570835,52.33562],[-1.570485,52.33537],[-1.570208,52.33514]]},"properties":{"maxspeed":"30 mph","oneway":"yes","highway":"primary","profile":"bus","distance":"17231.52","time":"1537.72"}},{"type":"Feature","name":"ShapeMeta","geometry":{"type":"LineString","coordinates":[[-1.570208,52.33514],[-1.570018,52.335]]},"properties":{"name":"Leamington Road","maxspeed":"30 mph","highway":"primary","profile":"bus","distance":"17251.82","time":"1539.739"}},{"type":"Feature","name":"ShapeMeta","geometry":{"type":"LineString","coordinates":[[-1.570018,52.335],[-1.569724,52.33479]]},"properties":{"name":"Leamington Road","highway":"primary","maxspeed":"40 mph","profile":"bus","distance":"17282.12","time":"1541.998"}},{"type":"Feature","name":"ShapeMeta","geometry":{"type":"LineString","coordinates":[[-1.569724,52.33479],[-1.56955,52.33467],[-1.568074,52.33374],[-1.567481,52.33344],[-1.567464,52.33344]]},"properties":{"name":"Leamington Road","highway":"primary","maxspeed":"40 mph","profile":"bus","distance":"17497.82","time":"1558.082"}},{"type":"Feature","name":"ShapeMeta","geometry":{"type":"LineString","coordinates":[[-1.567464,52.33344],[-1.567326,52.33337],[-1.56653,52.3331],[-1.56634,52.33302]]},"properties":{"name":"Leamington Road","highway":"primary","maxspeed":"40 mph","profile":"bus","distance":"17587.12","time":"1564.74"}},{"type":"Feature","name":"ShapeMeta","geometry":{"type":"LineString","coordinates":[[-1.56634,52.33302],[-1.566125,52.33292],[-1.565247,52.33241],[-1.56504,52.3323]]},"properties":{"name":"Leamington Road","highway":"primary","maxspeed":"40 mph","profile":"bus","distance":"17706.22","time":"1573.621"}},{"type":"Feature","name":"ShapeMeta","geometry":{"type":"LineString","coordinates":[[-1.56504,52.3323],[-1.564855,52.33222],[-1.564559,52.3321],[-1.5644,52.33205]]},"properties":{"name":"Leamington Road","highway":"primary","maxspeed":"40 mph","profile":"bus","distance":"17758.22","time":"1577.498"}},{"type":"Feature","name":"ShapeMeta","geometry":{"type":"LineString","coordinates":[[-1.5644,52.33205],[-1.564005,52.33193],[-1.563547,52.33183],[-1.563177,52.33178],[-1.563055,52.33178]]},"properties":{"name":"Leamington Road","oneway":"yes","highway":"primary","maxspeed":"40 mph","profile":"bus","distance":"17855.22","time":"1584.731"}},{"type":"Feature","name":"ShapeMeta","geometry":{"type":"LineString","coordinates":[[-1.563055,52.33178],[-1.562948,52.33181],[-1.562897,52.33182],[-1.56282,52.33183]]},"properties":{"name":"Thickthorn Roundabout","highway":"trunk","junction":"roundabout","maxspeed":"40 mph","profile":"bus","distance":"17872.02","time":"1585.984"}},{"type":"Feature","name":"ShapeMeta","geometry":{"type":"LineString","coordinates":[[-1.56282,52.33183],[-1.562671,52.33183],[-1.562382,52.3318],[-1.562121,52.33172],[-1.561972,52.33164]]},"properties":{"name":"Thickthorn Roundabout","highway":"trunk","junction":"roundabout","maxspeed":"40 mph","profile":"bus","distance":"17935.62","time":"1590.726"}},{"type":"Feature","name":"ShapeMeta","geometry":{"type":"LineString","coordinates":[[-1.561972,52.33164],[-1.561188,52.33113]]},"properties":{"name":"Thickthorn Roundabout","bridge":"yes","highway":"trunk","junction":"roundabout","maxspeed":"40 mph","profile":"bus","distance":"18012.92","time":"1596.49"}},{"type":"Feature","name":"ShapeMeta","geometry":{"type":"LineString","coordinates":[[-1.561188,52.33113],[-1.561075,52.33105],[-1.560968,52.33097],[-1.560874,52.33086]]},"properties":{"name":"Thickthorn Roundabout","highway":"trunk","junction":"roundabout","maxspeed":"40 mph","profile":"bus","distance":"18050.02","time":"1599.256"}},{"type":"Feature","name":"ShapeMeta","geometry":{"type":"LineString","coordinates":[[-1.560874,52.33086],[-1.560826,52.33078]]},"properties":{"name":"Thickthorn Roundabout","highway":"trunk","junction":"roundabout","maxspeed":"40 mph","profile":"bus","distance":"18059.82","time":"1599.987"}},{"type":"Feature","name":"ShapeMeta","geometry":{"type":"LineString","coordinates":[[-1.560826,52.33078],[-1.560768,52.33062],[-1.560697,52.33014],[-1.560652,52.32957]]},"properties":{"oneway":"yes","highway":"trunk","maxspeed":"40 mph","profile":"bus","distance":"18194.82","time":"1610.053"}},{"type":"Feature","name":"ShapeMeta","geometry":{"type":"LineString","coordinates":[[-1.560652,52.32957],[-1.560592,52.32938],[-1.560499,52.32913],[-1.560362,52.32888],[-1.560238,52.32869],[-1.559944,52.32833],[-1.559761,52.32815],[-1.559557,52.32797],[-1.558759,52.32731],[-1.558734,52.3273]]},"properties":{"highway":"trunk","maxspeed":"40 mph","profile":"bus","distance":"18483.02","time":"1631.543"}},{"type":"Feature","name":"ShapeMeta","geometry":{"type":"LineString","coordinates":[[-1.558734,52.3273],[-1.558661,52.32726]]},"properties":{"oneway":"yes","highway":"trunk","maxspeed":"40 mph","profile":"bus","distance":"18489.52","time":"1632.027"}},{"type":"Feature","name":"ShapeMeta","geometry":{"type":"LineString","coordinates":[[-1.558661,52.32726],[-1.558591,52.32724],[-1.558509,52.32724],[-1.558354,52.32728],[-1.558247,52.32738]]},"properties":{"oneway":"yes","highway":"secondary","profile":"bus","distance":"18525.32","time":"1633.869"}},{"type":"Feature","name":"ShapeMeta","geometry":{"type":"LineString","coordinates":[[-1.558247,52.32738],[-1.558295,52.32721],[-1.558298,52.32713]]},"properties":{"oneway":"yes","highway":"secondary","profile":"bus","distance":"18553.63","time":"1635.324"}},{"type":"Feature","name":"ShapeMeta","geometry":{"type":"LineString","coordinates":[[-1.558298,52.32713],[-1.558302,52.32701],[-1.558278,52.32697]]},"properties":{"oneway":"yes","highway":"secondary","profile":"bus","distance":"18572.12","time":"1636.275"}},{"type":"Feature","name":"ShapeMeta","geometry":{"type":"LineString","coordinates":[[-1.558278,52.32697],[-1.558113,52.32682],[-1.558007,52.32672]]},"properties":{"oneway":"yes","highway":"trunk","maxspeed":"40 mph","profile":"bus","distance":"18605.32","time":"1638.75"}},{"type":"Feature","name":"ShapeMeta","geometry":{"type":"LineString","coordinates":[[-1.558007,52.32672],[-1.557935,52.32666],[-1.557374,52.32625],[-1.557167,52.32613]]},"properties":{"highway":"trunk","maxspeed":"40 mph","profile":"bus","distance":"18691.92","time":"1645.208"}},{"type":"Feature","name":"ShapeMeta","geometry":{"type":"LineString","coordinates":[[-1.557167,52.32613],[-1.556939,52.32603],[-1.556697,52.32592]]},"properties":{"bridge":"yes","highway":"trunk","maxspeed":"40 mph","profile":"bus","distance":"18731.52","time":"1648.161"}},{"type":"Feature","name":"ShapeMeta","geometry":{"type":"LineString","coordinates":[[-1.556697,52.32592],[-1.556519,52.32586],[-1.555287,52.32547],[-1.554779,52.3253],[-1.554672,52.32526]]},"properties":{"highway":"trunk","maxspeed":"40 mph","profile":"bus","distance":"18887.49","time":"1659.79"}},{"type":"Feature","name":"ShapeMeta","geometry":{"type":"LineString","coordinates":[[-1.554672,52.32526],[-1.554569,52.32523]]},"properties":{"highway":"trunk","maxspeed":"40 mph","profile":"bus","distance":"18895.52","time":"1660.389"}},{"type":"Feature","name":"ShapeMeta","geometry":{"type":"LineString","coordinates":[[-1.554569,52.32523],[-1.554223,52.32512],[-1.55406,52.32507],[-1.553864,52.32502],[-1.55371,52.32502]]},"properties":{"oneway":"yes","highway":"trunk","maxspeed":"40 mph","profile":"bus","distance":"18959.02","time":"1665.124"}},{"type":"Feature","name":"ShapeMeta","geometry":{"type":"LineString","coordinates":[[-1.55371,52.32502],[-1.553671,52.32504],[-1.553616,52.32505]]},"properties":{"highway":"trunk","junction":"roundabout","maxspeed":"40 mph","profile":"bus","distance":"18966.42","time":"1665.675"}},{"type":"Feature","name":"ShapeMeta","geometry":{"type":"LineString","coordinates":[[-1.553616,52.32505],[-1.55353,52.32505],[-1.553405,52.32502],[-1.553337,52.32498],[-1.553288,52.32493],[-1.553279,52.3249]]},"properties":{"highway":"trunk","junction":"roundabout","maxspeed":"40 mph","profile":"bus","distance":"18997.72","time":"1668.009"}},{"type":"Feature","name":"ShapeMeta","geometry":{"type":"LineString","coordinates":[[-1.553279,52.3249],[-1.553277,52.32486],[-1.553279,52.32483]]},"properties":{"highway":"trunk","junction":"roundabout","maxspeed":"40 mph","profile":"bus","distance":"19004.92","time":"1668.546"}},{"type":"Feature","name":"ShapeMeta","geometry":{"type":"LineString","coordinates":[[-1.553279,52.32483],[-1.553244,52.32472],[-1.553198,52.32455],[-1.553187,52.32444]]},"properties":{"oneway":"yes","highway":"trunk","maxspeed":"40 mph","profile":"bus","distance":"19049.02","time":"1671.834"}},{"type":"Feature","name":"ShapeMeta","geometry":{"type":"LineString","coordinates":[[-1.553187,52.32444],[-1.553148,52.32436],[-1.553005,52.32414],[-1.552884,52.324]]},"properties":{"name":"Kenilworth Road","highway":"trunk","maxspeed":"40 mph","profile":"bus","distance":"19102.12","time":"1675.794"}},{"type":"Feature","name":"ShapeMeta","geometry":{"type":"LineString","coordinates":[[-1.552884,52.324],[-1.552697,52.32386],[-1.552393,52.32367],[-1.551754,52.32334],[-1.551011,52.32299],[-1.548825,52.32185],[-1.548025,52.3214],[-1.54623,52.32059],[-1.545702,52.3203],[-1.544981,52.31987]]},"properties":{"name":"Kenilworth Road","highway":"trunk","maxspeed":"40 mph","profile":"bus","distance":"19809.82","time":"1728.563"}},{"type":"Feature","name":"ShapeMeta","geometry":{"type":"LineString","coordinates":[[-1.544981,52.31987],[-1.544681,52.31969],[-1.544229,52.3194]]},"properties":{"name":"Kenilworth Road","highway":"trunk","maxspeed":"40 mph","profile":"bus","distance":"19882.61","time":"1733.991"}},{"type":"Feature","name":"ShapeMeta","geometry":{"type":"LineString","coordinates":[[-1.544229,52.3194],[-1.544029,52.31928],[-1.54355,52.31894],[-1.542948,52.3185],[-1.542665,52.31826],[-1.542397,52.31802]]},"properties":{"name":"Kenilworth Road","highway":"trunk","maxspeed":"40 mph","profile":"bus","distance":"20080.42","time":"1748.741"}},{"type":"Feature","name":"ShapeMeta","geometry":{"type":"LineString","coordinates":[[-1.542397,52.31802],[-1.54229,52.31793],[-1.542209,52.31785]]},"properties":{"name":"Kenilworth Road","highway":"trunk","maxspeed":"40 mph","profile":"bus","distance":"20103.32","time":"1750.448"}},{"type":"Feature","name":"ShapeMeta","geometry":{"type":"LineString","coordinates":[[-1.542209,52.31785],[-1.541984,52.31763]]},"properties":{"name":"Kenilworth Road","highway":"trunk","maxspeed":"40 mph","profile":"bus","distance":"20132.62","time":"1752.633"}},{"type":"Feature","name":"ShapeMeta","geometry":{"type":"LineString","coordinates":[[-1.541984,52.31763],[-1.541925,52.31757],[-1.541693,52.3173],[-1.54151,52.31707]]},"properties":{"name":"Kenilworth Road","highway":"trunk","maxspeed":"40 mph","profile":"bus","distance":"20202.42","time":"1757.838"}},{"type":"Feature","name":"ShapeMeta","geometry":{"type":"LineString","coordinates":[[-1.54151,52.31707],[-1.541271,52.31675],[-1.541133,52.31656],[-1.540932,52.31623],[-1.540597,52.31556],[-1.540245,52.31458],[-1.539992,52.31371],[-1.539912,52.31337]]},"properties":{"name":"Kenilworth Road","highway":"trunk","maxspeed":"40 mph","profile":"bus","distance":"20629.32","time":"1789.669"}},{"type":"Feature","name":"ShapeMeta","geometry":{"type":"LineString","coordinates":[[-1.539912,52.31337],[-1.539837,52.31306]]},"properties":{"name":"Kenilworth Road","highway":"trunk","maxspeed":"40 mph","profile":"bus","distance":"20664.46","time":"1792.29"}},{"type":"Feature","name":"ShapeMeta","geometry":{"type":"LineString","coordinates":[[-1.539837,52.31306],[-1.539784,52.31284]]},"properties":{"name":"Kenilworth Road","highway":"trunk","maxspeed":"40 mph","profile":"bus","distance":"20689.32","time":"1794.144"}},{"type":"Feature","name":"ShapeMeta","geometry":{"type":"LineString","coordinates":[[-1.539784,52.31284],[-1.539735,52.31273],[-1.539619,52.31261],[-1.539518,52.31254]]},"properties":{"name":"Kenilworth Road","oneway":"yes","highway":"trunk","maxspeed":"40 mph","profile":"bus","distance":"20727.92","time":"1797.022"}},{"type":"Feature","name":"ShapeMeta","geometry":{"type":"LineString","coordinates":[[-1.539518,52.31254],[-1.539484,52.31252],[-1.539456,52.31251]]},"properties":{"highway":"trunk","junction":"roundabout","maxspeed":"40 mph","profile":"bus","distance":"20733.32","time":"1797.424"}},{"type":"Feature","name":"ShapeMeta","geometry":{"type":"LineString","coordinates":[[-1.539456,52.31251],[-1.53942,52.31249],[-1.53935,52.31239],[-1.53935,52.31236]]},"properties":{"highway":"trunk","junction":"roundabout","maxspeed":"40 mph","profile":"bus","distance":"20751.72","time":"1798.797"}},{"type":"Feature","name":"ShapeMeta","geometry":{"type":"LineString","coordinates":[[-1.53935,52.31236],[-1.539353,52.31235],[-1.539387,52.31229],[-1.539403,52.31227]]},"properties":{"highway":"trunk","junction":"roundabout","maxspeed":"40 mph","profile":"bus","distance":"20762.22","time":"1799.579"}},{"type":"Feature","name":"ShapeMeta","geometry":{"type":"LineString","coordinates":[[-1.539403,52.31227],[-1.539388,52.31215],[-1.539392,52.31207],[-1.539432,52.31195]]},"properties":{"name":"Kenilworth Road","oneway":"yes","highway":"trunk","maxspeed":"40 mph","profile":"bus","distance":"20798.12","time":"1802.256"}},{"type":"Feature","name":"ShapeMeta","geometry":{"type":"LineString","coordinates":[[-1.539432,52.31195],[-1.539384,52.31161],[-1.539242,52.31096],[-1.537741,52.30525],[-1.537648,52.30482]]},"properties":{"name":"Kenilworth Road","highway":"trunk","maxspeed":"40 mph","profile":"bus","distance":"21600.22","time":"1862.065"}},{"type":"Feature","name":"ShapeMeta","geometry":{"type":"LineString","coordinates":[[-1.537648,52.30482],[-1.53749,52.30428]]},"properties":{"name":"Kenilworth Road","highway":"trunk","maxspeed":"40 mph","profile":"bus","distance":"21661.82","time":"1866.658"}},{"type":"Feature","name":"ShapeMeta","geometry":{"type":"LineString","coordinates":[[-1.53749,52.30428],[-1.537383,52.30385]]},"properties":{"name":"Kenilworth Road","maxspeed":"30 mph","highway":"trunk","profile":"bus","distance":"21709.82","time":"1871.43"}},{"type":"Feature","name":"ShapeMeta","geometry":{"type":"LineString","coordinates":[[-1.537383,52.30385],[-1.537228,52.30334]]},"properties":{"name":"Kenilworth Road","maxspeed":"30 mph","highway":"trunk","profile":"bus","distance":"21767.62","time":"1877.176"}},{"type":"Feature","name":"ShapeMeta","geometry":{"type":"LineString","coordinates":[[-1.537228,52.30334],[-1.537089,52.30286]]},"properties":{"name":"Kenilworth Road","maxspeed":"30 mph","highway":"trunk","profile":"bus","distance":"21822.3","time":"1882.613"}},{"type":"Feature","name":"ShapeMeta","geometry":{"type":"LineString","coordinates":[[-1.537089,52.30286],[-1.536934,52.30231],[-1.536851,52.30208]]},"properties":{"name":"Kenilworth Road","maxspeed":"30 mph","highway":"trunk","profile":"bus","distance":"21909.92","time":"1891.324"}},{"type":"Feature","name":"ShapeMeta","geometry":{"type":"LineString","coordinates":[[-1.536851,52.30208],[-1.536623,52.30124],[-1.536443,52.30066]]},"properties":{"name":"Kenilworth Road","maxspeed":"30 mph","highway":"trunk","profile":"bus","distance":"22070.12","time":"1907.251"}},{"type":"Feature","name":"ShapeMeta","geometry":{"type":"LineString","coordinates":[[-1.536443,52.30066],[-1.536353,52.30034]]},"properties":{"name":"Kenilworth Road","maxspeed":"30 mph","highway":"trunk","profile":"bus","distance":"22106.22","time":"1910.841"}},{"type":"Feature","name":"ShapeMeta","geometry":{"type":"LineString","coordinates":[[-1.536353,52.30034],[-1.536278,52.30008]]},"properties":{"name":"Kenilworth Road","maxspeed":"30 mph","highway":"trunk","profile":"bus","distance":"22136.31","time":"1913.833"}},{"type":"Feature","name":"ShapeMeta","geometry":{"type":"LineString","coordinates":[[-1.536278,52.30008],[-1.536211,52.29988]]},"properties":{"name":"Kenilworth Road","maxspeed":"30 mph","highway":"trunk","profile":"bus","distance":"22157.91","time":"1915.98"}},{"type":"Feature","name":"ShapeMeta","geometry":{"type":"LineString","coordinates":[[-1.536211,52.29988],[-1.536145,52.29963],[-1.535874,52.29861],[-1.535782,52.29816],[-1.535746,52.29802]]},"properties":{"name":"Kenilworth Road","maxspeed":"30 mph","highway":"trunk","profile":"bus","distance":"22368.11","time":"1936.878"}},{"type":"Feature","name":"ShapeMeta","geometry":{"type":"LineString","coordinates":[[-1.535746,52.29802],[-1.53571,52.29783],[-1.535696,52.29776],[-1.535653,52.29742]]},"properties":{"name":"Kenilworth Road","maxspeed":"30 mph","highway":"secondary","profile":"bus","distance":"22435.01","time":"1943.529"}},{"type":"Feature","name":"ShapeMeta","geometry":{"type":"LineString","coordinates":[[-1.535653,52.29742],[-1.535635,52.29727]]},"properties":{"name":"Kenilworth Road","maxspeed":"30 mph","highway":"secondary","profile":"bus","distance":"22451.58","time":"1945.177"}},{"type":"Feature","name":"ShapeMeta","geometry":{"type":"LineString","coordinates":[[-1.535635,52.29727],[-1.535583,52.29682]]},"properties":{"name":"Kenilworth Road","maxspeed":"30 mph","highway":"secondary","profile":"bus","distance":"22501.71","time":"1950.161"}},{"type":"Feature","name":"ShapeMeta","geometry":{"type":"LineString","coordinates":[[-1.535583,52.29682],[-1.535533,52.29636],[-1.535512,52.29619]]},"properties":{"name":"Kenilworth Road","maxspeed":"30 mph","highway":"secondary","profile":"bus","distance":"22571.41","time":"1957.091"}},{"type":"Feature","name":"ShapeMeta","geometry":{"type":"LineString","coordinates":[[-1.535512,52.29619],[-1.535429,52.29553]]},"properties":{"name":"Kenilworth Road","maxspeed":"30 mph","highway":"secondary","profile":"bus","distance":"22645.41","time":"1964.448"}},{"type":"Feature","name":"ShapeMeta","geometry":{"type":"LineString","coordinates":[[-1.535429,52.29553],[-1.53536,52.29489]]},"properties":{"name":"Kenilworth Road","maxspeed":"30 mph","highway":"secondary","profile":"bus","distance":"22716.81","time":"1971.546"}},{"type":"Feature","name":"ShapeMeta","geometry":{"type":"LineString","coordinates":[[-1.53536,52.29489],[-1.535332,52.29462],[-1.535314,52.29449]]},"properties":{"name":"Kenilworth Road","maxspeed":"30 mph","highway":"secondary","profile":"bus","distance":"22761.41","time":"1975.98"}},{"type":"Feature","name":"ShapeMeta","geometry":{"type":"LineString","coordinates":[[-1.535314,52.29449],[-1.535288,52.29426],[-1.535217,52.29379],[-1.5352,52.2937]]},"properties":{"name":"Kenilworth Road","maxspeed":"30 mph","highway":"secondary","profile":"bus","distance":"22849.11","time":"1984.699"}},{"type":"Feature","name":"ShapeMeta","geometry":{"type":"LineString","coordinates":[[-1.5352,52.2937],[-1.535352,52.29368],[-1.535868,52.29364],[-1.5361,52.29363]]},"properties":{"name":"Clarendon Avenue","maxspeed":"30 mph","highway":"secondary","profile":"bus","distance":"22910.91","time":"1990.844"}},{"type":"Feature","name":"ShapeMeta","geometry":{"type":"LineString","coordinates":[[-1.5361,52.29363],[-1.536076,52.2935],[-1.535962,52.29283],[-1.535939,52.29269]]},"properties":{"name":"Parade","maxspeed":"20 mph","highway":"secondary","profile":"bus","distance":"23016.61","time":"2006.607"}},{"type":"Feature","name":"ShapeMeta","geometry":{"type":"LineString","coordinates":[[-1.535939,52.29269],[-1.5359,52.29246]]},"properties":{"name":"Parade","maxspeed":"20 mph","highway":"secondary","profile":"bus","distance":"23042.19","time":"2010.421"}},{"type":"Feature","name":"ShapeMeta","geometry":{"type":"LineString","coordinates":[[-1.5359,52.29246],[-1.535832,52.29206],[-1.535813,52.29197]]},"properties":{"name":"Parade","maxspeed":"20 mph","highway":"secondary","profile":"bus","distance":"23096.81","time":"2018.567"}},{"type":"Feature","name":"ShapeMeta","geometry":{"type":"LineString","coordinates":[[-1.535813,52.29197],[-1.5358,52.29189],[-1.535638,52.29097],[-1.535539,52.29036]]},"properties":{"name":"Parade","maxspeed":"20 mph","highway":"secondary","profile":"bus","distance":"23276.31","time":"2045.336"}},{"type":"Feature","name":"ShapeMeta","geometry":{"type":"LineString","coordinates":[[-1.535539,52.29036],[-1.535469,52.28994],[-1.535438,52.28977]]},"properties":{"name":"Parade","maxspeed":"20 mph","highway":"secondary","profile":"bus","distance":"23342.39","time":"2055.189"}},{"type":"Feature","name":"ShapeMeta","geometry":{"type":"LineString","coordinates":[[-1.535438,52.28977],[-1.535286,52.28896],[-1.535268,52.28886]]},"properties":{"name":"Parade","maxspeed":"20 mph","highway":"secondary","profile":"bus","distance":"23444.82","time":"2070.464"}},{"type":"Feature","name":"ShapeMeta","geometry":{"type":"LineString","coordinates":[[-1.535268,52.28886],[-1.535208,52.28855]]},"properties":{"name":"Parade","maxspeed":"20 mph","highway":"secondary","profile":"bus","distance":"23479.32","time":"2075.609"}},{"type":"Feature","name":"ShapeMeta","geometry":{"type":"LineString","coordinates":[[-1.535208,52.28855],[-1.535184,52.28848],[-1.535112,52.28835],[-1.534856,52.288]]},"properties":{"name":"Parade","maxspeed":"20 mph","highway":"secondary","profile":"bus","distance":"23544.7","time":"2085.359"}},{"type":"Feature","name":"ShapeMeta","geometry":{"type":"LineString","coordinates":[[-1.534856,52.288],[-1.53485,52.28799],[-1.534786,52.28789]]},"properties":{"name":"Parade","maxspeed":"20 mph","highway":"secondary","profile":"bus","distance":"23557.82","time":"2087.315"}},{"type":"Feature","name":"ShapeMeta","geometry":{"type":"LineString","coordinates":[[-1.534786,52.28789],[-1.534694,52.28782]]},"properties":{"name":"Parade","maxspeed":"20 mph","highway":"secondary","profile":"bus","distance":"23568.32","time":"2088.881"}},{"type":"Feature","name":"ShapeMeta","geometry":{"type":"LineString","coordinates":[[-1.534694,52.28782],[-1.53449,52.28762]]},"properties":{"name":"Parade","maxspeed":"20 mph","highway":"secondary","profile":"bus","distance":"23594.32","time":"2092.759"}},{"type":"Feature","name":"ShapeMeta","geometry":{"type":"LineString","coordinates":[[-1.53449,52.28762],[-1.534387,52.28754]]},"properties":{"name":"Parade","maxspeed":"20 mph","highway":"secondary","profile":"bus","distance":"23605.62","time":"2094.444"}},{"type":"Feature","name":"ShapeMeta","geometry":{"type":"LineString","coordinates":[[-1.534387,52.28754],[-1.534327,52.28746]]},"properties":{"name":"The Parade","maxspeed":"20 mph","highway":"secondary","profile":"bus","distance":"23615.02","time":"2095.846"}},{"type":"Feature","name":"ShapeMeta","geometry":{"type":"LineString","coordinates":[[-1.534327,52.28746],[-1.534184,52.28733]]},"properties":{"name":"The Parade","maxspeed":"20 mph","highway":"secondary","profile":"bus","distance":"23632.02","time":"2098.381"}},{"type":"Feature","name":"ShapeMeta","geometry":{"type":"LineString","coordinates":[[-1.534184,52.28733],[-1.533881,52.28707]]},"properties":{"name":"Parade","maxspeed":"20 mph","highway":"secondary","profile":"bus","distance":"23668.12","time":"2103.764"}},{"type":"Feature","name":"ShapeMeta","geometry":{"type":"LineString","coordinates":[[-1.533881,52.28707],[-1.533679,52.28689]]},"properties":{"name":"Parade","maxspeed":"20 mph","highway":"secondary","profile":"bus","distance":"23692.22","time":"2107.358"}},{"type":"Feature","name":"ShapeMeta","geometry":{"type":"LineString","coordinates":[[-1.533679,52.28689],[-1.533605,52.28682],[-1.533572,52.28679]]},"properties":{"name":"Parade","maxspeed":"20 mph","highway":"secondary","profile":"bus","distance":"23705.42","time":"2109.327"}},{"type":"Feature","name":"ShapeMeta","geometry":{"type":"LineString","coordinates":[[-1.533572,52.28679],[-1.533479,52.2867],[-1.533432,52.28664]]},"properties":{"name":"The Parade","bridge":"yes","maxspeed":"20 mph","highway":"secondary","profile":"bus","distance":"23724.42","time":"2112.16"}},{"type":"Feature","name":"ShapeMeta","geometry":{"type":"LineString","coordinates":[[-1.533432,52.28664],[-1.533368,52.28656]]},"properties":{"name":"The Parade","bridge":"yes","maxspeed":"20 mph","highway":"secondary","profile":"bus","distance":"23734.32","time":"2113.637"}},{"type":"Feature","name":"ShapeMeta","geometry":{"type":"LineString","coordinates":[[-1.533368,52.28656],[-1.533348,52.28652]]},"properties":{"name":"Victoria Terrace","maxspeed":"20 mph","highway":"secondary","profile":"bus","distance":"23738.72","time":"2114.293"}},{"type":"Feature","name":"ShapeMeta","geometry":{"type":"LineString","coordinates":[[-1.533348,52.28652],[-1.53329,52.28647],[-1.533227,52.28635],[-1.533187,52.28626]]},"properties":{"name":"Victoria Terrace","maxspeed":"20 mph","oneway":"yes","highway":"secondary","profile":"bus","distance":"23769.82","time":"2118.931"}},{"type":"Feature","name":"ShapeMeta","geometry":{"type":"LineString","coordinates":[[-1.533187,52.28626],[-1.533181,52.28625]]},"properties":{"name":"Victoria Terrace","maxspeed":"20 mph","oneway":"yes","highway":"secondary","profile":"bus","distance":"23771.52","time":"2119.184"}},{"type":"Feature","name":"ShapeMeta","geometry":{"type":"LineString","coordinates":[[-1.533181,52.28625],[-1.533165,52.28621]]},"properties":{"name":"Victoria Terrace","maxspeed":"20 mph","oneway":"yes","highway":"secondary","profile":"bus","distance":"23776.22","time":"2119.885"}},{"type":"Feature","name":"ShapeMeta","geometry":{"type":"LineString","coordinates":[[-1.533165,52.28621],[-1.533153,52.28617]]},"properties":{"name":"Victoria Terrace","maxspeed":"20 mph","oneway":"yes","highway":"secondary","profile":"bus","distance":"23780.12","time":"2120.467"}},{"type":"Feature","name":"ShapeMeta","geometry":{"type":"LineString","coordinates":[[-1.533153,52.28617],[-1.533148,52.28616],[-1.53312,52.28604],[-1.533117,52.28596]]},"properties":{"name":"Victoria Terrace","maxspeed":"20 mph","oneway":"yes","highway":"secondary","profile":"bus","distance":"23803.21","time":"2123.911"}},{"type":"Feature","name":"ShapeMeta","geometry":{"type":"LineString","coordinates":[[-1.533117,52.28596],[-1.533116,52.28594],[-1.533124,52.28589]]},"properties":{"name":"Victoria Terrace","maxspeed":"20 mph","oneway":"yes","highway":"secondary","profile":"bus","distance":"23811.72","time":"2125.18"}},{"type":"Feature","name":"ShapeMeta","geometry":{"type":"LineString","coordinates":[[-1.533124,52.28589],[-1.533122,52.2858]]},"properties":{"name":"Victoria Terrace","maxspeed":"20 mph","highway":"secondary","profile":"bus","distance":"23821.02","time":"2126.567"}},{"type":"Feature","name":"ShapeMeta","geometry":{"type":"LineString","coordinates":[[-1.533122,52.2858],[-1.533113,52.28575]]},"properties":{"name":"Bath Street","maxspeed":"20 mph","oneway":"yes","highway":"secondary","profile":"bus","distance":"23826.92","time":"2127.447"}},{"type":"Feature","name":"ShapeMeta","geometry":{"type":"LineString","coordinates":[[-1.533113,52.28575],[-1.533091,52.28568],[-1.533011,52.28552],[-1.532959,52.28542]]},"properties":{"name":"Bath Street","maxspeed":"20 mph","oneway":"yes","highway":"secondary","profile":"bus","distance":"23865.62","time":"2133.218"}},{"type":"Feature","name":"ShapeMeta","geometry":{"type":"LineString","coordinates":[[-1.532959,52.28542],[-1.532907,52.2853]]},"properties":{"name":"Bath Street","maxspeed":"20 mph","oneway":"yes","highway":"secondary","profile":"bus","distance":"23879.22","time":"2135.246"}},{"type":"Feature","name":"ShapeMeta","geometry":{"type":"LineString","coordinates":[[-1.532907,52.2853],[-1.532826,52.28514]]},"properties":{"name":"Bath Street","maxspeed":"20 mph","oneway":"yes","highway":"secondary","profile":"bus","distance":"23897.82","time":"2138.02"}},{"type":"Feature","name":"ShapeMeta","geometry":{"type":"LineString","coordinates":[[-1.532826,52.28514],[-1.532794,52.28508],[-1.532612,52.28479]]},"properties":{"name":"Bath Street","maxspeed":"20 mph","oneway":"yes","highway":"secondary","profile":"bus","distance":"23939.42","time":"2144.224"}},{"type":"Feature","name":"ShapeMeta","geometry":{"type":"LineString","coordinates":[[-1.532612,52.28479],[-1.532594,52.28479]]},"properties":{"name":"Regent Place","highway":"residential","maxspeed":"30 mph","profile":"bus","distance":"23940.7","time":"2144.351"}},{"type":"Feature","name":"ShapeMeta","geometry":{"type":"LineString","coordinates":[[-1.532594,52.28479],[-1.532612,52.28479]]},"properties":{"name":"Regent Place","highway":"residential","maxspeed":"30 mph","profile":"bus","distance":"23941.98","time":"2144.478"}},{"type":"Feature","name":"ShapeMeta","geometry":{"type":"LineString","coordinates":[[-1.532612,52.28479],[-1.53231,52.28434],[-1.532208,52.28417]]},"properties":{"name":"Bath Street","maxspeed":"20 mph","oneway":"yes","highway":"secondary","profile":"bus","distance":"24015.98","time":"2155.514"}},{"type":"Feature","name":"ShapeMeta","geometry":{"type":"LineString","coordinates":[[-1.532208,52.28417],[-1.532393,52.28413],[-1.53264,52.28408]]},"properties":{"name":"High Street","maxspeed":"30 mph","highway":"primary","profile":"bus","distance":"24046.78","time":"2158.576"}},{"type":"Feature","name":"ShapeMeta","geometry":{"type":"LineString","coordinates":[[-1.53264,52.28408],[-1.532989,52.28405]]},"properties":{"name":"High Street","maxspeed":"30 mph","highway":"primary","profile":"bus","distance":"24070.72","time":"2160.956"}},{"type":"Feature","name":"Stop","Shape":"0","geometry":{"type":"Point","coordinates":[-1.5075,52.41067]},"properties":{"index":"0","distance":"0","time":"0"}},{"type":"Feature","name":"Stop","Shape":"33","geometry":{"type":"Point","coordinates":[-1.50347,52.40849]},"properties":{"index":"1","distance":"573.4359","time":"86.54638"}},{"type":"Feature","name":"Stop","Shape":"38","geometry":{"type":"Point","coordinates":[-1.50383,52.40721]},"properties":{"index":"2","distance":"713.5953","time":"107.4483"}},{"type":"Feature","name":"Stop","Shape":"47","geometry":{"type":"Point","coordinates":[-1.50596,52.40662]},"properties":{"index":"3","distance":"935.0547","time":"140.4744"}},{"type":"Feature","name":"Stop","Shape":"64","geometry":{"type":"Point","coordinates":[-1.50822,52.40529]},"properties":{"index":"4","distance":"1250.037","time":"187.4476"}},{"type":"Feature","name":"Stop","Shape":"92","geometry":{"type":"Point","coordinates":[-1.50987,52.40487]},"properties":{"index":"5","distance":"1462.559","time":"219.1409"}},{"type":"Feature","name":"Stop","Shape":"98","geometry":{"type":"Point","coordinates":[-1.51172,52.40545]},"properties":{"index":"6","distance":"1604.767","time":"240.3483"}},{"type":"Feature","name":"Stop","Shape":"161","geometry":{"type":"Point","coordinates":[-1.51418,52.40196]},"properties":{"index":"7","distance":"2263.184","time":"336.9603"}},{"type":"Feature","name":"Stop","Shape":"192","geometry":{"type":"Point","coordinates":[-1.51557,52.40107]},"properties":{"index":"8","distance":"2539.094","time":"371.4288"}},{"type":"Feature","name":"Stop","Shape":"205","geometry":{"type":"Point","coordinates":[-1.51758,52.3988]},"properties":{"index":"9","distance":"2900.063","time":"405.3139"}},{"type":"Feature","name":"Stop","Shape":"211","geometry":{"type":"Point","coordinates":[-1.52072,52.3994]},"properties":{"index":"10","distance":"3152.817","time":"423.5122"}},{"type":"Feature","name":"Stop","Shape":"225","geometry":{"type":"Point","coordinates":[-1.52282,52.39831]},"properties":{"index":"11","distance":"3373.761","time":"439.4202"}},{"type":"Feature","name":"Stop","Shape":"229","geometry":{"type":"Point","coordinates":[-1.52414,52.39749]},"properties":{"index":"12","distance":"3501.722","time":"448.6334"}},{"type":"Feature","name":"Stop","Shape":"235","geometry":{"type":"Point","coordinates":[-1.52738,52.39698]},"properties":{"index":"13","distance":"3795.064","time":"467.3487"}},{"type":"Feature","name":"Stop","Shape":"249","geometry":{"type":"Point","coordinates":[-1.53017,52.39953]},"properties":{"index":"14","distance":"4140.819","time":"485.1304"}},{"type":"Feature","name":"Stop","Shape":"283","geometry":{"type":"Point","coordinates":[-1.53273,52.40242]},"properties":{"index":"15","distance":"4540.786","time":"511.7111"}},{"type":"Feature","name":"Stop","Shape":"303","geometry":{"type":"Point","coordinates":[-1.5357,52.40464]},"properties":{"index":"16","distance":"4894.02","time":"546.8294"}},{"type":"Feature","name":"Stop","Shape":"312","geometry":{"type":"Point","coordinates":[-1.54155,52.40344]},"properties":{"index":"17","distance":"5310.821","time":"588.2676"}},{"type":"Feature","name":"Stop","Shape":"332","geometry":{"type":"Point","coordinates":[-1.54743,52.4037]},"properties":{"index":"18","distance":"5726.917","time":"629.6357"}},{"type":"Feature","name":"Stop","Shape":"360","geometry":{"type":"Point","coordinates":[-1.55126,52.40264]},"properties":{"index":"19","distance":"6044.458","time":"661.2055"}},{"type":"Feature","name":"Stop","Shape":"377","geometry":{"type":"Point","coordinates":[-1.5552,52.40254]},"properties":{"index":"20","distance":"6320.987","time":"688.6979"}},{"type":"Feature","name":"Stop","Shape":"434","geometry":{"type":"Point","coordinates":[-1.55314,52.39139]},"properties":{"index":"21","distance":"7967.436","time":"819.6556"}},{"type":"Feature","name":"Stop","Shape":"465","geometry":{"type":"Point","coordinates":[-1.55696,52.38952]},"properties":{"index":"22","distance":"8358.248","time":"858.5099"}},{"type":"Feature","name":"Stop","Shape":"506","geometry":{"type":"Point","coordinates":[-1.56237,52.38746]},"properties":{"index":"23","distance":"9011.561","time":"923.462"}},{"type":"Feature","name":"Stop","Shape":"518","geometry":{"type":"Point","coordinates":[-1.5666,52.3853]},"properties":{"index":"24","distance":"9387.547","time":"960.8424"}},{"type":"Feature","name":"Stop","Shape":"532","geometry":{"type":"Point","coordinates":[-1.56722,52.38438]},"properties":{"index":"25","distance":"9540.868","time":"975.9265"}},{"type":"Feature","name":"Stop","Shape":"554","geometry":{"type":"Point","coordinates":[-1.56495,52.3827]},"properties":{"index":"26","distance":"9791.435","time":"1001.713"}},{"type":"Feature","name":"Stop","Shape":"568","geometry":{"type":"Point","coordinates":[-1.56252,52.37962]},"properties":{"index":"27","distance":"10201.78","time":"1060.715"}},{"type":"Feature","name":"Stop","Shape":"618","geometry":{"type":"Point","coordinates":[-1.55391,52.37425]},"properties":{"index":"28","distance":"11188.84","time":"1152.054"}},{"type":"Feature","name":"Stop","Shape":"645","geometry":{"type":"Point","coordinates":[-1.55013,52.3705]},"properties":{"index":"29","distance":"11723.59","time":"1190.018"}},{"type":"Feature","name":"Stop","Shape":"663","geometry":{"type":"Point","coordinates":[-1.55276,52.36775]},"properties":{"index":"30","distance":"12192.43","time":"1216.747"}},{"type":"Feature","name":"Stop","Shape":"691","geometry":{"type":"Point","coordinates":[-1.56532,52.35867]},"properties":{"index":"31","distance":"13535.31","time":"1289.689"}},{"type":"Feature","name":"Stop","Shape":"695","geometry":{"type":"Point","coordinates":[-1.56768,52.35692]},"properties":{"index":"32","distance":"13786.89","time":"1299.752"}},{"type":"Feature","name":"Stop","Shape":"710","geometry":{"type":"Point","coordinates":[-1.576,52.35344]},"properties":{"index":"33","distance":"14476.97","time":"1327.355"}},{"type":"Feature","name":"Stop","Shape":"723","geometry":{"type":"Point","coordinates":[-1.57804,52.35125]},"properties":{"index":"34","distance":"14798.99","time":"1340.438"}},{"type":"Feature","name":"Stop","Shape":"746","geometry":{"type":"Point","coordinates":[-1.57916,52.34825]},"properties":{"index":"35","distance":"15356.55","time":"1363.29"}},{"type":"Feature","name":"Stop","Shape":"755","geometry":{"type":"Point","coordinates":[-1.57816,52.34627]},"properties":{"index":"36","distance":"15595.34","time":"1375.564"}},{"type":"Feature","name":"Stop","Shape":"775","geometry":{"type":"Point","coordinates":[-1.57993,52.34387]},"properties":{"index":"37","distance":"16026.9","time":"1419.512"}},{"type":"Feature","name":"Stop","Shape":"795","geometry":{"type":"Point","coordinates":[-1.57789,52.34155]},"properties":{"index":"38","distance":"16330.82","time":"1447.954"}},{"type":"Feature","name":"Stop","Shape":"810","geometry":{"type":"Point","coordinates":[-1.57502,52.33883]},"properties":{"index":"39","distance":"16699.38","time":"1484.705"}},{"type":"Feature","name":"Stop","Shape":"821","geometry":{"type":"Point","coordinates":[-1.57314,52.33702]},"properties":{"index":"40","distance":"16939.45","time":"1508.682"}},{"type":"Feature","name":"Stop","Shape":"838","geometry":{"type":"Point","coordinates":[-1.57081,52.33566]},"properties":{"index":"41","distance":"17162.83","time":"1530.891"}},{"type":"Feature","name":"Stop","Shape":"890","geometry":{"type":"Point","coordinates":[-1.55836,52.32713]},"properties":{"index":"42","distance":"18553.63","time":"1635.324"}},{"type":"Feature","name":"Stop","Shape":"903","geometry":{"type":"Point","coordinates":[-1.55465,52.32532]},"properties":{"index":"43","distance":"18887.49","time":"1659.79"}},{"type":"Feature","name":"Stop","Shape":"934","geometry":{"type":"Point","coordinates":[-1.54419,52.31946]},"properties":{"index":"44","distance":"19882.61","time":"1733.991"}},{"type":"Feature","name":"Stop","Shape":"953","geometry":{"type":"Point","coordinates":[-1.5397,52.31309]},"properties":{"index":"45","distance":"20664.46","time":"1792.29"}},{"type":"Feature","name":"Stop","Shape":"976","geometry":{"type":"Point","coordinates":[-1.53696,52.3029]},"properties":{"index":"46","distance":"21822.3","time":"1882.613"}},{"type":"Feature","name":"Stop","Shape":"981","geometry":{"type":"Point","coordinates":[-1.53622,52.30038]},"properties":{"index":"47","distance":"22106.22","time":"1910.841"}},{"type":"Feature","name":"Stop","Shape":"991","geometry":{"type":"Point","coordinates":[-1.53546,52.29729]},"properties":{"index":"48","distance":"22451.58","time":"1945.177"}},{"type":"Feature","name":"Stop","Shape":"1008","geometry":{"type":"Point","coordinates":[-1.53574,52.29249]},"properties":{"index":"49","distance":"23042.19","time":"2010.421"}},{"type":"Feature","name":"Stop","Shape":"1015","geometry":{"type":"Point","coordinates":[-1.5353,52.2898]},"properties":{"index":"50","distance":"23342.39","time":"2055.189"}},{"type":"Feature","name":"Stop","Shape":"1021","geometry":{"type":"Point","coordinates":[-1.53476,52.28807]},"properties":{"index":"51","distance":"23544.7","time":"2085.359"}},{"type":"Feature","name":"Stop","Shape":"1045","geometry":{"type":"Point","coordinates":[-1.53301,52.28597]},"properties":{"index":"52","distance":"23803.21","time":"2123.911"}},{"type":"Feature","name":"Stop","Shape":"1057","geometry":{"type":"Point","coordinates":[-1.5326,52.2848]},"properties":{"index":"53","distance":"23940.7","time":"2144.351"}},{"type":"Feature","name":"Stop","Shape":"1063","geometry":{"type":"Point","coordinates":[-1.53298,52.28397]},"properties":{"index":"54","distance":"24070.72","time":"2160.956"}}]}