{"type":"FeatureCollection","features":[{"type":"Feature","name":"ShapeMeta","geometry":{"type":"LineString","coordinates":[[-1.56266,52.37941],[-1.562653,52.37941],[-1.562335,52.37932],[-1.562304,52.3793]]},"properties":{"highway":"service","oneway":"yes","profile":"bus","distance":"27.69099","time":"3.322918"}},{"type":"Feature","name":"ShapeMeta","geometry":{"type":"LineString","coordinates":[[-1.562304,52.3793],[-1.562278,52.37925],[-1.562274,52.37919]]},"properties":{"highway":"service","oneway":"yes","profile":"bus","distance":"40.29099","time":"4.834918"}},{"type":"Feature","name":"ShapeMeta","geometry":{"type":"LineString","coordinates":[[-1.562274,52.37919],[-1.562363,52.37918],[-1.56249,52.37918]]},"properties":{"name":"University Road","maxspeed":"20 mph","highway":"unclassified","profile":"bus","distance":"54.89099","time":"7.012208"}},{"type":"Feature","name":"ShapeMeta","geometry":{"type":"LineString","coordinates":[[-1.56249,52.37918],[-1.562556,52.37917],[-1.562598,52.37915],[-1.562652,52.3791],[-1.562671,52.37908]]},"properties":{"name":"University Road","maxspeed":"20 mph","oneway":"yes","highway":"unclassified","profile":"bus","distance":"72.59099","time":"9.6518"}},{"type":"Feature","name":"ShapeMeta","geometry":{"type":"LineString","coordinates":[[-1.562671,52.37908],[-1.562689,52.37906],[-1.562715,52.37903],[-1.562743,52.37901]]},"properties":{"maxspeed":"20 mph","oneway":"yes","highway":"tertiary","junction":"roundabout","profile":"bus","distance":"81.39099","time":"10.96414"}},{"type":"Feature","name":"ShapeMeta","geometry":{"type":"LineString","coordinates":[[-1.562743,52.37901],[-1.562783,52.37895],[-1.562816,52.37888],[-1.562838,52.37881]]},"properties":{"name":"Gibbet Hill Road","maxspeed":"20 mph","oneway":"yes","highway":"tertiary","profile":"bus","distance":"104.791","time":"14.45377"}},{"type":"Feature","name":"ShapeMeta","geometry":{"type":"LineString","coordinates":[[-1.562838,52.37881],[-1.562852,52.37869],[-1.562844,52.37858],[-1.562654,52.37809]]},"properties":{"name":"Gibbet Hill Road","maxspeed":"20 mph","highway":"tertiary","profile":"bus","distance":"186.491","time":"26.63765"}},{"type":"Feature","name":"ShapeMeta","geometry":{"type":"LineString","coordinates":[[-1.562654,52.37809],[-1.562636,52.37803]]},"properties":{"name":"Gibbet Hill Road","maxspeed":"20 mph","highway":"tertiary","profile":"bus","distance":"192.891","time":"27.59208"}},{"type":"Feature","name":"ShapeMeta","geometry":{"type":"LineString","coordinates":[[-1.562636,52.37803],[-1.562594,52.3779]]},"properties":{"name":"Gibbet Hill Road","maxspeed":"20 mph","highway":"tertiary","profile":"bus","distance":"207.591","time":"29.78428"}},{"type":"Feature","name":"ShapeMeta","geometry":{"type":"LineString","coordinates":[[-1.562594,52.3779],[-1.562568,52.37778],[-1.562557,52.37729],[-1.562539,52.37719],[-1.562477,52.37701],[-1.562302,52.37681],[-1.562178,52.37671]]},"properties":{"name":"Gibbet Hill Road","maxspeed":"30 mph","highway":"tertiary","profile":"bus","distance":"346.491","time":"43.59367"}},{"type":"Feature","name":"ShapeMeta","geometry":{"type":"LineString","coordinates":[[-1.562178,52.37671],[-1.56187,52.37664]]},"properties":{"name":"Gibbet Hill Road","oneway":"yes","highway":"tertiary","profile":"bus","distance":"368.691","time":"44.73539"}},{"type":"Feature","name":"ShapeMeta","geometry":{"type":"LineString","coordinates":[[-1.56187,52.37664],[-1.561812,52.37665],[-1.561752,52.37665]]},"properties":{"maxspeed":"30 mph","highway":"tertiary","junction":"roundabout","profile":"bus","distance":"376.791","time":"45.54069"}},{"type":"Feature","name":"ShapeMeta","geometry":{"type":"LineString","coordinates":[[-1.561752,52.37665],[-1.561673,52.37663],[-1.561616,52.37658]]},"properties":{"maxspeed":"30 mph","highway":"tertiary","junction":"roundabout","profile":"bus","distance":"388.691","time":"46.72379"}},{"type":"Feature","name":"ShapeMeta","geometry":{"type":"LineString","coordinates":[[-1.561616,52.37658],[-1.561602,52.37656],[-1.561594,52.37654],[-1.561592,52.37652]]},"properties":{"maxspeed":"30 mph","highway":"tertiary","junction":"roundabout","profile":"bus","distance":"396.091","time":"47.4595"}},{"type":"Feature","name":"ShapeMeta","geometry":{"type":"LineString","coordinates":[[-1.561592,52.37652],[-1.561351,52.37639]]},"properties":{"name":"Gibbet Hill Road","oneway":"yes","highway":"tertiary","profile":"bus","distance":"417.591","time":"48.56521"}},{"type":"Feature","name":"ShapeMeta","geometry":{"type":"LineString","coordinates":[[-1.561351,52.37639],[-1.561048,52.3763],[-1.560689,52.37619],[-1.559997,52.37593]]},"properties":{"name":"Gibbet Hill Road","highway":"tertiary","maxspeed":"40 mph","profile":"bus","distance":"522.891","time":"56.41687"}},{"type":"Feature","name":"ShapeMeta","geometry":{"type":"LineString","coordinates":[[-1.559997,52.37593],[-1.559836,52.37587],[-1.559755,52.37583]]},"properties":{"name":"Gibbet Hill Road","highway":"tertiary","maxspeed":"40 mph","profile":"bus","distance":"542.591","time":"57.8858"}},{"type":"Feature","name":"ShapeMeta","geometry":{"type":"LineString","coordinates":[[-1.559755,52.37583],[-1.559394,52.37569],[-1.558967,52.37552]]},"properties":{"name":"Gibbet Hill Road","highway":"tertiary","maxspeed":"40 mph","profile":"bus","distance":"606.191","time":"62.62812"}},{"type":"Feature","name":"ShapeMeta","geometry":{"type":"LineString","coordinates":[[-1.558967,52.37552],[-1.558884,52.37549],[-1.55851,52.37539],[-1.556868,52.37503],[-1.556361,52.37487],[-1.555912,52.37471],[-1.55559,52.37461],[-1.554134,52.37424],[-1.553931,52.37418]]},"properties":{"name":"Gibbet Hill Road","highway":"tertiary","maxspeed":"40 mph","profile":"bus","distance":"980.1895","time":"90.51521"}},{"type":"Feature","name":"ShapeMeta","geometry":{"type":"LineString","coordinates":[[-1.553931,52.37418],[-1.553724,52.37411],[-1.553251,52.37394]]},"properties":{"name":"Gibbet Hill Road","highway":"tertiary","maxspeed":"40 mph","profile":"bus","distance":"1033.291","time":"94.47472"}},{"type":"Feature","name":"ShapeMeta","geometry":{"type":"LineString","coordinates":[[-1.553251,52.37394],[-1.552744,52.37371],[-1.552441,52.37355],[-1.552018,52.37329],[-1.55194,52.37323]]},"properties":{"name":"Gibbet Hill Road","highway":"tertiary","maxspeed":"40 mph","profile":"bus","distance":"1152.291","time":"103.3479"}},{"type":"Feature","name":"ShapeMeta","geometry":{"type":"LineString","coordinates":[[-1.55194,52.37323],[-1.551752,52.37305],[-1.551617,52.37288],[-1.551479,52.37267],[-1.55126,52.37227]]},"properties":{"name":"Gibbet Hill Road","highway":"tertiary","maxspeed":"40 mph","profile":"bus","distance":"1269.091","time":"112.0571"}},{"type":"Feature","name":"ShapeMeta","geometry":{"type":"LineString","coordinates":[[-1.55126,52.37227],[-1.551003,52.37179],[-1.550821,52.37148],[-1.550644,52.37126],[-1.550429,52.37109],[-1.550112,52.37091],[-1.550071,52.37089]]},"properties":{"name":"Gibbet Hill Road","highway":"tertiary","maxspeed":"40 mph","profile":"bus","distance":"1446.091","time":"125.255"}},{"type":"Feature","name":"ShapeMeta","geometry":{"type":"LineString","coordinates":[[-1.550071,52.37089],[-1.550011,52.37092],[-1.549938,52.37092],[-1.549869,52.37091]]},"properties":{"name":"Kenilworth Road","highway":"primary","junction":"roundabout","profile":"bus","distance":"1461.091","time":"125.855"}},{"type":"Feature","name":"ShapeMeta","geometry":{"type":"LineString","coordinates":[[-1.549869,52.37091],[-1.549785,52.37099],[-1.549763,52.37102]]},"properties":{"name":"Kenilworth Road","highway":"primary","maxspeed":"50 mph","profile":"bus","distance":"1475.353","time":"126.7058"}},{"type":"Feature","name":"ShapeMeta","geometry":{"type":"LineString","coordinates":[[-1.549763,52.37102],[-1.54674,52.37418]]},"properties":{"name":"Kenilworth Road","highway":"primary","maxspeed":"50 mph","profile":"bus","distance":"1882.491","time":"150.9923"}},{"type":"Feature","name":"ShapeMeta","geometry":{"type":"LineString","coordinates":[[-1.54674,52.37418],[-1.545323,52.37565],[-1.54481,52.37617],[-1.544803,52.37618]]},"properties":{"name":"Kenilworth Road","highway":"primary","maxspeed":"50 mph","profile":"bus","distance":"2141.091","time":"166.4182"}},{"type":"Feature","name":"ShapeMeta","geometry":{"type":"LineString","coordinates":[[-1.544803,52.37618],[-1.544341,52.37666]]},"properties":{"name":"Kenilworth Road","highway":"primary","maxspeed":"50 mph","profile":"bus","distance":"2202.959","time":"170.1088"}},{"type":"Feature","name":"ShapeMeta","geometry":{"type":"LineString","coordinates":[[-1.544341,52.37666],[-1.544065,52.37695]]},"properties":{"name":"Kenilworth Road","highway":"primary","maxspeed":"50 mph","profile":"bus","distance":"2239.991","time":"172.3178"}},{"type":"Feature","name":"ShapeMeta","geometry":{"type":"LineString","coordinates":[[-1.544065,52.37695],[-1.543686,52.37734]]},"properties":{"name":"Kenilworth Road","highway":"primary","maxspeed":"50 mph","profile":"bus","distance":"2290.291","time":"175.3183"}},{"type":"Feature","name":"ShapeMeta","geometry":{"type":"LineString","coordinates":[[-1.543686,52.37734],[-1.543464,52.37757]]},"properties":{"name":"Kenilworth Road","highway":"primary","maxspeed":"50 mph","profile":"bus","distance":"2320.191","time":"177.1019"}},{"type":"Feature","name":"ShapeMeta","geometry":{"type":"LineString","coordinates":[[-1.543464,52.37757],[-1.543083,52.37796]]},"properties":{"name":"Kenilworth Road","highway":"primary","maxspeed":"50 mph","profile":"bus","distance":"2370.891","time":"180.1263"}},{"type":"Feature","name":"ShapeMeta","geometry":{"type":"LineString","coordinates":[[-1.543083,52.37796],[-1.542673,52.37839]]},"properties":{"name":"Kenilworth Road","highway":"primary","maxspeed":"50 mph","profile":"bus","distance":"2425.491","time":"183.3832"}},{"type":"Feature","name":"ShapeMeta","geometry":{"type":"LineString","coordinates":[[-1.542673,52.37839],[-1.542551,52.37851]]},"properties":{"name":"Kenilworth Road","highway":"primary","maxspeed":"50 mph","profile":"bus","distance":"2441.691","time":"184.3496"}},{"type":"Feature","name":"ShapeMeta","geometry":{"type":"LineString","coordinates":[[-1.542551,52.37851],[-1.542121,52.37896]]},"properties":{"name":"Kenilworth Road","highway":"primary","maxspeed":"50 mph","profile":"bus","distance":"2499.191","time":"187.7796"}},{"type":"Feature","name":"ShapeMeta","geometry":{"type":"LineString","coordinates":[[-1.542121,52.37896],[-1.541903,52.37918]]},"properties":{"name":"Kenilworth Road","highway":"primary","maxspeed":"50 mph","profile":"bus","distance":"2528.191","time":"189.5095"}},{"type":"Feature","name":"ShapeMeta","geometry":{"type":"LineString","coordinates":[[-1.541903,52.37918],[-1.541732,52.37936]]},"properties":{"name":"Kenilworth Road","highway":"primary","maxspeed":"50 mph","profile":"bus","distance":"2550.791","time":"190.8576"}},{"type":"Feature","name":"ShapeMeta","geometry":{"type":"LineString","coordinates":[[-1.541732,52.37936],[-1.541349,52.37976]]},"properties":{"name":"Kenilworth Road","highway":"primary","maxspeed":"50 mph","profile":"bus","distance":"2601.891","time":"193.9058"}},{"type":"Feature","name":"ShapeMeta","geometry":{"type":"LineString","coordinates":[[-1.541349,52.37976],[-1.54117,52.37994]]},"properties":{"name":"Kenilworth Road","highway":"primary","maxspeed":"50 mph","profile":"bus","distance":"2625.891","time":"195.3375"}},{"type":"Feature","name":"ShapeMeta","geometry":{"type":"LineString","coordinates":[[-1.54117,52.37994],[-1.541115,52.38]]},"properties":{"name":"Kenilworth Road","highway":"primary","maxspeed":"50 mph","profile":"bus","distance":"2633.191","time":"195.7729"}},{"type":"Feature","name":"ShapeMeta","geometry":{"type":"LineString","coordinates":[[-1.541115,52.38],[-1.540904,52.38022]]},"properties":{"name":"Kenilworth Road","highway":"primary","maxspeed":"50 mph","profile":"bus","distance":"2661.191","time":"197.4432"}},{"type":"Feature","name":"ShapeMeta","geometry":{"type":"LineString","coordinates":[[-1.540904,52.38022],[-1.540844,52.38028]]},"properties":{"name":"Kenilworth Road","highway":"primary","maxspeed":"50 mph","profile":"bus","distance":"2668.991","time":"197.9084"}},{"type":"Feature","name":"ShapeMeta","geometry":{"type":"LineString","coordinates":[[-1.540844,52.38028],[-1.5406,52.38054]]},"properties":{"name":"Kenilworth Road","highway":"primary","maxspeed":"50 mph","profile":"bus","distance":"2701.791","time":"199.865"}},{"type":"Feature","name":"ShapeMeta","geometry":{"type":"LineString","coordinates":[[-1.5406,52.38054],[-1.540273,52.38088]]},"properties":{"name":"Kenilworth Road","highway":"primary","maxspeed":"50 mph","profile":"bus","distance":"2745.891","time":"202.4957"}},{"type":"Feature","name":"ShapeMeta","geometry":{"type":"LineString","coordinates":[[-1.540273,52.38088],[-1.540132,52.38103]]},"properties":{"name":"Kenilworth Road","highway":"primary","maxspeed":"50 mph","profile":"bus","distance":"2764.891","time":"203.6291"}},{"type":"Feature","name":"ShapeMeta","geometry":{"type":"LineString","coordinates":[[-1.540132,52.38103],[-1.54001,52.38115]]},"properties":{"name":"Kenilworth Road","highway":"primary","maxspeed":"50 mph","profile":"bus","distance":"2781.091","time":"204.5954"}},{"type":"Feature","name":"ShapeMeta","geometry":{"type":"LineString","coordinates":[[-1.54001,52.38115],[-1.539765,52.38141]]},"properties":{"name":"Kenilworth Road","highway":"primary","maxspeed":"50 mph","profile":"bus","distance":"2814.391","time":"206.5818"}},{"type":"Feature","name":"ShapeMeta","geometry":{"type":"LineString","coordinates":[[-1.539765,52.38141],[-1.539725,52.38145]]},"properties":{"name":"Kenilworth Road","highway":"primary","maxspeed":"50 mph","profile":"bus","distance":"2819.791","time":"206.9039"}},{"type":"Feature","name":"ShapeMeta","geometry":{"type":"LineString","coordinates":[[-1.539725,52.38145],[-1.539405,52.38179]]},"properties":{"name":"Kenilworth Road","highway":"primary","maxspeed":"50 mph","profile":"bus","distance":"2862.591","time":"209.457"}},{"type":"Feature","name":"ShapeMeta","geometry":{"type":"LineString","coordinates":[[-1.539405,52.38179],[-1.539312,52.38188]]},"properties":{"name":"Kenilworth Road","highway":"primary","maxspeed":"50 mph","profile":"bus","distance":"2874.891","time":"210.1908"}},{"type":"Feature","name":"ShapeMeta","geometry":{"type":"LineString","coordinates":[[-1.539312,52.38188],[-1.539125,52.38208]]},"properties":{"name":"Kenilworth Road","highway":"primary","maxspeed":"50 mph","profile":"bus","distance":"2899.991","time":"211.688"}},{"type":"Feature","name":"ShapeMeta","geometry":{"type":"LineString","coordinates":[[-1.539125,52.38208],[-1.538979,52.38223]]},"properties":{"name":"Kenilworth Road","highway":"primary","maxspeed":"50 mph","profile":"bus","distance":"2919.591","time":"212.8572"}},{"type":"Feature","name":"ShapeMeta","geometry":{"type":"LineString","coordinates":[[-1.538979,52.38223],[-1.538918,52.38229]]},"properties":{"name":"Kenilworth Road","highway":"primary","maxspeed":"50 mph","profile":"bus","distance":"2927.891","time":"213.3523"}},{"type":"Feature","name":"ShapeMeta","geometry":{"type":"LineString","coordinates":[[-1.538918,52.38229],[-1.538767,52.38245]]},"properties":{"name":"Kenilworth Road","highway":"primary","maxspeed":"50 mph","profile":"bus","distance":"2947.991","time":"214.5513"}},{"type":"Feature","name":"ShapeMeta","geometry":{"type":"LineString","coordinates":[[-1.538767,52.38245],[-1.538635,52.38259]]},"properties":{"name":"Kenilworth Road","highway":"primary","maxspeed":"50 mph","profile":"bus","distance":"2965.691","time":"215.6071"}},{"type":"Feature","name":"ShapeMeta","geometry":{"type":"LineString","coordinates":[[-1.538635,52.38259],[-1.538521,52.38271]]},"properties":{"name":"Kenilworth Road","highway":"primary","maxspeed":"50 mph","profile":"bus","distance":"2980.891","time":"216.5139"}},{"type":"Feature","name":"ShapeMeta","geometry":{"type":"LineString","coordinates":[[-1.538521,52.38271],[-1.538431,52.3828]]},"properties":{"name":"Kenilworth Road","highway":"primary","maxspeed":"50 mph","profile":"bus","distance":"2992.949","time":"217.2331"}},{"type":"Feature","name":"ShapeMeta","geometry":{"type":"LineString","coordinates":[[-1.538431,52.3828],[-1.538177,52.38306]]},"properties":{"name":"Kenilworth Road","highway":"primary","maxspeed":"50 mph","profile":"bus","distance":"3026.991","time":"219.2638"}},{"type":"Feature","name":"ShapeMeta","geometry":{"type":"LineString","coordinates":[[-1.538177,52.38306],[-1.537839,52.38342]]},"properties":{"name":"Kenilworth Road","highway":"primary","maxspeed":"50 mph","profile":"bus","distance":"3072.191","time":"221.96"}},{"type":"Feature","name":"ShapeMeta","geometry":{"type":"LineString","coordinates":[[-1.537839,52.38342],[-1.537623,52.38364]]},"properties":{"name":"Kenilworth Road","highway":"primary","maxspeed":"50 mph","profile":"bus","distance":"3101.191","time":"223.6899"}},{"type":"Feature","name":"ShapeMeta","geometry":{"type":"LineString","coordinates":[[-1.537623,52.38364],[-1.537331,52.38393],[-1.536795,52.38449]]},"properties":{"name":"Kenilworth Road","highway":"primary","maxspeed":"50 mph","profile":"bus","distance":"3211.191","time":"230.2516"}},{"type":"Feature","name":"ShapeMeta","geometry":{"type":"LineString","coordinates":[[-1.536795,52.38449],[-1.536464,52.38484]]},"properties":{"name":"Kenilworth Road","highway":"primary","maxspeed":"50 mph","profile":"bus","distance":"3255.791","time":"232.9121"}},{"type":"Feature","name":"ShapeMeta","geometry":{"type":"LineString","coordinates":[[-1.536464,52.38484],[-1.536105,52.38521]]},"properties":{"name":"Kenilworth Road","highway":"primary","maxspeed":"50 mph","profile":"bus","distance":"3303.891","time":"235.7814"}},{"type":"Feature","name":"ShapeMeta","geometry":{"type":"LineString","coordinates":[[-1.536105,52.38521],[-1.535856,52.38547]]},"properties":{"name":"Kenilworth Road","highway":"primary","maxspeed":"50 mph","profile":"bus","distance":"3337.291","time":"237.7737"}},{"type":"Feature","name":"ShapeMeta","geometry":{"type":"LineString","coordinates":[[-1.535856,52.38547],[-1.535694,52.38564]]},"properties":{"name":"Kenilworth Road","highway":"primary","maxspeed":"50 mph","profile":"bus","distance":"3359.291","time":"239.0861"}},{"type":"Feature","name":"ShapeMeta","geometry":{"type":"LineString","coordinates":[[-1.535694,52.38564],[-1.535508,52.38583]]},"properties":{"name":"Kenilworth Road","highway":"primary","maxspeed":"50 mph","profile":"bus","distance":"3383.891","time":"240.5535"}},{"type":"Feature","name":"ShapeMeta","geometry":{"type":"LineString","coordinates":[[-1.535508,52.38583],[-1.535355,52.38599]]},"properties":{"name":"Kenilworth Road","highway":"primary","maxspeed":"50 mph","profile":"bus","distance":"3404.491","time":"241.7823"}},{"type":"Feature","name":"ShapeMeta","geometry":{"type":"LineString","coordinates":[[-1.535355,52.38599],[-1.535007,52.38636]]},"properties":{"name":"Kenilworth Road","highway":"primary","maxspeed":"50 mph","profile":"bus","distance":"3451.191","time":"244.5681"}},{"type":"Feature","name":"ShapeMeta","geometry":{"type":"LineString","coordinates":[[-1.535007,52.38636],[-1.534954,52.38642]]},"properties":{"name":"Kenilworth Road","highway":"primary","maxspeed":"40 mph","profile":"bus","distance":"3458.791","time":"245.1348"}},{"type":"Feature","name":"ShapeMeta","geometry":{"type":"LineString","coordinates":[[-1.534954,52.38642],[-1.534896,52.38648],[-1.534688,52.3867]]},"properties":{"name":"Kenilworth Road","highway":"primary","maxspeed":"40 mph","profile":"bus","distance":"3494.891","time":"247.8265"}},{"type":"Feature","name":"ShapeMeta","geometry":{"type":"LineString","coordinates":[[-1.534688,52.3867],[-1.534293,52.3871]]},"properties":{"name":"Kenilworth Road","highway":"primary","maxspeed":"40 mph","profile":"bus","distance":"3547.14","time":"251.7225"}},{"type":"Feature","name":"ShapeMeta","geometry":{"type":"LineString","coordinates":[[-1.534293,52.3871],[-1.5339,52.3875]]},"properties":{"name":"Kenilworth Road","highway":"primary","maxspeed":"40 mph","profile":"bus","distance":"3599.091","time":"255.5962"}},{"type":"Feature","name":"ShapeMeta","geometry":{"type":"LineString","coordinates":[[-1.5339,52.3875],[-1.532878,52.3886],[-1.532741,52.38874],[-1.5324,52.3891]]},"properties":{"name":"Kenilworth Road","highway":"primary","maxspeed":"40 mph","profile":"bus","distance":"3803.091","time":"270.8074"}},{"type":"Feature","name":"ShapeMeta","geometry":{"type":"LineString","coordinates":[[-1.5324,52.3891],[-1.531676,52.38982]]},"properties":{"name":"Kenilworth Road","highway":"primary","maxspeed":"40 mph","profile":"bus","distance":"3897.391","time":"277.8389"}},{"type":"Feature","name":"ShapeMeta","geometry":{"type":"LineString","coordinates":[[-1.531676,52.38982],[-1.531634,52.38986],[-1.531441,52.39006]]},"properties":{"name":"Kenilworth Road","highway":"primary","maxspeed":"40 mph","profile":"bus","distance":"3928.091","time":"280.128"}},{"type":"Feature","name":"ShapeMeta","geometry":{"type":"LineString","coordinates":[[-1.531441,52.39006],[-1.531377,52.39013],[-1.531202,52.39031]]},"properties":{"name":"Kenilworth Road","highway":"primary","maxspeed":"40 mph","profile":"bus","distance":"3960.894","time":"282.5739"}},{"type":"Feature","name":"ShapeMeta","geometry":{"type":"LineString","coordinates":[[-1.531202,52.39031],[-1.529131,52.39249],[-1.528905,52.39273]]},"properties":{"name":"Kenilworth Road","highway":"primary","maxspeed":"40 mph","profile":"bus","distance":"4271.991","time":"305.7708"}},{"type":"Feature","name":"ShapeMeta","geometry":{"type":"LineString","coordinates":[[-1.528905,52.39273],[-1.528579,52.39306]]},"properties":{"name":"Kenilworth Road","highway":"primary","maxspeed":"40 mph","profile":"bus","distance":"4314.745","time":"308.9587"}},{"type":"Feature","name":"ShapeMeta","geometry":{"type":"LineString","coordinates":[[-1.528579,52.39306],[-1.528572,52.39307],[-1.528372,52.39324]]},"properties":{"name":"Kenilworth Road","highway":"primary","maxspeed":"40 mph","profile":"bus","distance":"4338.691","time":"310.7443"}},{"type":"Feature","name":"ShapeMeta","geometry":{"type":"LineString","coordinates":[[-1.528372,52.39324],[-1.528168,52.39338],[-1.527941,52.3935],[-1.527724,52.39359],[-1.52742,52.3937],[-1.525133,52.39425],[-1.524884,52.39432]]},"properties":{"name":"Kenilworth Road","highway":"primary","maxspeed":"40 mph","profile":"bus","distance":"4606.991","time":"330.75"}},{"type":"Feature","name":"ShapeMeta","geometry":{"type":"LineString","coordinates":[[-1.524884,52.39432],[-1.524043,52.3945]]},"properties":{"name":"Kenilworth Road","highway":"primary","maxspeed":"40 mph","profile":"bus","distance":"4667.354","time":"335.2509"}},{"type":"Feature","name":"ShapeMeta","geometry":{"type":"LineString","coordinates":[[-1.524043,52.3945],[-1.5233,52.39465],[-1.52231,52.39487],[-1.521059,52.39516]]},"properties":{"name":"Kenilworth Road","highway":"primary","maxspeed":"40 mph","profile":"bus","distance":"4882.892","time":"351.3224"}},{"type":"Feature","name":"ShapeMeta","geometry":{"type":"LineString","coordinates":[[-1.521059,52.39516],[-1.519811,52.39543]]},"properties":{"name":"Kenilworth Road","highway":"primary","maxspeed":"40 mph","profile":"bus","distance":"4972.591","time":"358.0108"}},{"type":"Feature","name":"ShapeMeta","geometry":{"type":"LineString","coordinates":[[-1.519811,52.39543],[-1.518927,52.39561]]},"properties":{"name":"Kenilworth Road","maxspeed":"30 mph","highway":"primary","profile":"bus","distance":"5035.857","time":"364.3007"}},{"type":"Feature","name":"ShapeMeta","geometry":{"type":"LineString","coordinates":[[-1.518927,52.39561],[-1.518579,52.39568]]},"properties":{"name":"Kenilworth Road","maxspeed":"30 mph","highway":"primary","profile":"bus","distance":"5060.792","time":"366.7797"}},{"type":"Feature","name":"ShapeMeta","geometry":{"type":"LineString","coordinates":[[-1.518579,52.39568],[-1.518254,52.39575],[-1.517644,52.39592],[-1.517464,52.396],[-1.517215,52.39618],[-1.517145,52.39625]]},"properties":{"name":"Kenilworth Road","maxspeed":"30 mph","highway":"primary","profile":"bus","distance":"5180.292","time":"378.6603"}},{"type":"Feature","name":"ShapeMeta","geometry":{"type":"LineString","coordinates":[[-1.517145,52.39625],[-1.517063,52.39635],[-1.517016,52.39642]]},"properties":{"name":"Kenilworth Road","maxspeed":"30 mph","highway":"primary","profile":"bus","distance":"5200.892","time":"380.7084"}},{"type":"Feature","name":"ShapeMeta","geometry":{"type":"LineString","coordinates":[[-1.517016,52.39642],[-1.516923,52.39662]]},"properties":{"name":"Warwick Road","maxspeed":"30 mph","highway":"primary","profile":"bus","distance":"5224.191","time":"383.0248"}},{"type":"Feature","name":"ShapeMeta","geometry":{"type":"LineString","coordinates":[[-1.516923,52.39662],[-1.516912,52.39668],[-1.516784,52.39736]]},"properties":{"name":"Warwick Road","maxspeed":"30 mph","highway":"primary","profile":"bus","distance":"5306.583","time":"391.2161"}},{"type":"Feature","name":"ShapeMeta","geometry":{"type":"LineString","coordinates":[[-1.516784,52.39736],[-1.516709,52.39776],[-1.51663,52.39825]]},"properties":{"name":"Warwick Road","maxspeed":"30 mph","highway":"primary","profile":"bus","distance":"5406.392","time":"401.1391"}},{"type":"Feature","name":"ShapeMeta","geometry":{"type":"LineString","coordinates":[[-1.51663,52.39825],[-1.516599,52.39843],[-1.516572,52.3986]]},"properties":{"name":"Warwick Road","maxspeed":"30 mph","highway":"primary","profile":"bus","distance":"5445.092","time":"404.9866"}},{"type":"Feature","name":"ShapeMeta","geometry":{"type":"LineString","coordinates":[[-1.516572,52.3986],[-1.516473,52.39906]]},"properties":{"name":"Warwick Road","maxspeed":"30 mph","highway":"primary","profile":"bus","distance":"5497.192","time":"410.1664"}},{"type":"Feature","name":"ShapeMeta","geometry":{"type":"LineString","coordinates":[[-1.516473,52.39906],[-1.516381,52.39944],[-1.516266,52.39981]]},"properties":{"name":"Warwick Road","maxspeed":"30 mph","highway":"primary","profile":"bus","distance":"5581.092","time":"418.5077"}},{"type":"Feature","name":"ShapeMeta","geometry":{"type":"LineString","coordinates":[[-1.516266,52.39981],[-1.516214,52.40001],[-1.516161,52.40015]]},"properties":{"name":"Warwick Road","maxspeed":"30 mph","highway":"primary","profile":"bus","distance":"5620.292","time":"422.4049"}},{"type":"Feature","name":"ShapeMeta","geometry":{"type":"LineString","coordinates":[[-1.516161,52.40015],[-1.516123,52.40026]]},"properties":{"name":"Warwick Road","maxspeed":"30 mph","highway":"primary","profile":"bus","distance":"5632.392","time":"423.6079"}},{"type":"Feature","name":"ShapeMeta","geometry":{"type":"LineString","coordinates":[[-1.516123,52.40026],[-1.516072,52.40043]]},"properties":{"name":"Warwick Road","maxspeed":"30 mph","highway":"primary","profile":"bus","distance":"5651.692","time":"425.5267"}},{"type":"Feature","name":"ShapeMeta","geometry":{"type":"LineString","coordinates":[[-1.516072,52.40043],[-1.516033,52.40054]]},"properties":{"name":"Warwick Road","maxspeed":"30 mph","highway":"primary","profile":"bus","distance":"5663.41","time":"426.6917"}},{"type":"Feature","name":"ShapeMeta","geometry":{"type":"LineString","coordinates":[[-1.516033,52.40054],[-1.515987,52.40066]]},"properties":{"name":"Warwick Road","maxspeed":"30 mph","highway":"primary","profile":"bus","distance":"5677.292","time":"428.0719"}},{"type":"Feature","name":"ShapeMeta","geometry":{"type":"LineString","coordinates":[[-1.515987,52.40066],[-1.515966,52.40073],[-1.515913,52.40084]]},"properties":{"name":"Warwick Road","maxspeed":"30 mph","oneway":"yes","highway":"primary","profile":"bus","distance":"5698.192","time":"430.1497"}},{"type":"Feature","name":"ShapeMeta","geometry":{"type":"LineString","coordinates":[[-1.515913,52.40084],[-1.515869,52.40093]]},"properties":{"name":"Warwick Road","maxspeed":"30 mph","oneway":"yes","highway":"primary","profile":"bus","distance":"5708.792","time":"431.2036"}},{"type":"Feature","name":"ShapeMeta","geometry":{"type":"LineString","coordinates":[[-1.515869,52.40093],[-1.515751,52.40121]]},"properties":{"name":"Warwick Road","bridge":"yes","maxspeed":"30 mph","oneway":"yes","highway":"primary","profile":"bus","distance":"5741.092","time":"434.4149"}},{"type":"Feature","name":"ShapeMeta","geometry":{"type":"LineString","coordinates":[[-1.515751,52.40121],[-1.515696,52.40138],[-1.515706,52.40145],[-1.515753,52.40153],[-1.515848,52.40159]]},"properties":{"name":"Warwick Road","maxspeed":"30 mph","oneway":"yes","highway":"primary","profile":"bus","distance":"5786.192","time":"438.8987"}},{"type":"Feature","name":"ShapeMeta","geometry":{"type":"LineString","coordinates":[[-1.515848,52.40159],[-1.515879,52.4016],[-1.515906,52.40162]]},"properties":{"name":"Warwick Road","maxspeed":"30 mph","oneway":"yes","highway":"primary","junction":"roundabout","profile":"bus","distance":"5791.592","time":"439.4355"}},{"type":"Feature","name":"ShapeMeta","geometry":{"type":"LineString","coordinates":[[-1.515906,52.40162],[-1.515922,52.40164],[-1.515927,52.40171],[-1.515888,52.40176],[-1.515859,52.40177]]},"properties":{"name":"Warwick Road","maxspeed":"30 mph","oneway":"yes","highway":"primary","junction":"roundabout","profile":"bus","distance":"5810.092","time":"441.2748"}},{"type":"Feature","name":"ShapeMeta","geometry":{"type":"LineString","coordinates":[[-1.515859,52.40177],[-1.515807,52.40179],[-1.515763,52.40179]]},"properties":{"name":"Warwick Road","maxspeed":"30 mph","oneway":"yes","highway":"primary","junction":"roundabout","profile":"bus","distance":"5816.992","time":"441.9608"}},{"type":"Feature","name":"ShapeMeta","geometry":{"type":"LineString","coordinates":[[-1.515763,52.40179],[-1.515672,52.40184],[-1.515585,52.40189],[-1.515528,52.40194],[-1.515422,52.40209],[-1.515378,52.40223]]},"properties":{"name":"Warwick Road","maxspeed":"30 mph","oneway":"yes","highway":"primary","profile":"bus","distance":"5873.692","time":"447.5979"}},{"type":"Feature","name":"ShapeMeta","geometry":{"type":"LineString","coordinates":[[-1.515378,52.40223],[-1.515348,52.40231],[-1.515331,52.40236]]},"properties":{"name":"Warwick Road","maxspeed":"20 mph","oneway":"yes","highway":"primary","profile":"bus","distance":"5888.792","time":"449.8498"}},{"type":"Feature","name":"ShapeMeta","geometry":{"type":"LineString","coordinates":[[-1.515331,52.40236],[-1.515278,52.40239],[-1.515222,52.40242],[-1.515161,52.40244]]},"properties":{"maxspeed":"20 mph","oneway":"yes","highway":"tertiary","profile":"bus","distance":"5903.393","time":"452.027"}},{"type":"Feature","name":"ShapeMeta","geometry":{"type":"LineString","coordinates":[[-1.515161,52.40244],[-1.514899,52.4025],[-1.514776,52.40252]]},"properties":{"maxspeed":"20 mph","highway":"tertiary","profile":"bus","distance":"5930.992","time":"456.143"}},{"type":"Feature","name":"ShapeMeta","geometry":{"type":"LineString","coordinates":[[-1.514776,52.40252],[-1.514602,52.40256],[-1.514512,52.40257],[-1.51437,52.40253],[-1.514345,52.40249]]},"properties":{"maxspeed":"20 mph","highway":"tertiary","profile":"bus","distance":"5964.492","time":"461.1389"}},{"type":"Feature","name":"ShapeMeta","geometry":{"type":"LineString","coordinates":[[-1.514345,52.40249],[-1.514318,52.40242],[-1.514265,52.4023],[-1.514215,52.40219]]},"properties":{"name":"Eaton Road","maxspeed":"20 mph","highway":"tertiary","profile":"bus","distance":"5998.692","time":"466.2391"}},{"type":"Feature","name":"ShapeMeta","geometry":{"type":"LineString","coordinates":[[-1.514215,52.40219],[-1.514111,52.40205]]},"properties":{"name":"Eaton Road","maxspeed":"20 mph","highway":"tertiary","profile":"bus","distance":"6016.592","time":"468.9085"}},{"type":"Feature","name":"ShapeMeta","geometry":{"type":"LineString","coordinates":[[-1.514111,52.40205],[-1.514056,52.40197],[-1.513965,52.40181],[-1.513956,52.40178]]},"properties":{"name":"Eaton Road","maxspeed":"20 mph","highway":"tertiary","profile":"bus","distance":"6048.092","time":"473.6061"}},{"type":"Feature","name":"ShapeMeta","geometry":{"type":"LineString","coordinates":[[-1.513956,52.40178],[-1.513945,52.40174],[-1.513946,52.40164],[-1.513964,52.40157]]},"properties":{"name":"Station Square","maxspeed":"20 mph","highway":"unclassified","profile":"bus","distance":"6071.992","time":"477.1703"}},{"type":"Feature","name":"ShapeMeta","geometry":{"type":"LineString","coordinates":[[-1.513964,52.40157],[-1.514087,52.40158],[-1.514138,52.40162],[-1.514115,52.40174]]},"properties":{"highway":"service","oneway":"yes","profile":"bus","distance":"6100.441","time":"480.5841"}},{"type":"Feature","name":"ShapeMeta","geometry":{"type":"LineString","coordinates":[[-1.514115,52.40174],[-1.514085,52.40191],[-1.51409,52.40196],[-1.514111,52.40205]]},"properties":{"highway":"service","oneway":"yes","profile":"bus","distance":"6134.292","time":"484.6462"}},{"type":"Feature","name":"ShapeMeta","geometry":{"type":"LineString","coordinates":[[-1.514111,52.40205],[-1.514215,52.40219]]},"properties":{"name":"Eaton Road","maxspeed":"20 mph","highway":"tertiary","profile":"bus","distance":"6152.192","time":"487.3157"}},{"type":"Feature","name":"ShapeMeta","geometry":{"type":"LineString","coordinates":[[-1.514215,52.40219],[-1.514265,52.4023],[-1.514318,52.40242],[-1.514345,52.40249]]},"properties":{"name":"Eaton Road","maxspeed":"20 mph","highway":"tertiary","profile":"bus","distance":"6186.392","time":"492.4159"}},{"type":"Feature","name":"ShapeMeta","geometry":{"type":"LineString","coordinates":[[-1.514345,52.40249],[-1.514375,52.40259],[-1.514313,52.40279],[-1.514278,52.40285],[-1.514257,52.40288]]},"properties":{"maxspeed":"20 mph","highway":"tertiary_link","profile":"bus","distance":"6230.592","time":"499.0074"}},{"type":"Feature","name":"ShapeMeta","geometry":{"type":"LineString","coordinates":[[-1.514257,52.40288],[-1.514403,52.40291],[-1.51472,52.403]]},"properties":{"maxspeed":"20 mph","oneway":"yes","highway":"trunk_link","profile":"bus","distance":"6264.592","time":"504.0778"}},{"type":"Feature","name":"ShapeMeta","geometry":{"type":"LineString","coordinates":[[-1.51472,52.403],[-1.514761,52.40302],[-1.514845,52.40305]]},"properties":{"maxspeed":"20 mph","oneway":"yes","highway":"primary","profile":"bus","distance":"6275.192","time":"505.6586"}},{"type":"Feature","name":"ShapeMeta","geometry":{"type":"LineString","coordinates":[[-1.514845,52.40305],[-1.514813,52.40308]]},"properties":{"name":"Warwick Road","maxspeed":"20 mph","oneway":"yes","highway":"primary","profile":"bus","distance":"6278.792","time":"506.1955"}},{"type":"Feature","name":"ShapeMeta","geometry":{"type":"LineString","coordinates":[[-1.514813,52.40308],[-1.514631,52.40323]]},"properties":{"name":"Warwick Road","maxspeed":"20 mph","oneway":"yes","highway":"primary","profile":"bus","distance":"6299.692","time":"509.3123"}},{"type":"Feature","name":"ShapeMeta","geometry":{"type":"LineString","coordinates":[[-1.514631,52.40323],[-1.514616,52.40324],[-1.514546,52.40327],[-1.514531,52.40327]]},"properties":{"name":"Warwick Road","maxspeed":"20 mph","oneway":"yes","highway":"primary","profile":"bus","distance":"6307.792","time":"510.5202"}},{"type":"Feature","name":"ShapeMeta","geometry":{"type":"LineString","coordinates":[[-1.514531,52.40327],[-1.514322,52.40346],[-1.514083,52.40363],[-1.514031,52.4037],[-1.513913,52.40393],[-1.513838,52.40425],[-1.513832,52.40432]]},"properties":{"name":"Warwick Road","maxspeed":"20 mph","highway":"secondary","profile":"bus","distance":"6436.792","time":"529.7579"}},{"type":"Feature","name":"ShapeMeta","geometry":{"type":"LineString","coordinates":[[-1.513832,52.40432],[-1.513812,52.40443],[-1.513756,52.4045]]},"properties":{"name":"Warwick Road","maxspeed":"20 mph","oneway":"yes","highway":"secondary","profile":"bus","distance":"6457.692","time":"532.8748"}},{"type":"Feature","name":"ShapeMeta","geometry":{"type":"LineString","coordinates":[[-1.513756,52.4045],[-1.513763,52.4045],[-1.513765,52.40451]]},"properties":{"name":"Warwick Road","maxspeed":"20 mph","highway":"secondary","junction":"roundabout","profile":"bus","distance":"6459.492","time":"533.1432"}},{"type":"Feature","name":"ShapeMeta","geometry":{"type":"LineString","coordinates":[[-1.513765,52.40451],[-1.513764,52.40452],[-1.513754,52.40453],[-1.513744,52.40454]]},"properties":{"name":"Warwick Road","maxspeed":"20 mph","highway":"secondary","junction":"roundabout","profile":"bus","distance":"6463.292","time":"533.7098"}},{"type":"Feature","name":"ShapeMeta","geometry":{"type":"LineString","coordinates":[[-1.513744,52.40454],[-1.513733,52.40454],[-1.513719,52.40455]]},"properties":{"name":"Warwick Road","maxspeed":"20 mph","highway":"secondary","junction":"roundabout","profile":"bus","distance":"6465.192","time":"533.9932"}},{"type":"Feature","name":"ShapeMeta","geometry":{"type":"LineString","coordinates":[[-1.513719,52.40455],[-1.513674,52.40459],[-1.513569,52.4047],[-1.513319,52.40506]]},"properties":{"name":"Warwick Road","maxspeed":"20 mph","oneway":"yes","highway":"secondary","profile":"bus","distance":"6527.892","time":"543.3436"}},{"type":"Feature","name":"ShapeMeta","geometry":{"type":"LineString","coordinates":[[-1.513319,52.40506],[-1.513203,52.40518],[-1.513111,52.40526],[-1.513024,52.40531]]},"properties":{"name":"Warwick Road","maxspeed":"20 mph","oneway":"yes","highway":"secondary","profile":"bus","distance":"6562.492","time":"548.5035"}},{"type":"Feature","name":"ShapeMeta","geometry":{"type":"LineString","coordinates":[[-1.513024,52.40531],[-1.51297,52.40536],[-1.512884,52.40543],[-1.512782,52.40549],[-1.512692,52.40553],[-1.51251,52.40557],[-1.51246,52.40559]]},"properties":{"name":"Warwick Road","maxspeed":"20 mph","highway":"secondary","profile":"bus","distance":"6613.392","time":"556.0942"}},{"type":"Feature","name":"ShapeMeta","geometry":{"type":"LineString","coordinates":[[-1.51246,52.40559],[-1.512382,52.40559],[-1.512291,52.4056],[-1.512153,52.40559],[-1.512038,52.40558]]},"properties":{"name":"New Union Street","maxspeed":"20 mph","highway":"secondary","profile":"bus","distance":"6642.192","time":"560.3891"}},{"type":"Feature","name":"ShapeMeta","geometry":{"type":"LineString","coordinates":[[-1.512038,52.40558],[-1.511954,52.40557],[-1.511856,52.40555],[-1.511681,52.40549]]},"properties":{"name":"New Union Street","maxspeed":"20 mph","highway":"secondary","profile":"bus","distance":"6668.85","time":"564.3646"}},{"type":"Feature","name":"ShapeMeta","geometry":{"type":"LineString","coordinates":[[-1.511681,52.40549],[-1.511292,52.40535],[-1.511162,52.40531]]},"properties":{"name":"New Union Street","maxspeed":"20 mph","highway":"secondary","profile":"bus","distance":"6709.092","time":"570.3659"}},{"type":"Feature","name":"ShapeMeta","geometry":{"type":"LineString","coordinates":[[-1.511162,52.40531],[-1.51096,52.40527],[-1.510846,52.40524],[-1.51068,52.4052]]},"properties":{"name":"New Union Street","maxspeed":"20 mph","oneway":"yes","highway":"secondary","profile":"bus","distance":"6744.192","time":"575.6003"}},{"type":"Feature","name":"ShapeMeta","geometry":{"type":"LineString","coordinates":[[-1.51068,52.4052],[-1.509967,52.40498],[-1.509641,52.40489],[-1.509015,52.40465],[-1.508883,52.40462]]},"properties":{"name":"New Union Street","maxspeed":"20 mph","oneway":"yes","highway":"secondary","profile":"bus","distance":"6882.192","time":"596.1802"}},{"type":"Feature","name":"ShapeMeta","geometry":{"type":"LineString","coordinates":[[-1.508883,52.40462],[-1.508859,52.40462]]},"properties":{"maxspeed":"20 mph","highway":"secondary","junction":"roundabout","profile":"bus","distance":"6883.792","time":"596.4188"}},{"type":"Feature","name":"ShapeMeta","geometry":{"type":"LineString","coordinates":[[-1.508859,52.40462],[-1.508806,52.40468],[-1.508693,52.40477],[-1.508672,52.40479]]},"properties":{"name":"Little Park Street","maxspeed":"20 mph","oneway":"yes","highway":"secondary","profile":"bus","distance":"6906.392","time":"599.7892"}},{"type":"Feature","name":"ShapeMeta","geometry":{"type":"LineString","coordinates":[[-1.508672,52.40479],[-1.508608,52.40484],[-1.508566,52.40488]]},"properties":{"name":"Little Park Street","maxspeed":"20 mph","oneway":"yes","highway":"secondary","profile":"bus","distance":"6918.892","time":"601.6533"}},{"type":"Feature","name":"ShapeMeta","geometry":{"type":"LineString","coordinates":[[-1.508566,52.40488],[-1.508559,52.40491],[-1.508554,52.40503],[-1.508557,52.40514]]},"properties":{"name":"Little Park Street","maxspeed":"20 mph","highway":"secondary","profile":"bus","distance":"6947.692","time":"605.9482"}},{"type":"Feature","name":"ShapeMeta","geometry":{"type":"LineString","coordinates":[[-1.508557,52.40514],[-1.508556,52.4053],[-1.508554,52.40538]]},"properties":{"name":"Little Park Street","maxspeed":"20 mph","highway":"secondary","profile":"bus","distance":"6974.792","time":"609.9896"}},{"type":"Feature","name":"ShapeMeta","geometry":{"type":"LineString","coordinates":[[-1.508554,52.40538],[-1.508533,52.40594]]},"properties":{"name":"Little Park Street","maxspeed":"20 mph","oneway":"yes","highway":"secondary","profile":"bus","distance":"7037.092","time":"619.2804"}},{"type":"Feature","name":"ShapeMeta","geometry":{"type":"LineString","coordinates":[[-1.508533,52.40594],[-1.508531,52.40599],[-1.508487,52.40659]]},"properties":{"name":"Little Park Street","maxspeed":"20 mph","oneway":"yes","highway":"secondary","profile":"bus","distance":"7108.454","time":"629.9225"}},{"type":"Feature","name":"ShapeMeta","geometry":{"type":"LineString","coordinates":[[-1.508487,52.40659],[-1.508481,52.40666],[-1.508432,52.40677],[-1.508401,52.40681],[-1.508267,52.4069],[-1.508183,52.40694]]},"properties":{"name":"Little Park Street","maxspeed":"20 mph","oneway":"yes","highway":"secondary","profile":"bus","distance":"7154.792","time":"636.8329"}},{"type":"Feature","name":"ShapeMeta","geometry":{"type":"LineString","coordinates":[[-1.508183,52.40694],[-1.508132,52.40695],[-1.507958,52.40697],[-1.507766,52.40697],[-1.507361,52.40692]]},"properties":{"name":"Earl Street","maxspeed":"20 mph","oneway":"yes","highway":"secondary","profile":"bus","distance":"7211.692","time":"645.3184"}},{"type":"Feature","name":"ShapeMeta","geometry":{"type":"LineString","coordinates":[[-1.507361,52.40692],[-1.507185,52.40689],[-1.506787,52.40687],[-1.50675,52.40687]]},"properties":{"name":"Earl Street","maxspeed":"20 mph","oneway":"yes","highway":"secondary","profile":"bus","distance":"7253.549","time":"651.5604"}},{"type":"Feature","name":"ShapeMeta","geometry":{"type":"LineString","coordinates":[[-1.50675,52.40687],[-1.506611,52.40686]]},"properties":{"name":"Earl Street","maxspeed":"20 mph","oneway":"yes","highway":"secondary","profile":"bus","distance":"7262.992","time":"652.9688"}},{"type":"Feature","name":"ShapeMeta","geometry":{"type":"LineString","coordinates":[[-1.506611,52.40686],[-1.50644,52.40686]]},"properties":{"name":"Earl Street","maxspeed":"20 mph","oneway":"yes","highway":"secondary","profile":"bus","distance":"7274.592","time":"654.6986"}},{"type":"Feature","name":"ShapeMeta","geometry":{"type":"LineString","coordinates":[[-1.50644,52.40686],[-1.506315,52.40685],[-1.506165,52.40684]]},"properties":{"name":"Jordan Well","maxspeed":"20 mph","oneway":"yes","highway":"secondary","profile":"bus","distance":"7293.292","time":"657.4874"}},{"type":"Feature","name":"ShapeMeta","geometry":{"type":"LineString","coordinates":[[-1.506165,52.40684],[-1.506111,52.40684],[-1.505694,52.40683],[-1.504435,52.40678],[-1.504223,52.40678],[-1.504148,52.40679]]},"properties":{"name":"Jordan Well","maxspeed":"20 mph","highway":"secondary","profile":"bus","distance":"7430.592","time":"677.9628"}},{"type":"Feature","name":"ShapeMeta","geometry":{"type":"LineString","coordinates":[[-1.504148,52.40679],[-1.504114,52.40685],[-1.503847,52.40764],[-1.50372,52.40798]]},"properties":{"name":"Cox Street","maxspeed":"20 mph","highway":"secondary","profile":"bus","distance":"7565.717","time":"698.1139"}},{"type":"Feature","name":"ShapeMeta","geometry":{"type":"LineString","coordinates":[[-1.50372,52.40798],[-1.503677,52.40809]]},"properties":{"name":"Cox Street","maxspeed":"20 mph","highway":"secondary","profile":"bus","distance":"7578.792","time":"700.0638"}},{"type":"Feature","name":"ShapeMeta","geometry":{"type":"LineString","coordinates":[[-1.503677,52.40809],[-1.503596,52.40836],[-1.503581,52.40843],[-1.503568,52.4085]]},"properties":{"name":"Cox Street","maxspeed":"20 mph","highway":"secondary","profile":"bus","distance":"7624.292","time":"706.8492"}},{"type":"Feature","name":"ShapeMeta","geometry":{"type":"LineString","coordinates":[[-1.503568,52.4085],[-1.503559,52.40852]]},"properties":{"name":"Cox Street","maxspeed":"20 mph","highway":"secondary","profile":"bus","distance":"7627.292","time":"707.2966"}},{"type":"Feature","name":"ShapeMeta","geometry":{"type":"LineString","coordinates":[[-1.503559,52.40852],[-1.503482,52.40876],[-1.503406,52.40898]]},"properties":{"name":"Cox Street","tunnel":"building_passage","maxspeed":"20 mph","highway":"secondary","profile":"bus","distance":"7678.792","time":"714.9767"}},{"type":"Feature","name":"ShapeMeta","geometry":{"type":"LineString","coordinates":[[-1.503406,52.40898],[-1.503387,52.40905],[-1.503383,52.40914],[-1.503412,52.40922],[-1.503432,52.40925],[-1.503543,52.40932],[-1.503624,52.40935]]},"properties":{"name":"Cox Street","maxspeed":"20 mph","highway":"secondary","profile":"bus","distance":"7726.892","time":"722.1499"}},{"type":"Feature","name":"ShapeMeta","geometry":{"type":"LineString","coordinates":[[-1.503624,52.40935],[-1.503827,52.40934],[-1.504711,52.40945],[-1.505101,52.40951]]},"properties":{"name":"Fairfax Street","maxspeed":"20 mph","oneway":"yes","highway":"tertiary","profile":"bus","distance":"7829.092","time":"737.3909"}},{"type":"Feature","name":"ShapeMeta","geometry":{"type":"LineString","coordinates":[[-1.505101,52.40951],[-1.505119,52.40951]]},"properties":{"name":"Fairfax Street","maxspeed":"20 mph","oneway":"yes","highway":"tertiary","profile":"bus","distance":"7830.318","time":"737.5739"}},{"type":"Feature","name":"ShapeMeta","geometry":{"type":"LineString","coordinates":[[-1.505119,52.40951],[-1.505629,52.40958]]},"properties":{"name":"Fairfax Street","maxspeed":"20 mph","oneway":"yes","highway":"tertiary","profile":"bus","distance":"7865.591","time":"742.8342"}},{"type":"Feature","name":"ShapeMeta","geometry":{"type":"LineString","coordinates":[[-1.505629,52.40958],[-1.50612,52.40964]]},"properties":{"name":"Fairfax Street","maxspeed":"20 mph","oneway":"yes","highway":"tertiary","profile":"bus","distance":"7899.591","time":"747.9047"}},{"type":"Feature","name":"ShapeMeta","geometry":{"type":"LineString","coordinates":[[-1.50612,52.40964],[-1.50611,52.4097]]},"properties":{"maxspeed":"20 mph","highway":"unclassified","profile":"bus","distance":"7905.892","time":"748.8442"}},{"type":"Feature","name":"ShapeMeta","geometry":{"type":"LineString","coordinates":[[-1.50611,52.4097],[-1.506083,52.40978]]},"properties":{"maxspeed":"20 mph","highway":"unclassified","profile":"bus","distance":"7915.392","time":"750.2609"}},{"type":"Feature","name":"ShapeMeta","geometry":{"type":"LineString","coordinates":[[-1.506083,52.40978],[-1.50618,52.4099]]},"properties":{"highway":"service","oneway":"yes","profile":"bus","distance":"7930.091","time":"752.0249"}},{"type":"Feature","name":"ShapeMeta","geometry":{"type":"LineString","coordinates":[[-1.50618,52.4099],[-1.506199,52.40994]]},"properties":{"highway":"service","oneway":"yes","profile":"bus","distance":"7934.492","time":"752.5529"}},{"type":"Feature","name":"ShapeMeta","geometry":{"type":"LineString","coordinates":[[-1.506199,52.40994],[-1.506213,52.41004],[-1.506038,52.41054]]},"properties":{"highway":"service","oneway":"yes","profile":"bus","distance":"8002.792","time":"760.7489"}},{"type":"Feature","name":"ShapeMeta","geometry":{"type":"LineString","coordinates":[[-1.506038,52.41054],[-1.506017,52.41061]]},"properties":{"highway":"service","oneway":"yes","profile":"bus","distance":"8010.892","time":"761.7209"}},{"type":"Feature","name":"ShapeMeta","geometry":{"type":"LineString","coordinates":[[-1.506017,52.41061],[-1.506296,52.41065]]},"properties":{"highway":"service","maxspeed":"10 mph","profile":"bus","distance":"8030.091","time":"767.4474"}},{"type":"Feature","name":"ShapeMeta","geometry":{"type":"LineString","coordinates":[[-1.506296,52.41065],[-1.506415,52.41066]]},"properties":{"highway":"service","maxspeed":"10 mph","profile":"bus","distance":"8038.292","time":"769.8932"}},{"type":"Feature","name":"ShapeMeta","geometry":{"type":"LineString","coordinates":[[-1.506415,52.41066],[-1.506615,52.41069]]},"properties":{"highway":"service","maxspeed":"10 mph","profile":"bus","distance":"8052.091","time":"774.0092"}},{"type":"Feature","name":"ShapeMeta","geometry":{"type":"LineString","coordinates":[[-1.506615,52.41069],[-1.507108,52.41076]]},"properties":{"highway":"service","maxspeed":"10 mph","profile":"bus","distance":"8086.292","time":"784.2096"}},{"type":"Feature","name":"ShapeMeta","geometry":{"type":"LineString","coordinates":[[-1.507108,52.41076],[-1.507298,52.41022],[-1.507329,52.41019],[-1.507389,52.41017],[-1.507454,52.41016],[-1.507536,52.41018],[-1.507568,52.4102],[-1.507597,52.41023],[-1.507597,52.41026],[-1.507559,52.41041],[-1.507418,52.41063]]},"properties":{"highway":"service","oneway":"yes","maxspeed":"10 mph","profile":"bus","distance":"8219.155","time":"823.8375"}},{"type":"Feature","name":"Stop","Shape":"0","geometry":{"type":"Point","coordinates":[-1.56263,52.37945]},"properties":{"index":"0","distance":"0","time":"0"}},{"type":"Feature","name":"Stop","Shape":"52","geometry":{"type":"Point","coordinates":[-1.55391,52.37425]},"properties":{"index":"1","distance":"980.1895","time":"90.51521"}},{"type":"Feature","name":"Stop","Shape":"73","geometry":{"type":"Point","coordinates":[-1.54986,52.37111]},"properties":{"index":"2","distance":"1475.353","time":"126.7058"}},{"type":"Feature","name":"Stop","Shape":"78","geometry":{"type":"Point","coordinates":[-1.54446,52.37677]},"properties":{"index":"3","distance":"2202.959","time":"170.1088"}},{"type":"Feature","name":"Stop","Shape":"107","geometry":{"type":"Point","coordinates":[-1.53849,52.38285]},"properties":{"index":"4","distance":"2992.949","time":"217.2331"}},{"type":"Feature","name":"Stop","Shape":"123","geometry":{"type":"Point","coordinates":[-1.53436,52.38716]},"properties":{"index":"5","distance":"3547.14","time":"251.7225"}},{"type":"Feature","name":"Stop","Shape":"132","geometry":{"type":"Point","coordinates":[-1.53125,52.39036]},"properties":{"index":"6","distance":"3960.894","time":"282.5739"}},{"type":"Feature","name":"Stop","Shape":"135","geometry":{"type":"Point","coordinates":[-1.52862,52.39311]},"properties":{"index":"7","distance":"4314.745","time":"308.9587"}},{"type":"Feature","name":"Stop","Shape":"144","geometry":{"type":"Point","coordinates":[-1.52405,52.39452]},"properties":{"index":"8","distance":"4667.354","time":"335.2509"}},{"type":"Feature","name":"Stop","Shape":"149","geometry":{"type":"Point","coordinates":[-1.51894,52.39566]},"properties":{"index":"9","distance":"5035.857","time":"364.3007"}},{"type":"Feature","name":"Stop","Shape":"160","geometry":{"type":"Point","coordinates":[-1.51686,52.39737]},"properties":{"index":"10","distance":"5306.583","time":"391.2161"}},{"type":"Feature","name":"Stop","Shape":"172","geometry":{"type":"Point","coordinates":[-1.51612,52.40057]},"properties":{"index":"11","distance":"5663.41","time":"426.6917"}},{"type":"Feature","name":"Stop","Shape":"218","geometry":{"type":"Point","coordinates":[-1.51427,52.40178]},"properties":{"index":"12","distance":"6100.441","time":"480.5841"}},{"type":"Feature","name":"Stop","Shape":"272","geometry":{"type":"Point","coordinates":[-1.51164,52.4056]},"properties":{"index":"13","distance":"6668.85","time":"564.3646"}},{"type":"Feature","name":"Stop","Shape":"295","geometry":{"type":"Point","coordinates":[-1.50859,52.40659]},"properties":{"index":"14","distance":"7108.454","time":"629.9225"}},{"type":"Feature","name":"Stop","Shape":"307","geometry":{"type":"Point","coordinates":[-1.50675,52.40692]},"properties":{"index":"15","distance":"7253.549","time":"651.5604"}},{"type":"Feature","name":"Stop","Shape":"319","geometry":{"type":"Point","coordinates":[-1.50378,52.408]},"properties":{"index":"16","distance":"7565.717","time":"698.1139"}},{"type":"Feature","name":"Stop","Shape":"336","geometry":{"type":"Point","coordinates":[-1.50513,52.40943]},"properties":{"index":"17","distance":"7830.318","time":"737.5739"}},{"type":"Feature","name":"Stop","Shape":"359","geometry":{"type":"Point","coordinates":[-1.5075,52.41067]},"properties":{"index":"18","distance":"8219.155","time":"823.8375"}}]}
